url,UN/LOCODE,country,UN_code,ISO2,ISO3,city_or_location,port_name,local_port_name,lat,lon,authority_name,address,phone,fax,website,email
https://psma-gies.fao.org/designated-ports/view/220ad399-489f-4ca1-8b3d-72766d32e920,–,Thailand,764,TH,THA,"50 Moo 4, Bangchak, Phra Pradaeng, Samut Prakan 10130",23A Port,–,–,–,Fishery Inspection Regional Center 3 (Bangkok),"Pat-Sa-Du building, Floor 2 , Thai Port, Kwang Khlong Toei, Khet Khlong Toei, Bangkok",+66 26718794,+66 26727901,–,psmfishtrade@gmail.com
https://psma-gies.fao.org/designated-ports/view/61644bbd-b9b3-415f-aa19-309558169fef,–,Thailand,764,TH,THA,"50 Moo 4, Bangchak, Phra Pradaeng, Samut Prakan 10130",23C Port,–,–,–,Fishery Inspection Regional Center 3 (Bangkok),"Pat-Sa-Du building, Floor 2 , Thai Port, Kwang Khlong Toei, Khet Khlong Toei, Bangkok",+66 26718794,+66 26727901,–,psmfishtrade@gmail.com
https://psma-gies.fao.org/designated-ports/view/43fb997c-2b4c-405a-90ed-55d4aeeb3f96,–,Thailand,764,TH,THA,"185 Bang Pakok, Rat Burana, Bangkok 10140",33A-B port,–,–,–,Fishery Inspection Regional Center 3 (Bangkok),"Pat-Sa-Du building, Floor 2 , Thai Port, Kwang Khlong Toei, Khet Khlong Toei, Bangkok",+66 26718794,+66 26727901,–,psmfishtrade@gmail.com
https://psma-gies.fao.org/designated-ports/view/32dad0d9-993b-478a-9d9e-466225f63bf9,–,Spain,724,ES,ESP,GALICIA,A CORUÑA,–,N43°21'24'',W8°23'20'',"SUBDIRECCIÓN GENERAL DE VIGILANCIA PESQUERA Y LUCHA CONTRA LA PESCA ILEGAL  (SECRETARIA GENERAL DE PESCA) MINISTERIO DE AGRICULTURA, PESCA Y ALIMENTACIÓN",Calle Velázquez nº147 28071 - Madrid España,+34 913471949,+34 913471512,–,iuu_slo_esp@mapama.es
https://psma-gies.fao.org/designated-ports/view/24e79ff8-947c-477a-9c62-5b7adcec371d,–,Spain,724,ES,ESP,GALICIA,A POBRA DO CARAMIÑAL,–,N42°36'24'',W8°56'13'',"SUBDIRECCIÓN GENERAL DE VIGILANCIA PESQUERA Y LUCHA CONTRA LA PESCA ILEGAL  (SECRETARIA GENERAL DE PESCA) MINISTERIO DE AGRICULTURA, PESCA Y ALIMENTACIÓN",Calle Velázquez nº147 28071 - Madrid España,+34 913471949,+34 913471512,–,iuu_slo_esp@mapama.es
https://psma-gies.fao.org/designated-ports/view/3c859a76-baab-4b1d-b66b-4d2390f2110b,–,Denmark,208,DK,DNK,Aalborg,Aalborg,–,N57°3'18'',E9°59'12'',Port of Aalborg,–,+45 99301500,–,–,info@aalborghavn.dk
https://psma-gies.fao.org/designated-ports/view/e96ab76a-65c7-4ceb-a2d1-ada66fbd88ed,–,Denmark,208,DK,DNK,Aarhus,Aarhus,Aarhus havn,N56°9'0'',E10°13'7'',–,"Vandvejen 7, DK-8000 Aarhus C",+45 86133266,–,–,port@portofaarhus.dk
https://psma-gies.fao.org/designated-ports/view/ea67a2be-fa58-45e4-9119-f69fbec6b5fd,–,United Kingdom,826,GB,GBR,Aberdeen,Aberdeen Harbour,–,–,–,Aberdeen Harbour,Harbour Office  16 Regent Quay  Aberdeen,+44 1224 597000,+44 01224 571507,–,info@aberdeen-harbour.co.uk
https://psma-gies.fao.org/designated-ports/view/eceef9ef-f48f-4263-95dd-4afc39188233,–,Türkiye,792,TR,TUR,KARATAŞ-ADANA,ADANA KARATAŞ FISHING PORT,ADANA KARATAŞ BALIKÇI BARINAĞI,N36°33'28'',E35°22'55'',–,Karşıyaka mah. Sahil cd. Balıkçı barınağı içi Karataş/Adana,–,–,–,–
https://psma-gies.fao.org/designated-ports/view/903d08e6-055c-4833-b130-72134388f825,–,Morocco,504,MA,MAR,MAROC,AGADIR ,–,N30°25'0'',W9°48'0'',Délégation des Pêches Maritimes  d’Agadir,Nouveau port Anza Code postal 35S Agadir,2.12529E+11,2.12529E+11,–,elmustapha.ouchkeni@mpm.gov.ma
https://psma-gies.fao.org/designated-ports/view/fb6042e8-01be-48a2-833e-9d783db970e9,–,Russian Federation,643,RU,RUS,the Republic of Bashkortostan,Agidel,–,–,–,–,–,–,–,–,–
https://psma-gies.fao.org/designated-ports/view/fa71f197-e522-45e6-8671-11e071e52e32,–,Australia,36,AU,AUS,Albany,Albany Port,–,S35°1'59'',E117°52'59'',Southern Ports Authority,85 Brunswick Road  Albany WA 6330,+61 8 9892 9000,–,–,enquiries.albany@southernports.com.au
https://psma-gies.fao.org/designated-ports/view/20ca033c-0d72-4b20-8aa2-ebad94f15165,–,Spain,724,ES,ESP,ANDALUCIA,ALGECIRAS,–,N36°8'9'',W5°26'34'',"SUBDIRECCIÓN GENERAL DE VIGILANCIA PESQUERA Y LUCHA CONTRA LA PESCA ILEGAL  (SECRETARIA GENERAL DE PESCA) MINISTERIO DE AGRICULTURA, PESCA Y ALIMENTACIÓN",Calle Velázquez nº147 28071 - Madrid España    ,+34 913471949,+34 913471512,–,iuu_slo_esp@mapama.es
https://psma-gies.fao.org/designated-ports/view/60f7b79f-a05f-482c-a749-3b6af799d87d,–,Spain,724,ES,ESP,COMUNIDAD VALENCIANA,ALICANTE,–,N38°19'50'',W0°30'25'',"SUBDIRECCIÓN GENERAL DE VIGILANCIA PESQUERA Y LUCHA CONTRA LA PESCA ILEGAL  (SECRETARIA GENERAL DE PESCA) MINISTERIO DE AGRICULTURA, PESCA Y ALIMENTACIÓN",Calle Velázquez nº147 28071 - Madrid España,+34 913471949,913471512,–,iuu_slo_esp@mapama.es
https://psma-gies.fao.org/designated-ports/view/a482faac-1547-484f-b7ab-e84085513313,–,Spain,724,ES,ESP,ANDALUCIA,ALMERÍA,–,N36°50'15'',W2°28'52'',"SUBDIRECCIÓN GENERAL DE VIGILANCIA PESQUERA Y LUCHA CONTRA LA PESCA ILEGAL (SECRETARIA GENERAL DE PESCA) MINISTERIO DE AGRICULTURA, PESCA Y ALIMENTACIÓN",Calle Velázquez nº147 28071 - Madrid España,+34 913471949,+34 913471512,–,iuu_slo_esp@mapama.es
https://psma-gies.fao.org/designated-ports/view/18e45d0f-d3bd-4601-83e7-47464bc6e846,–,Papua New Guinea,598,PG,PNG,ALOTAU,ALOTAU,ALOTAU,S10°15'45'',E150°26'59'',PNG PORTS CORPORATION LIMITED,"P. O.BOX 2016
PORT MORESBY
NATIONAL FISHERIES AUTHORITY
PAPUA NEW GUINEA",+675 3090444,+675 3090461,www.fisheries.gov.pg,nfa@fisheries.gov.pg
https://psma-gies.fao.org/designated-ports/view/9c85e4f5-3c59-49e4-8adc-d2385285dbbb,–,Sao Tome and Principe,678,ST,STP,Sao Tome city,Ana Chaves,–,N0°20'5'',E6°46'0'',National Ports Enterprise (ENAPORT),"Largo das Alfândegas - Empresa Nacional dos Portos (ENAPORT), P.O. Box 437 - Sao Tome",+239 9904683,+239 2224949,–,jpessoa61@hotmail.com
https://psma-gies.fao.org/designated-ports/view/d20b7612-75ea-4bbc-b8cb-cdb91c498be6,–,Italy,380,IT,ITA,Ancona,Ancona,–,–,–,Direzione Marittima di Ancona,via Banchina Nazario Sauro - 60121 Ancona (AN),+39 071227581,–,–,ancona@guardiacostiera.it
https://psma-gies.fao.org/designated-ports/view/97f98cee-d34d-4ebc-8f35-81e12bfd2772,–,Norway,578,NO,NOR,Andenes,Andenes,–,–,–,–,–,–,–,–,–
https://psma-gies.fao.org/designated-ports/view/2d8b8b48-4768-47a8-8732-7f508e8672aa,–,Myanmar,104,MM,MMR,Yangon,Annawar Aung Port,Annawar Aung Jetty,N16°46'39'',E96°10'49'',Department of Fisheries,"Thidar Seik Street, Pa Zun Taung Township, Yangon",+95 95118457,–,–,fmdnpt@gmail.com
https://psma-gies.fao.org/designated-ports/view/01a127e8-0a5f-4ff0-b4aa-b45d050089ee,–,Madagascar,450,MG,MDG,ANTSIRANANA,Antsiranana,Diego Suarez,S12°16'30'',E49°17'17'',"AGENCE PORTUAIRE, MARITIME ET FLUVIALE (APMF)","Ville basse, Capitainerie du Port B.P. 109",+261 321125744,261,https://www.apmf.mg/,rainimbox@yahoo.fr
https://psma-gies.fao.org/designated-ports/view/e1248f0e-1ab8-4ab7-8e6b-f7911e648ede,–,United States of America,840,US,USA,"Piti, Guam",Apra Harbor,–,N13°24'34'',E144°40'4'',Port Authority of Guam,–,16714775931,16714772689,https://www.portofguam.com/,–
https://psma-gies.fao.org/designated-ports/view/bd321c22-1a84-4b04-bda3-b837283ee20e,–,United Kingdom,826,GB,GBR,Ardglass,Ardglass,–,–,–,–,NIFHA Offices The Harbour Ardglass BT30 7TZ,+44 028 44 841 291,–,–,Kevin.quigly@nifha.co.uk
https://psma-gies.fao.org/designated-ports/view/eff2a09e-5bc5-4e31-a86d-ab41fda06983,–,Canada,124,CA,CAN,4718N 05400W,"Argentia, NL",–,–,–,–,–,–,–,–,–
https://psma-gies.fao.org/designated-ports/view/afd7c7d5-8262-4a20-ae4c-9d4f7f1ce565,–,Chile,152,CL,CHL,ARICA,ARICA,–,–,–,SERVICIO NACIONAL DE PESCA Y ACUICULTURA,"Serrano N° 1856, Pob. Magisterio",+56 (58) 2594771,–,–,vms@sernapesca.cl
https://psma-gies.fao.org/designated-ports/view/1be62f80-acc9-482f-91c8-08c52db1edd7,–,Canada,124,CA,CAN,4531N 06101W,"Arichat, NS",–,–,–,–,–,–,–,–,–
https://psma-gies.fao.org/designated-ports/view/b67f04e2-2c86-49f1-b772-74de4502bb1d,–,Spain,724,ES,ESP,CANARIAS,ARRECIFE (NO PIF),–,–,–,"SUBDIRECCION GENERAL DE VIGILANCIA PESQUERA Y LUCHA CONTRA LA PESCA ILEGAL - SECRETARIA GENERAL DE PESCA - MINISTERIO DE AGRICULTURA, PESCA Y ALIMENTACION",C/ Velázquez 147 28071 MADRID ESPAÑA,+34 913471949,–,–,iuu_slo_esp@mapa.es
https://psma-gies.fao.org/designated-ports/view/8e09d8f0-d853-4999-ab70-a058e575d55a,–,Ecuador,218,EC,ECU,MANABÍ,ASTIESMAR,ASTILLERO ESPERANZA DEL MAR C.A. ASTIESMAR,S0°55'55'',W80°40'5'',Pedro Schettini,MANABI / JARAMIJO / JARAMIJO / PRINCIPAL S/N,+593 3700-650,–,–,gerencia@astiesmar.com
https://psma-gies.fao.org/designated-ports/view/b8b7e22c-1866-4175-a614-7a5a326b61d9,–,Ecuador,218,EC,ECU,Guayaquil,ASTILLEROS NAVALES ECUATORIANOS ASTINAVE BASE NAVAL SUR EP,DIQUES DE ASTINAVE,S2°15'59'',W79°54'42'',ING. BYRON BENITO MACHUCA TREJO,BASE NAVAL SUR – ESTERO DEL MUERTO,+593 04 2594560,–,–,comercial@astinave.com.ec
https://psma-gies.fao.org/designated-ports/view/37d09da2-96c6-41bd-8304-09547206d5a2,–,Ecuador,218,EC,ECU,Guayaquil,ASTILLEROS NAVALES ECUATORIANOS ASTINAVE EP,ASTINAVE,S2°12'53'',W79°53'5'',ING. BYRON BENITO MACHUCA TREJO,VACAS GALINDO Y VIVERO-5 DE JUNIO,+593 04 2594560,–,–,comercial@astinave.com.ec
https://psma-gies.fao.org/designated-ports/view/f99c7e2e-dc9d-4255-b2aa-830be7d3cfd2,–,Portugal,620,PT,PRT,Aveiro,Aveiro,–,–,–,"Administração do Porto de Aveiro, SA",Edifício 9 Forte da Barra 3830-565 Gafanha da Nazaré,–,–,–,–
https://psma-gies.fao.org/designated-ports/view/abc9e02f-d61b-4283-8632-f7b6a6698340,–,Libya,434,LY,LBY,TRIPOLI-LIBYA,BAB ALBAHR PORT,BAB ALBAHR PORT,N32°53'44'',E13°11'57'',GENERAL AUTHORTY OF MARINE FISHERY,LIBYA,+218 926121517,+218 922121517,–,did@gam.com.ly
https://psma-gies.fao.org/designated-ports/view/0693dbd9-49e8-4650-98fa-420bc3adc7c3,–,Australia,36,AU,AUS,Norfolk Island,Ball Bay,–,S29°2'51'',E167°59'13'',Norfolk Island Regional Council,–,+61 6723 22244,–,–,customercare@nirc.gov.nf
https://psma-gies.fao.org/designated-ports/view/e0be01f6-16d3-4f5f-9e8a-c3abe3f916ea,–,United Kingdom,826,GB,GBR,Bangor,Bangor (Co. Down),–,–,–,Ards and North Down Borough Council,Quay Marinas Ltd Bangor Harbour Bregenz House Bangor BT20 5ED,+44 02891 453297,–,–,bangormarina@quaymarinas.com
https://psma-gies.fao.org/designated-ports/view/f9af2b11-8de1-4af2-a1fd-b0222a661386,–,Gambia,270,GM,GMB,Banjul Jetty Wharf,Banjul Fisheries Jetty,Jetty,N13°26'32'',W16°34'35'',Gambia Port Authority,34 Liberation Avenue P O Box 617 Banjul Gambia,+220 422 9940,+220 422 9940,–,info@gamport.gm
https://psma-gies.fao.org/designated-ports/view/252fa895-ed59-486a-b57f-2e952e65fa9f,–,Spain,724,ES,ESP,ANDALUCÍA,BARBATE (NO PIF),–,N36°10'46'',W5°55'31'',"SUBDIRECCIÓN GENERAL DE VIGILANCIA PESQUERA Y LUCHA CONTRA LA PESCA ILEGAL  (SECRETARIA GENERAL DE PESCA) MINISTERIO DE AGRICULTURA, PESCA Y ALIMENTACIÓN",Calle Velázquez nº147 28071 - Madrid España,+34 913471949,913471512,–,iuu_slo_esp@mapama.es
https://psma-gies.fao.org/designated-ports/view/4bfe8272-ba56-4035-bdc9-b1147e226b3a,–,Spain,724,ES,ESP,CATALUÑA,BARCELONA,–,N41°22'34'',E2°11'14'',"SUBDIRECCIÓN GENERAL DE VIGILANCIA PESQUERA Y LUCHA CONTRA LA PESCA ILEGAL  (SECRETARIA GENERAL DE PESCA) MINISTERIO DE AGRICULTURA, PESCA Y ALIMENTACIÓN",Calle Velázquez nº147 28071 - Madrid España,+34 913471949,913471512,–,iuu_slo_esp@mapama.es
https://psma-gies.fao.org/designated-ports/view/9d9c20d3-e686-4872-8907-96bb97e6dd02,–,Canada,124,CA,CAN,4720N 05250W,"Bay Bulls, NL",–,–,–,–,–,–,–,–,–
https://psma-gies.fao.org/designated-ports/view/dabe7be3-2371-43b3-bfb0-e66197e08fc8,–,Canada,124,CA,CAN,4735N 05318W,"Bay Roberts, NL",–,–,–,–,–,–,–,–,–
https://psma-gies.fao.org/designated-ports/view/43e88c82-3aab-4e52-828c-b4f6cc20678c,–,Mozambique,508,MZ,MOZ,Sofala,Beira,–,–,–,–,–,–,–,–,–
https://psma-gies.fao.org/designated-ports/view/07137d04-c86b-472b-afcf-cb74fc2cbf57,–,United Kingdom,826,GB,GBR,Belfast,Belfast,–,–,–,Belfast Harbour Commissioners,"Harbour Office Corporation Square Belfast, Northern Ireland BT1 3AL",+44 028 90 554422,+44 028 90 554411,–,info@belfast-harbour.co.uk
https://psma-gies.fao.org/designated-ports/view/0bb6b63f-6cc5-43e0-847c-506c06d1b936,–,Spain,724,ES,ESP,PAÍS VASCO,BILBAO,–,N43°16'47'',W2°58'0'',"SUBDIRECCIÓN GENERAL DE VIGILANCIA PESQUERA Y LUCHA CONTRA LA PESCA ILEGAL  (SECRETARIA GENERAL DE PESCA) MINISTERIO DE AGRICULTURA, PESCA Y ALIMENTACIÓN",Calle Velázquez nº147 28002 - Madrid España,+34 913471949,+34 913471512,–,iuu_slo_esp@mapama.es
https://psma-gies.fao.org/designated-ports/view/dfe196f8-5426-467d-92d8-0e2530e3d23f,–,Indonesia,360,ID,IDN,Bitung,Bitung Fishing Port,Pelabuhan Perikanan Samudera Bitung,N1°26'47'',E125°12'30'',Directorate General of Capture Fisheries,"Kelurahan Aertembaga Satu, Kecamatan Aertembaga, Kota Bitung, Provinsi Sulawesi Utara",+62 043836775,+62 043834393,–,indonesia.psm@kkp.go.id
https://psma-gies.fao.org/designated-ports/view/19604869-b33c-4516-b44f-06850c6d23b8,–,Norway,578,NO,NOR,Bodø,Bodø,–,–,–,–,–,–,–,–,–
https://psma-gies.fao.org/designated-ports/view/74473d14-ce6e-41a0-a1a0-3264617d8ab7,–,Canada,124,CA,CAN,48 39N 053 06W,"Bonavista, Newfoundland",–,–,–,–,–,–,–,–,–
https://psma-gies.fao.org/designated-ports/view/22bc8416-ff13-472f-b130-c80cd620263d,–,"Korea, Republic of",410,KR,KOR,Boryeong,Boryeong Port,–,–,–,–,–,–,–,–,–
https://psma-gies.fao.org/designated-ports/view/16344844-415c-486b-8b4f-0b9807b6d698,–,France,250,FR,FRA,France,Boulogne-sur-Mer,–,–,–,–,–,–,–,–,–
https://psma-gies.fao.org/designated-ports/view/36ea606a-d69d-4481-bb38-8bfb85033e53,–,Germany,276,DE,DEU,Bremerhaven,Bremerhaven,–,N53°32'2'',E8°34'4'',Staatliches Fischereiamt Bremerhaven,Fischkai 31 22572 Bremerhaven Germany,+49 471972540,+49 47172664,–,–
https://psma-gies.fao.org/designated-ports/view/0f8c30ec-4719-4361-bd9c-7847e237761f,–,France,250,FR,FRA,France,Brest,–,–,–,–,–,–,–,–,–
https://psma-gies.fao.org/designated-ports/view/02c834e7-3f51-49f2-ab76-2e8783d3d7b7,–,Italy,380,IT,ITA,Brindisi,Brindisi,–,–,–,Capitaneria di porto di Brindisi,Viale Regina Margherita n. 1 - 72100 Brindisi (BR),+39 0831521022 - 0831521023,–,–,cp-brindisi@pec.mit.gov.it
https://psma-gies.fao.org/designated-ports/view/47b5a8a0-f3a2-447c-b551-99fc399c2b33,–,United Kingdom,826,GB,GBR,Brixham,Brixham,–,–,–,–,"Torbay Harbour Office New Fish Quay Brixham, Devon TQ5 8AJ",+44 01803 853321,–,–,marine.services@torbay.gov.uk
https://psma-gies.fao.org/designated-ports/view/8f200a05-1e2e-4ce1-b0a2-d4c91e904cfa,–,United Kingdom,826,GB,GBR,Buckie,Buckie,Buckie (Cluny) Harbour,–,–,Moray Council,"Harbour Office, 28b Commercial Road Buckie, Scotland AB56 1UN",+44 01542831700,–,–,William.mackay@.moray.gov.uk
https://psma-gies.fao.org/designated-ports/view/3e913566-4174-4cc0-a8e9-6c0420793c14,–,Australia,36,AU,AUS,Bunbury,Bunbury Port,–,S33°19'0'',E115°37'59'',Southern Ports Authority,54 Casuarina Drive  Bunbury WA 6230,+61 8 9729 6500,–,–,enquiries.bunbury@southernports.com.au
https://psma-gies.fao.org/designated-ports/view/ccb7a78a-e95d-431a-9639-4d7dea5ce785,–,Indonesia,360,ID,IDN,Padang,Bungus Fishing Port,Pelabuhan Perikanan Samudera Bungus,S1°1'47'',E100°23'48'',Directorate General of Capture Fisheries,"Jalan Raya Padang-Painan KM. 16 Padang, Desa Labuhan Padang Sumatera Barat",+62 751751121,+62 751751122,–,indonesia.psm@kkp.go.id
https://psma-gies.fao.org/designated-ports/view/05218bb9-f7d9-4f58-9bd4-6a989dd6f304,–,Spain,724,ES,ESP,GALICIA,BURELA (NO PIF),–,–,–,"SUBDIRECCIÓN GENERAL DE VIGILANCIA PESQUERA Y LUCHA CONTRA LA PESCA ILEGAL - SECRETARÍA GENERAL DE PESCA - MINISTERIO DE AGRICULTURA, PESCA Y ALIMENTACIÓN","C/ Velázquez, 147 28071 MADRID ESPAÑA",+34 913471949,–,–,iuu_slo_esp@mapa.es
https://psma-gies.fao.org/designated-ports/view/a9edb778-72b7-4e91-a34c-8ca2eb996469,–,"Korea, Republic of",410,KR,KOR,Busan,Busan Port,–,–,–,–,–,–,–,–,–
https://psma-gies.fao.org/designated-ports/view/b8442417-93f4-406c-a5c8-d24366f3bd5f,–,Norway,578,NO,NOR,Båtsfjord,Båtsfjord,–,–,–,–,–,–,–,–,–
https://psma-gies.fao.org/designated-ports/view/eabcd22a-33cd-4f24-9c74-913254dc5e9f,–,Spain,724,ES,ESP,ANDALUCIA,CADIZ,–,N36°32'4'',W6°17'1'',"SUBDIRECCIÓN GENERAL DE VIGILANCIA PESQUERA Y LUCHA CONTRA LA PESCA ILEGAL  (SECRETARIA GENERAL DE PESCA) MINISTERIO DE AGRICULTURA, PESCA Y ALIMENTACIÓN",Calle Velázquez nº147 28071 - Madrid España,+34 913471949,913471512,–,iuu_slo_esp@mapama.es
https://psma-gies.fao.org/designated-ports/view/b1acc8c7-5bb8-4f40-b0b1-a9679aac1486,–,France,250,FR,FRA,France,Caen,–,–,–,–,–,–,–,–,–
https://psma-gies.fao.org/designated-ports/view/707ff41d-abfe-49db-bf83-9d0fd73d5a35,–,Australia,36,AU,AUS,Cairns,Cairns Seaport,–,–,–,Ports North,1 Spence Street (PO Box 594) Cairns QLD 4870,+61 7 4052 3866,+61 7 4052 3810,–,marina@portsnorth.com.au
https://psma-gies.fao.org/designated-ports/view/d22b8f01-5de0-485c-b6b3-b1f5b72d6001,–,Peru,604,PE,PER,PROVINCIA CONSTITUCIONAL DEL CALLAO,CALLAO,–,S12°2'12'',E77°13'42'',AUTORIDAD PORTUARIA NACIONAL - APN,–,+51 16309600,–,–,–
https://psma-gies.fao.org/designated-ports/view/3104dc26-f775-4fd6-8632-258d47800a20,–,United Kingdom,826,GB,GBR,Campbeltown,Campbeltown,–,–,–,Argyll & Brute Council,"Engineers Office, Manse Brae Lochgilhead PA31 8RD",+44 01546 604656,+44 01546 604694,–,stephen.scally@argyll-bute.gov.uk
https://psma-gies.fao.org/designated-ports/view/0e37cf50-55ec-464b-8b21-7eb6e6c616c8,–,Canada,124,CA,CAN,4520N 06100W,"Canso, NS",–,–,–,–,–,–,–,–,–
https://psma-gies.fao.org/designated-ports/view/12f1c544-a6d3-463a-abb7-c1ddaeef6dfd,–,Spain,724,ES,ESP,MURCIA,CARTAGENA,–,N37°35'56'',W0°58'29'',"SUBDIRECCIÓN GENERAL DE CONTROL E INSPECCIÓN  (SECRETARIA GENERAL DE PESCA) MINISTERIO DE AGRICULTURA, PESCA Y ALIMENTACIÓN",Calle Velázquez nº147 28071 - Madrid España,+34 913471949,913471512,–,iuu_slo_esp@mapama.es
https://psma-gies.fao.org/designated-ports/view/fdd0dd86-d4d7-4f97-bd32-d2beda552264,–,France,250,FR,FRA,France,Carteret,–,–,–,–,–,–,–,–,–
https://psma-gies.fao.org/designated-ports/view/2ee372fa-f78c-4c94-9cb8-50e06185752c,–,Morocco,504,MA,MAR,MAROC,CASABLANCA,–,N33°36'0'',W7°37'0'',Délégation des Pêches Maritimes de Casablanca,Rue Tiznit-2000 Casablanca,+212 522 27 59 74,+212 522 49 11 64,–,elouadaa@mpm.gov.ma
https://psma-gies.fao.org/designated-ports/view/67b01450-0eed-446c-a272-f534357606a3,–,Australia,36,AU,AUS,Norfolk Island,Cascade Bay,–,S29°1'0'',E167°58'0'',Norfolk Island Regional Council,–,+61 +6723 22244,–,–,customercare@nirc.gov.nf
https://psma-gies.fao.org/designated-ports/view/d26c60a8-bf47-4b15-9730-38f678984f78,–,Spain,724,ES,ESP,COMUNIDAD VALENCIANA,CASTELLÓN,–,N39°58'16'',E0°0'52'',"SUBDIRECCIÓN GENERAL DE CONTROL E INSPECCIÓN  (SECRETARIA GENERAL DE PESCA) MINISTERIO DE AGRICULTURA, PESCA Y ALIMENTACIÓN",Calle Velázquez nº147 28071 - Madrid España,+34 913471949,913471512,–,iuu_slo_esp@mapama.es
https://psma-gies.fao.org/designated-ports/view/db732189-f438-407d-a80b-765cd3a77feb,–,Ireland,372,IE,IRL,"Castletownbere, Cork, Republic of Ireland",Castletownbere,As above,N51°39'3'',W9°54'23'',Sea Fisheries Protection Authority,"Castletownbere, Harbour Office, Castletownbere, Co Cork",+353 27 70439,+353 27 70094,–,castletownbere@sfpa.ie
https://psma-gies.fao.org/designated-ports/view/6151f366-6495-48c5-9923-5441513d27d9,–,Spain,724,ES,ESP,GALICIA,CELEIRO (NO PIF),–,N43°40'43'',W7°35'40'',"SUBDIRECCIÓN GENERAL DE VIGILANCIA PESQUERA Y LUCHA CONTRA LA PESCA ILEGAL - SECRETARIA GENERAL DE PESCA - MINISTERIO DE AGRICULTURA, PESCA Y ALIMENTACION",C/ Velazquez 147 28071 Madrid ESPAÑA,+34 913471949,–,–,iuu_slo_esp@mapa.es
https://psma-gies.fao.org/designated-ports/view/3cd4f006-8034-492a-b45e-94a6b4405cbb,–,New Zealand,554,NZ,NZL,Wellington,CentrePort,CentrePort Ltd,–,–,CentrePort Ltd,CentrePort Wellington CentrePort House Harbour Quays Wellington 6011 New Zealand,+64 4 495 3800,+64 4 495 3820,–,customerservices@centreport.co.nz
https://psma-gies.fao.org/designated-ports/view/69765f62-f5fc-4643-8339-b6d4b9169d40,–,Spain,724,ES,ESP,CEUTA,CEUTA (NO PCF),–,N35°53'36'',W5°18'52'',"SUBDIRECCIÓN GENERAL DE VIGILANCIA PESQUERA Y LUCHA CONTRA LA PESCA ILEGAL - SECRETARIA GENERAL DE PESCA - MINISTERIO DE AGRICULTURA, PESCA Y ALIMENTACION",C/ Velazquez 147 28071 Madrid ESPAÑA,–,–,–,iuu_slo_esp@mapa.es
https://psma-gies.fao.org/designated-ports/view/da73373b-c785-467e-94b2-41153fc56179,–,Trinidad and Tobago,780,TT,TTO,Chaguaramas,Chaguaramas,–,N10°40'34'',–,–,–,+1 868 223 4351,+1 868 627 9886,–,ralfred@mowt.gov.tt
https://psma-gies.fao.org/designated-ports/view/be147296-4458-4369-84d5-d711b64a89c9,–,Thailand,764,TH,THA,"1258/1 Mahachai, Mueang Samut Sakhon, Samut Sakhon 74000",Chainavee port,–,–,–,Fishery Inspection Regional Center 5 (Samut Sakhon),"1024 Wichianchodok Road Sub. Mahachai  A. Muang Samut sakorn, Samutsakhon 74000",+66 34422643,+66 34422644,–,sk_inspected@windowslive.com
https://psma-gies.fao.org/designated-ports/view/92e78b21-5372-476a-806b-3b773ee9c3d1,–,France,250,FR,FRA,France,Cherbourg,–,–,–,–,–,–,–,–,–
https://psma-gies.fao.org/designated-ports/view/27436b95-5104-44a3-a1fa-b76114c3817a,–,Bangladesh,50,BD,BGD,"Chattogram, Bangladesh",Chittagong Port,–,–,–,Chittagong Port Authority,"Bandar Bhaban, P.O.Box-2013, Chattogram-4100, Bangladesh",+880 2-333322200,+880 2-333310889,–,info@cpa.gov.bd
https://psma-gies.fao.org/designated-ports/view/fbd89b69-2904-4cb7-90c5-8e64dc1e022f,–,Cuba,192,CU,CUB,"Φ-22°02'0"" N ʎ- 80°27'10""W",CIENFUEGOS,–,–,–,A.M.T.OCENTRO,Calle 41 Numero 6011entro 60 y 62 Cienfuegos,+53 43534470,–,–,Diretor@aptcfg.cu
https://psma-gies.fao.org/designated-ports/view/fb666692-63dc-40e3-9471-0eb399bb329d,–,Italy,380,IT,ITA,Civitavecchia,Civitavecchia,–,–,–,Direzione Marittima di Civitavecchia,Calata Laurenti n. 16 - 00053 Civitavecchia (RM),+39 076619431,–,–,cp-civitavecchia@pec.mit.gov.it
https://psma-gies.fao.org/designated-ports/view/c4eb8404-29c6-4439-a1c1-fef4aaa19e58,–,Canada,124,CA,CAN,50 36 N 127 35 W,"Coal Harbour, BC",–,–,–,–,–,–,–,–,–
https://psma-gies.fao.org/designated-ports/view/d1b6be1b-4918-4647-a6a6-8504c106b5f4,–,Australia,36,AU,AUS,New South Wales,Coffs Harbour International Marina,Coffs Harbour,–,–,Coffs Harbour Marina Pty Ltd,"1 Marina Dr, Coffs Harbour NSW 2450",+61 (02) 6651 4222,–,–,admin.coffs@starmarinas.com.au
https://psma-gies.fao.org/designated-ports/view/1cc92c3f-1f6c-4001-8cf6-4a742a895b10,–,Sri Lanka,144,LK,LKA,–,Colombo commercial port,–,N6°57'12'',E79°50'47'',Sri Lanka Ports Authority,"NO.19,CHAITHYA ROAD,COLOMBO 01,SRI LANKA",+94 11 248 2213,+94 11 232 7160,–,nirmalsilva@slpa.lk
https://psma-gies.fao.org/designated-ports/view/0816be1d-0db6-4b03-914a-8bb33992150d,–,Costa Rica,188,CR,CRI,LIMON,COMPLEJO PORTUARIO DE LIMON,–,–,–,APM TERMINALS,–,+506 25206501,–,–,TCM.ServicioalCliente@apmterminals.com
https://psma-gies.fao.org/designated-ports/view/86fb4d7a-9110-4784-a2a5-8fbc908cd743,–,Angola,24,AO,AGO,Namibe,Complexo Portuário de Moçâmedes,–,–,–,Director Geral,"Avenida Eduardo Mondlane, 49 Namibe Moçâmedes,Angola",+244 925 892 490 / 925 892 491,–,–,geral@portodonamibe.co.ao
https://psma-gies.fao.org/designated-ports/view/530bf626-46bf-4e2f-97a5-52879a0054e1,–,France,250,FR,FRA,France,Concarneau,–,–,–,–,–,–,–,–,–
https://psma-gies.fao.org/designated-ports/view/b7468dc4-4ad3-470f-a9c0-f9e87f69ed37,–,Romania,642,RO,ROU,CONSTANTA,CONSTANTA,–,N44°10'24'',E28°38'18'',–,"Inside Constanța Port​ n0. 1​, ANR Building, Constanța, Cod 900900",+40 241616124,+40 241616229,–,rna@rna.ro
https://psma-gies.fao.org/designated-ports/view/46355134-6dfc-4fe8-8bb4-a5e08b2069d4,–,Denmark,208,DK,DNK,Copenhagen,Copenhagen,–,N55°39'9'',E12°34'3'',CMPORT,"Containervej 9, DK- 2150 Nordhavn, Copenhagen",+45 35461111,–,–,–
https://psma-gies.fao.org/designated-ports/view/66a74cf7-4bbe-459a-a5e5-d39a879cd17d,–,Chile,152,CL,CHL,COQUIMBO,COQUIMBO,–,–,–,SERVICIO NACIONAL DE PESCA Y ACUICULTURA,Melgarejo Nº 955,+56 (51) 2311331,–,–,vms@sernapesca.cl
https://psma-gies.fao.org/designated-ports/view/d706685e-e824-4cf4-beb0-849b804fedcc,–,United States of America,840,US,USA,"Crescent City, California",Crescent City Port,–,N41°45'0'',W124°12'0'',–,–,–,–,https://www.ccharbor.com/,–
https://psma-gies.fao.org/designated-ports/view/48ab2a5f-3599-49a2-b457-eea57193f1f3,–,Germany,276,DE,DEU,Cuxhaven,Cuxhaven,–,N53°52'0'',E8°42'0'',Staatliches Fischereiamt Bremerhaven,Fischkai 31 22572 Bremerhaven Germany,+49 471972540,+49 47172664,–,–
https://psma-gies.fao.org/designated-ports/view/36e7a9df-2c33-4855-9e4c-e2bee9d7f812,–,"Korea, Republic of",410,KR,KOR,Daesan,Daesan Port,–,–,–,–,–,–,–,–,–
https://psma-gies.fao.org/designated-ports/view/81c98f8e-f129-4baf-8e9e-cb188a216e48,–,Morocco,504,MA,MAR,MAROC,DAKHLA,–,N23°40'0'',W15°55'0'',Délégation des pêches Maritimes de Dakhla,AVENUE AL WALAE  BP 55  DAKHLA,+212 528 89 73 00,+212 528 89 83 81,–,youssef.fnoun@mpm.gov.ma
https://psma-gies.fao.org/designated-ports/view/5f3c6f36-6af3-4a92-84d3-29ceeed1b08a,–,Australia,36,AU,AUS,Darwin,Darwin Port,–,–,–,Darwin Port - Landbridge,"Administration Building, 11 Export Drive  Berrimah Northern Territory, 0828 Australia",+61 (8) 8919 0821,–,–,darwinport@darwinport.com.au
https://psma-gies.fao.org/designated-ports/view/86aa1ce0-a680-46db-88b3-e0f147e20e54,–,Philippines,608,PH,PHL,Philippines,DAVAO FISH PORT COMPLEX,–,–,–,Philippine Fisheries Development Authority,"DALIAO, TORIL DISTRICT, DAVAO CITY",+6382 2911407; 2910732,+6382 2910931,–,opm_dfpc@pfda.gov.ph
https://psma-gies.fao.org/designated-ports/view/72b1e71b-7e17-42a4-b16c-c2d9e0649b84,–,Saint Kitts and Nevis,659,KN,KNA,Basseterre,Deepwater Cargo Port,–,N17°17'15'',W62°42'28'',St. Christopher Air and Sea Ports Authority,P.O Box 963 Bird Rock Basseterre St. Kitts,+1 869-465-8121/2/3,–,–,communications@scaspa.com
https://psma-gies.fao.org/designated-ports/view/6a7bd107-7121-498d-bbf2-e3d6a6e159fe,–,Australia,36,AU,AUS,Derby,Derby Port,–,S17°22'19'',E123°40'2'',Kimberley Ports Authority,–,+61 08 9194 3100,–,–,operations@kimberleyports.wa.gov.au
https://psma-gies.fao.org/designated-ports/view/2ef38a05-8ade-4617-b979-fa20f4bb8cf6,–,Sri Lanka,144,LK,LKA,–,Dikovita Fishery Harbour,–,–,–,CEYLON FISHERY HARBOURS CORPORATION,"HANDALA,WATTALA.SRI LANKA",+94 11 2942872,+94 11 2942872,–,dickowitacfhc@gmail.com
https://psma-gies.fao.org/designated-ports/view/96e41e02-12ac-40f4-9d4f-e8ede753c2f9,–,Ecuador,218,EC,ECU,SECTOR PUNTA BLANCA- CANTON JARAMIJO-MANABI.,DIQUE FLOTANTE PESQUERO DIFLOPES S.A.,DIFLOPES,S0°50'13'',W80°40'26'',RAMON PALADINES ZAMORA,VIA JARAMIJO SECTOR PUNTA BLANCA,+593 995107209,–,–,operaciones@disflopes.com
https://psma-gies.fao.org/designated-ports/view/e5b4422b-2f3f-47a1-9e99-1caff3511131,–,Cambodia,116,KH,KHM,48P277864; 1282566 (UTM) [Alternative: Mid-point of wharf 11 35’42.14”N/ 102 57’47.22”E],"Docking Port for Fishing boats; L.Y.P GROUP Co.,LTD",ផែឧកញ៉ា លី យ៉ុងផាត់ (Phei Oknha Ly Yong Phat),N11°35'42'',E102°57'47'',Fisheries Administration,"#186 Preah Norodom Blvd., Sangkat Tonle Bassac, Khan Chamcar Mon, Phnom Penh capital, Cambodia. P.O.Box 582. Fax:(855) 23 215 470 www.fia.gov.kh",+855 17 272 896,–,–,kimchhea@yahoo.com
https://psma-gies.fao.org/designated-ports/view/ce382f93-22bd-4d76-b870-bd8d8d886b80,–,"Korea, Republic of",410,KR,KOR,"Donghae ,Mukho","Donghae,Mukho Port",–,–,–,–,–,–,–,–,–
https://psma-gies.fao.org/designated-ports/view/e937f7f0-81be-450d-a444-b323ac049fa9,–,France,250,FR,FRA,France,Douarnenez,–,–,–,–,–,–,–,–,–
https://psma-gies.fao.org/designated-ports/view/5e131f5f-4864-46c2-a3d7-4462c719acef,–,United Kingdom,826,GB,GBR,Dundee,Dundee,–,–,–,Forth Ports Dundee,Port Office Stannergate Road Dundee DD1 3LU,+44 1382 878141,+44 1382 200834,–,matt.north@forthports.co.uk
https://psma-gies.fao.org/designated-ports/view/f095d3ac-139a-4963-b3ac-2b729ceb71a3,–,France,250,FR,FRA,France,Dunkerque,–,–,–,–,–,–,–,–,–
https://psma-gies.fao.org/designated-ports/view/6b8f257b-2611-4d6c-bcc6-051e4b264224,–,New Zealand,554,NZ,NZL,Gisborne,Eastland Port Ltd,Eastland Port,–,–,Eastland Port Ltd,"1 Kaiti Beach Road P O Box 1048, Gisborne 4040 New Zealand",+64 6 868 5129,+64 6 867 8084,–,–
https://psma-gies.fao.org/designated-ports/view/22182e54-89cd-4681-8521-4b4c1f749689,–,Netherlands,528,NL,NLD,Eemshaven,Eemshaven,–,–,–,–,–,–,–,–,–
https://psma-gies.fao.org/designated-ports/view/fc5d4c13-39fb-4aee-a898-69ea00a0f0be,–,Norway,578,NO,NOR,Egersund,Egersund,–,–,–,–,–,–,–,–,–
https://psma-gies.fao.org/designated-ports/view/9ad0b73c-e2a0-44bd-bfa8-a51d75a2cdf3,–,Madagascar,450,MG,MDG,Taolagnaro,Ehoala,Fort Dauphin,S25°4'12'',E46°57'0'',"AGENCE PORTUAIRE, MARITIME ET FLUVIALE (APMF)",Betsioky Bazary Be - Vieux port Vieux Port,+261 32 11 257 63,261,–,–
https://psma-gies.fao.org/designated-ports/view/55b78fa6-4464-4bb5-a23c-7be6fe9575a9,–,Myanmar,104,MM,MMR,Yangon,Ei Phyo Yadanar Port,Ei Phyo Yadanar Jetty,N16°52'47'',E96°5'26'',Department of Fisheries,"No.25, Kannar Street, West Ward, Shwe U Dawn Street, Insein Township, Yangon",+95 973222096,–,–,fmdnpt@gmail.com
https://psma-gies.fao.org/designated-ports/view/0028042a-a0ed-470f-981b-c8b73168a6c2,–,Norway,578,NO,NOR,Ellingsøy,Ellingsøy,–,–,–,–,–,–,–,–,–
https://psma-gies.fao.org/designated-ports/view/decf6d6e-1d5d-412d-a91c-6095e89174a4,–,Sweden,752,SE,SWE,5811N 01128E,Ellös,–,–,–,–,–,–,–,–,–
https://psma-gies.fao.org/designated-ports/view/67c58d15-0fe4-44c8-8f5f-0f023cc2d31c,–,Mexico,484,MX,MEX,"ENSENADA, BAJACALIFORNIA",ENSENADA,–,–,–,–,–,–,–,–,–
https://psma-gies.fao.org/designated-ports/view/65117bb4-55fb-4ff1-aa12-bc1e24694a3a,–,Denmark,208,DK,DNK,Esbjerg,Esbjerg,–,N55°28'26'',E8°25'28'',Port of Esbjerg,–,+45 76124000,–,–,adm@portesbjerg.dk
https://psma-gies.fao.org/designated-ports/view/2cfe3163-50ad-41e2-b611-b9875ec80a9e,–,United Kingdom,826,GB,GBR,Eyemouth,Eyemouth,–,–,–,–,Eyemouth Harbour Office Gunsgreen Basin Eyemouth TD14 5SD,+44 01890 752494,+44 01890 750223,–,harbourmaster@eyemouth-harbour.co.uk
https://psma-gies.fao.org/designated-ports/view/afcd01a2-52c7-4220-ba1d-11b447123b8c,–,United Kingdom,826,GB,GBR,Falmouth,Falmouth Harbour - Western Wharf,–,–,–,Falmouth Fishselling Company (Falfish),Western Wharf Falmouth TR11 4NJ,+44 1326 314664,–,–,Lee.Parkin@falfish.com
https://psma-gies.fao.org/designated-ports/view/d26a68b0-957a-4609-a443-328c243624b3,–,Maldives,462,MV,MDV,"Felivaru, Lhaviyani Atoll",Felivaru Port,Felivaru Port,–,–,–,–,–,–,–,–
https://psma-gies.fao.org/designated-ports/view/05a09c91-72b9-4be7-8071-64113bd4c610,–,Norway,578,NO,NOR,Fiskarstrand,Fiskarstrand,–,–,–,–,–,–,–,–,–
https://psma-gies.fao.org/designated-ports/view/65b0c540-d902-4971-b46f-c87b17407768,–,Italy,380,IT,ITA,Fiumicino,Fiumicino,–,–,–,Capitaneria di porto di Roma Fiumicino,Viale Traiano n. 37 - 00054 Roma Fiumicino (RM),+39 06656171,–,–,cp-romafiumicino@pec.mit.gov.it
https://psma-gies.fao.org/designated-ports/view/6820cf93-6399-45ab-91fd-50f76e833bfe,–,Norway,578,NO,NOR,Flekkerøy,Flekkerøy,–,–,–,–,–,–,–,–,–
https://psma-gies.fao.org/designated-ports/view/db0c3b8f-8db7-46e5-b070-a007f5f5ca65,–,Norway,578,NO,NOR,Flem,Flem,–,–,–,–,–,–,–,–,–
https://psma-gies.fao.org/designated-ports/view/ae0086d7-1082-4946-9d62-91fa79fd112b,–,Norway,578,NO,NOR,Florø,Florø,–,–,–,–,–,–,–,–,–
https://psma-gies.fao.org/designated-ports/view/f3e797d2-d7ee-47d0-b7fe-97bbf66cd861,–,France,250,FR,FRA,France (Martinique),Fort-de-France,–,–,–,–,–,–,–,–,–
https://psma-gies.fao.org/designated-ports/view/2665a78a-df27-4842-9572-a89fec5bd519,–,Ecuador,218,EC,ECU,POSORJA,FORTIDEX S.A,FORTIDEX,S2°42'10'',W80°14'36'',ALVEAR DONOSO CESAR OSWALDO,PARROQUIA POSORJA KM 1.5 VIA AL MORRO.,+593 (04) 288-0410 / (04) 288-0411,–,–,c.alvear@fortidex.com
https://psma-gies.fao.org/designated-ports/view/ddfc71d3-bf82-48b3-a463-7fe5d462db93,–,Canada,124,CA,CAN,4704N 05550W,"Fortune, NL",–,–,–,–,–,–,–,–,–
https://psma-gies.fao.org/designated-ports/view/0e7fbb52-8647-4087-81b1-acb00b81391d,–,Norway,578,NO,NOR,Fosnavåg,Fosnavåg,–,–,–,–,–,–,–,–,–
https://psma-gies.fao.org/designated-ports/view/d7675c5f-2a8f-4ef7-81c1-97820ef669aa,–,United Kingdom,826,GB,GBR,Fraserburgh,Fraserburgh,–,–,–,Fraserburgh Harbour,Harbour Office Shore Street Fraserburgh  AB43 9BR,+44 1346 515858,+44 1346 516641,–,enquiries@fraserburgh-harbour.co.uk
https://psma-gies.fao.org/designated-ports/view/6388e809-a48b-416a-b3e4-572f358ef976,–,Denmark,208,DK,DNK,Fredericia,Fredericia,–,N55°33'2'',E9°43'8'',ADP,"Centerhavnsvej 13, DK- 7000 Fredericia",+45 79215000,–,–,post@adp-as.dk
https://psma-gies.fao.org/designated-ports/view/8c32b5ec-6530-49fd-a585-abc5135fa618,–,Malta,470,MT,MLT,Marsaxlokk Malta,Freeport,Marsaxlokk Port (medserve Quay),–,–,Transport Malta,"Merchant Shipping Directorate Malta Transport Centre - Triq Pantar Ħal Lija, LJA 2021 Malta",+356 +356 21250360,–,–,mershipmalta.tm@transport.gov.mt
https://psma-gies.fao.org/designated-ports/view/1d0d6eb0-4db7-44a9-a779-572adf7c4a53,–,Latvia,428,LV,LVA,Riga,Freeport of Riga,Rīgas Brīvosta,N57°4'2'',E24°0'43'',Freeport of Riga Authority,"12 Kalpaka blvd, Riga, Latvia, LV-1010",–,–,–,–
https://psma-gies.fao.org/designated-ports/view/687819a6-ebc3-4378-a3fd-6fd15921dfbb,–,Latvia,428,LV,LVA,Ventspils,Freeport of Ventspils,Ventspils Brīvosta,N57°20'9'',E21°29'3'',Freeport of Ventspils Authority,"Jana 19, Ventspils, LV-3601, Latvia",–,–,–,–
https://psma-gies.fao.org/designated-ports/view/00433449-4786-4f49-b860-d8e49fac42b5,–,Australia,36,AU,AUS,Fremantle,Fremantle Harbour,–,S32°0'30'',E115°46'30'',Fremantle Ports,"1 Cliff Street, Fremantle",+61 8 9430 3555,+61 8 9336 1391,–,mail@fremantleports.com.au
https://psma-gies.fao.org/designated-ports/view/f8ac49ef-8073-4425-bcb2-7965ec4190e1,–,Maldives,462,MV,MDV,"Funaddoo, Thaa Atoll",Funaddoo Port,Funaddoo Port,–,–,–,–,–,–,–,–
https://psma-gies.fao.org/designated-ports/view/b8c3dbe7-fc9b-4278-9b6a-702c0fdb9b9f,–,Maldives,462,MV,MDV,"Maandhoo, Laamu Atoll",Funaddoo Port,Funaddoo Port,–,–,–,–,–,–,–,–
https://psma-gies.fao.org/designated-ports/view/4048fd56-7802-4fa5-99b9-785bdfaac4e8,–,Portugal,620,PT,PRT,Funchal,Funchal,–,–,–,"Administração dos Portos da Região Autónoma da Madeira, SA",Gare Marítima da Madeira Pontinha - Porto do Funchal 9004-518 Funchal,–,–,–,–
https://psma-gies.fao.org/designated-ports/view/8e3b78d0-f833-48d7-abcd-bdfe4dcd433d,–,Japan,392,JP,JPN,Toyama,Fushikitoyama,–,–,–,–,–,–,–,–,–
https://psma-gies.fao.org/designated-ports/view/5dabaf15-83f3-49c6-8b1b-1ac64f4d011f,–,Sri Lanka,144,LK,LKA,–,Galle Commercial Port,–,–,–,SRI LANKA PORTS AUTHORITY,"MAGALLE,GALLE,SRI LANKA",+94 912234824,+94 912234963,–,–
https://psma-gies.fao.org/designated-ports/view/2a49e087-425d-44b8-84fe-9c08fbf300e0,–,Poland,616,PL,POL,GDANSK,GDANSK,–,–,–,Kapitan Portu Gdansk,"Urząd Morski w Gdyni, ul. Chrzanowskiego 10, 81-338 Gdynia",+48 583473870,–,–,kpgoficer@umgdy.gov.pl
https://psma-gies.fao.org/designated-ports/view/8e3d0e4b-815e-445e-9cd8-b6094bae06c2,–,Poland,616,PL,POL,GDYNIA,GDYNIA,–,–,–,KAPITAN PORTU W GDYNI,"Kapitanat Portu Gdynia, ul. Polska 2, 81-339 Gdynia",+48 586200591,+48 586616051,–,kapitanatgdynia@umgdy.gov.pl
https://psma-gies.fao.org/designated-ports/view/13eb7da5-968c-4d30-8463-18d3400bc2aa,–,Australia,36,AU,AUS,Geelong,Geelong Port,–,S38°8'59'',E144°22'0'',"SAS Trustee Corporation (STC) and Brookfield’s LINX Cargo Care Group,",GeelongPort  Corio Quay Road  North Geelong Victoria 3215,+61 3 5225 3565,–,–,geelong@vrca.vic.gov.au
https://psma-gies.fao.org/designated-ports/view/ac177862-d4d8-4f3d-be05-eed0d6c185d6,–,Philippines,608,PH,PHL,Philippines,GENERAL SANTOS FISH PORT COMPLEX,–,–,–,Philippine Fisheries Development Authority,"BGY. TAMBLER, GENERAL SANTOS CITY, SOUTH COTABATO",+6383 5520835; 5527847; 5523996; 5523995,+6383 5523996,–,opm_gsfpc@pfda.gov.ph
https://psma-gies.fao.org/designated-ports/view/91ad353e-ea40-4874-a553-4f5c2cdf87f5,–,Italy,380,IT,ITA,Genova,Genova,–,–,–,Direzione Marittima di Genova,Via Magazzini Generali n. 4 - 16126 Genova (GE),+39 01027771,–,–,dm.genova@pec.mit.gov.it
https://psma-gies.fao.org/designated-ports/view/223a032d-6d32-41d6-b561-bded7684de94,–,Australia,36,AU,AUS,Geraldton,Geraldton Port,–,S28°46'0'',E114°35'59'',Mid West Ports,"298  Marine Terrace, Geraldton WA 6530",+61 89964 0520,–,–,mail@midwestports.com.au
https://psma-gies.fao.org/designated-ports/view/2d8f56b0-2e3b-424b-ba23-b826bf1135d3,–,Spain,724,ES,ESP,ASTURIAS,GIJÓN,–,N43°33'21'',W5°41'48'',"SUBDIRECCIÓN GENERAL DE VIGILANCIA PESQUERA Y LUCHA CONTRA LA PESCA ILEGAL  (SECRETARIA GENERAL DE PESCA) MINISTERIO DE AGRICULTURA, PESCA Y ALIMENTACIÓN",Calle Velázquez nº147 28071 - Madrid España,+34 913471949,913471512,–,iuu_slo_esp@mapama.es
https://psma-gies.fao.org/designated-ports/view/88e94431-906f-4b4e-b0af-b2c911aaee0d,–,Canada,124,CA,CAN,4612N 05958W,"Glace Bay, NS",–,–,–,–,–,–,–,–,–
https://psma-gies.fao.org/designated-ports/view/cf582c3c-bb63-4e5a-b6b4-bad343708fca,–,Thailand,764,TH,THA,"26 Moo 7, Rat Burana Road, Bang PaKok, Rat Burana, Bangkok 10140","Godung Thai Fa Co., Ltd port",–,–,–,Fishery Inspection Regional Center 3 (Bangkok),"Pat-Sa-Du building, Floor 2 , Thai Port, Kwang Khlong Toei, Khet Khlong Toei, Bangkok",+66 26718794,+66 26727901,–,psmfishtrade@gmail.com
https://psma-gies.fao.org/designated-ports/view/b91e40f0-ee42-49fb-b134-58dee2ce12fe,–,"Korea, Republic of",410,KR,KOR,Gohyeon,Gohyeon Port,–,–,–,–,–,–,–,–,–
https://psma-gies.fao.org/designated-ports/view/15f16ac8-8666-4bfd-97fe-914f3c5ffd26,–,Australia,36,AU,AUS,Gold Coast,Gold Coast Broadwater,–,–,–,Maritime Safety Queensland,–,+61 7 5585 1810,–,–,MSQ.GoldCoast.Reception@msq.qld.gov.au
https://psma-gies.fao.org/designated-ports/view/50940df4-7cb7-4f07-99d2-a4459d19fbe5,–,Canada,124,CA,CAN,4706N 05547W,"Grand Bank, NL",–,–,–,Grand Bank Harbour Authority,"Lower Water St, Grand Bank, NL A0E 1W0",+1 (709) 832-0255,–,–,–
https://psma-gies.fao.org/designated-ports/view/e4d84fb1-064d-4c59-8eda-8d06b8e29060,–,Malta,470,MT,MLT,Valletta,Grand Harbour,il-Port il-Kbir,–,–,Transport Malta,"Merchant Shipping Directorate Malta Transport Centre - Triq Pantar Ħal Lija, LJA 2021 Malta",+356 +356 21250360,–,–,mershipmalta.tm@transport.gov.mt
https://psma-gies.fao.org/designated-ports/view/dafacade-2352-4457-9e00-1e7fab85aa62,–,United Kingdom,826,GB,GBR,Grangemouth,Grangemouth,–,–,–,Forth Ports Grangemouth,Port Office Grangemouth Stirlingshire  FK3 8UE,+44 1324 482591,+44 1324 665106,–,derek.knox@forthports.co.uk
https://psma-gies.fao.org/designated-ports/view/a2643c13-938e-476c-9ca9-c157667009b1,–,France,250,FR,FRA,France,Granville,–,–,–,–,–,–,–,–,–
https://psma-gies.fao.org/designated-ports/view/879a5c18-3e4d-47da-bf90-890d501fc120,–,United Kingdom,826,GB,GBR,Greenock ,Greenock ,–,–,–,Clydeport Operations Ltd,"Greenock Ocean Terminal, Patrick Street, Greenock PA16 8UU",+44 475 726171,+44 1475 888130,–,greenock@clydeport.co.uk
https://psma-gies.fao.org/designated-ports/view/313dc9b2-073b-4c2b-a703-c0c41e6cf152,–,United Kingdom,826,GB,GBR,Grimsby,Grimsby,–,–,–,Associated British Ports,ABP Port Office Cleethorpe Road Grimsby DN31 3LL,+44 1472 359181,–,–,humber.general@abports.co.uk
https://psma-gies.fao.org/designated-ports/view/c847b3bf-aa19-4ac2-be96-9aa10bf7b05c,–,Norway,578,NO,NOR,Gunhildvågen,Gunhildvågen,–,–,–,–,–,–,–,–,–
https://psma-gies.fao.org/designated-ports/view/522c0982-7ab3-4d8c-afc3-284d2f3f54bf,–,"Korea, Republic of",410,KR,KOR,Gunsan,Gunsan Port,–,–,–,–,–,–,–,–,–
https://psma-gies.fao.org/designated-ports/view/8d137850-4bc3-4151-8cec-bb12b00dabb2,–,"Korea, Republic of",410,KR,KOR,Gwangyang,Gwangyang Port,–,–,–,–,–,–,–,–,–
https://psma-gies.fao.org/designated-ports/view/3738591f-4cd4-4418-ad1d-499d37044259,–,"Korea, Republic of",410,KR,KOR,Gyeongin,Gyeongin Port,–,–,–,–,–,–,–,–,–
https://psma-gies.fao.org/designated-ports/view/921c9594-0c88-43c2-a826-ffdb854a76ea,–,Myanmar,104,MM,MMR,"Yangon, Myanmar",Gyo Gone Port,Gyo Gone Jetty,N16°51'58'',E96°5'47'',"Department of Fisheries, Myanmar","Gyo Gone(West), Department of Fisheries Compound, Insein Township, Yangon",+95 9250908784,–,–,fmdnpt@gmail.com
https://psma-gies.fao.org/designated-ports/view/f30dee3d-35b1-4007-adf4-f6cdf1b9939f,–,Sweden,752,SE,SWE,5741N 01154E,Göteborg,–,–,–,–,–,–,–,–,–
https://psma-gies.fao.org/designated-ports/view/13c79cea-0da3-4cfc-a42f-cdfb9ce4b236,–,Japan,392,JP,JPN,Hiroshima,Habu,–,–,–,–,–,–,–,–,–
https://psma-gies.fao.org/designated-ports/view/bc493c9e-4c73-4cb1-993f-21b51587bc46,–,Japan,392,JP,JPN,Aomori,Hachinohe,–,–,–,–,–,–,–,–,–
https://psma-gies.fao.org/designated-ports/view/f9b23479-7db5-4eec-a304-9ccb654e2c7c,–,"Korea, Republic of",410,KR,KOR,Hadong,Hadong Port,–,–,–,–,–,–,–,–,–
https://psma-gies.fao.org/designated-ports/view/04cc77e0-c1de-4849-847c-f3c474e02f2f,–,Viet Nam,704,VN,VNM,Hai Phong,Hai Phong sea port/Nam Hai Dinh Vu Harbor,Cảng biển Hải Phòng/Bến cảng Nam Hải Đình Vũ (Cty CP cảng Nam Hải Đình Vũ),–,–,–,"Km 6, Dinh Vu street, Dong Hai 2, Hai An, Hai Phong",+84 2253654885,+84 2253654877,–,–
https://psma-gies.fao.org/designated-ports/view/36574405-4ff3-4aa1-9f2b-2460886b3e4c,–,Japan,392,JP,JPN,Fukuoka,Hakata,–,–,–,–,–,–,–,–,–
https://psma-gies.fao.org/designated-ports/view/de658da9-d5e4-4926-9d3e-fe672b0000dc,–,Japan,392,JP,JPN,Hokkaido,Hakodate,–,–,–,–,–,–,–,–,–
https://psma-gies.fao.org/designated-ports/view/4a973eda-87e9-404e-bbc8-0ec8b9b64af3,–,Canada,124,CA,CAN,"44.6414° N, 63.5664° W","Halifax, NS",–,–,–,"Halifax Port Authority,","P.O. Box 336,  Halifax,  Nova Scotia   B3J 2P6",+1 (902) 426-1285,–,–,seaport@portofhalifax.ca
https://psma-gies.fao.org/designated-ports/view/9fd02a99-6694-4716-a396-4b96fdb938c5,–,Norway,578,NO,NOR,Hammerfest,Hammerfest,–,–,–,–,–,–,–,–,–
https://psma-gies.fao.org/designated-ports/view/863c003b-4793-458f-ada9-635d03676d81,–,Denmark,208,DK,DNK,Hanstholm,Hanstholm,–,N57°7'4'',E8°35'7'',Port of Hanstholm,"Auktionsgade 39, DK-7730 Hanstholm",+45 96550710,–,–,info@portofhanstholm.dk
https://psma-gies.fao.org/designated-ports/view/8bda0196-8692-4215-962f-6f83dcf68985,–,Canada,124,CA,CAN,4741N 05315W,"Harbour Grace, NL",–,–,–,–,–,–,–,–,–
https://psma-gies.fao.org/designated-ports/view/3027be94-366f-4774-9be1-c8b454e2e826,–,Netherlands,528,NL,NLD,Harlingen,Harlingen,–,–,–,–,–,–,–,–,–
https://psma-gies.fao.org/designated-ports/view/4029d0a4-cc51-47e1-845c-9dc5fbaf43eb,–,Norway,578,NO,NOR,Harstad,Harstad,–,–,–,–,–,–,–,–,–
https://psma-gies.fao.org/designated-ports/view/33ecff4f-de10-4750-9d33-2ee4ff5220a0,–,United Kingdom,826,GB,GBR,Harwich,Harwich,"Harwich Haven, Harwich Navyyard, Harwich (international port ltd)",–,–,Harwich Haven Authority,"Navigation House, Angel Gate, Harwich, CO12 3EJ",+44 01255 243030,+44 01255 241325,–,website@hha.co.uk
https://psma-gies.fao.org/designated-ports/view/b8b7ef44-2dab-426e-a022-ab22a5c51a7c,–,Norway,578,NO,NOR,Harøysund,Harøysund,–,–,–,–,–,–,–,–,–
https://psma-gies.fao.org/designated-ports/view/e61c54ef-a012-4b13-b79b-d29b185ecda4,–,Japan,392,JP,JPN,Hiroshima,Hiroshima,–,–,–,–,–,–,–,–,–
https://psma-gies.fao.org/designated-ports/view/2016cba9-04a4-47e1-8a88-42efa4b4c162,–,Denmark,208,DK,DNK,Hirtshals,Hirtshals,–,N57°36'0'',E9°58'0'',Port of Hirtshals,"Norgeskajen 11, DK- 9850 Hirtshals",+45 98941422,–,–,havnevagten@hirtshalshavn.dk
https://psma-gies.fao.org/designated-ports/view/8e7b7644-572b-4d99-8777-2d17ae097bd9,–,Norway,578,NO,NOR,Hjørungavåg,Hjørungavåg,–,–,–,–,–,–,–,–,–
https://psma-gies.fao.org/designated-ports/view/a51bdbf8-b5e8-4eb3-a450-1abab98c4d9e,–,Viet Nam,704,VN,VNM,Ho Chi Minh,Ho Chi Minh sea port/Lotus Harbor,Cảng biển TP.Hồ Chí Minh/Bến cảng Bông Sen,–,–,–,"1A Nguyen Van Quy, Phu Thuan, District 7, Ho Chi Minh city",+84 2838730334,+84 2838730147,–,–
https://psma-gies.fao.org/designated-ports/view/beae71dd-199c-4343-87f6-ff3eb465727b,–,Viet Nam,704,VN,VNM,Ho Chi Minh,Ho Chi Minh sea port/Sai Gon – Hiep Phuoc Harbor,Cảng biển TP.Hồ Chí Minh/Bến cảng Sài Gòn - Hiệp Phước,–,–,–,"Hamlet 2, Hiep Phuoc, Nha Be, Ho Chi Minh city",+84 2838260640,+84 2839432457,–,–
https://psma-gies.fao.org/designated-ports/view/2cdc95aa-b347-4443-be52-8ee8029e8491,–,Viet Nam,704,VN,VNM,Ho Chi Minh,Ho Chi Minh sea port/SP-ITC International Container Terminal,Cảng biển TP.Hồ Chí Minh/Bến cảng Container Quốc tế SP-ITC,–,–,–,"Street 900, Phu Huu, District 9, Ho Chi Minh city",+84 2837315050,+84 2837315051,–,–
https://psma-gies.fao.org/designated-ports/view/fb42165f-8317-4e29-8fa3-b404528e1330,–,Viet Nam,704,VN,VNM,Ho Chi Minh,Ho Chi Minh sea port/Tan Cang Cat Lai harbor,Cảng biển TP.Hồ Chí Minh/Bến cảng Tân cảng,–,–,–,"1295B, Nguyen Thi Dinh, Cat Lai, District 2, Ho Chi Minh city",+84 2837423499,+84 2837423500,–,–
https://psma-gies.fao.org/designated-ports/view/4e505afa-f670-4bba-adda-f95b9a266c6c,–,Viet Nam,704,VN,VNM,Ho Chi Minh,Ho Chi Minh sea port/Tan Cang Hiep Phuoc Harbor,Cảng biển TP.Hồ Chí Minh/Bến cảng Tân cảng Hiệp Phước,–,–,–,"Lot A9, Zone A, Hiep Phuoc Industrial Park, Long Thoi, Nha Be, Ho Chi Minh city",+84 2837801252,+84 2837800926,–,–
https://psma-gies.fao.org/designated-ports/view/8e58fc6f-13ab-493d-91e8-4c06a044f32c,–,Viet Nam,704,VN,VNM,Ho Chi Minh,Ho Chi Minh sea port/Vegetable Harbor,Cảng biển TP.Hồ Chí Minh/Bến cảng Rau quả,–,–,–,"1A Nguyen Van Quy, Phu Thuan, District 7, Ho Chi Minh city",+84 2838730146,+84 2838730145,–,–
https://psma-gies.fao.org/designated-ports/view/1a7fad34-dad9-4617-8789-16c5f73add1c,–,Maldives,462,MV,MDV,"Hoadhedhdhoo, Gaafu Alifu Atoll",Hoadedhdhoo Port,Hoadedhdhoo Port,–,–,–,–,–,–,–,–
https://psma-gies.fao.org/designated-ports/view/f72cf98b-2a71-428c-88be-70d206f09851,–,United Kingdom,826,GB,GBR,Holyhead,Holyhead,–,–,–,Stena Line Ports Ltd,"Stena House Station Approach Holyhead, Gwynedd Ll65 1DQ",+44 01407 606666,+44 01407 606617,–,portcontrol@stenaline.com
https://psma-gies.fao.org/designated-ports/view/a7729c53-15da-4aa2-9267-68f51ebe4d14,–,Norway,578,NO,NOR,Honningsvåg,Honningsvåg,–,–,–,–,–,–,–,–,–
https://psma-gies.fao.org/designated-ports/view/a7e60dc6-f5ea-4abf-b59d-28871fcc5984,–,Portugal,620,PT,PRT,Horta,Horta,–,–,–,Direção-Geral dos Portos do Triângulo e Grupo Ocidental,"Avenida Gago Coutinho e Sacadura Cabral, 7 9900-062 Horta",–,–,–,–
https://psma-gies.fao.org/designated-ports/view/27de3daf-16fe-4ea3-a1d2-92f6747c84cd,–,"Korea, Republic of",410,KR,KOR,Hosan,Hosan Port,–,–,–,–,–,–,–,–,–
https://psma-gies.fao.org/designated-ports/view/9fedac4c-f92d-40f4-9a28-3d3d1549329f,–,Spain,724,ES,ESP,ANDALUCIA,HUELVA,–,N37°15'33'',W6°57'33'',"SUBDIRECCIÓN GENERAL DE VIGILANCIA PESQUERA Y LUCHA CONTRA LA PESCA ILEGAL  (SECRETARIA GENERAL DE PESCA) MINISTERIO DE AGRICULTURA, PESCA Y ALIMENTACIÓN",Calle Velázquez nº147 28071 - Madrid España,+34 913471949,913471512,–,iuu_slo_esp@mapama.es
https://psma-gies.fao.org/designated-ports/view/44b9cc16-ef8b-4b75-9d03-a007f9b79d2a,–,United Kingdom,826,GB,GBR,Hull,Hull,–,–,–,Associated British Ports,Port House Northern Gateway Hull HU9 5PQ,+44 1482 327 171,–,–,humber.general@abports.co.uk
https://psma-gies.fao.org/designated-ports/view/f7728e64-03c6-4d55-a2d2-474d56038599,–,Norway,578,NO,NOR,Husøy - Karmøy,Husøy - Karmøy,–,–,–,–,–,–,–,–,–
https://psma-gies.fao.org/designated-ports/view/0218b1cb-e864-4e36-8335-2a03a1faad20,–,Norway,578,NO,NOR,Hvaler,Hvaler,–,–,–,–,–,–,–,–,–
https://psma-gies.fao.org/designated-ports/view/583a3923-3d35-472b-8fb7-08f2915d005c,–,Denmark,208,DK,DNK,Hvide Sande,Hvide Sande,–,N56°0'0'',E8°7'8'',Port of Hvide Sande,Fossanæsvej 22 DK-6960 Hvide Sande,+45 97311633,–,–,hvidesandehavn@hvshavn.dk
https://psma-gies.fao.org/designated-ports/view/417c1e15-9674-47b7-bbaa-ecf627545683,–,Japan,392,JP,JPN,Ibaraki,Ibaraki,–,–,–,–,–,–,–,–,–
https://psma-gies.fao.org/designated-ports/view/68f216e3-17ef-4685-9bdc-b45578c6ed51,–,Netherlands,528,NL,NLD,Ijmuiden,Ijmuiden,–,–,–,–,–,–,–,–,–
https://psma-gies.fao.org/designated-ports/view/8ac094cf-b91b-46ae-9580-b9ed91b210fe,–,United Kingdom,826,GB,GBR,Immingham,Immingham,–,–,–,Associated British Ports,"Dock Office, Immingham Dock  NE Lincolnshire DN40 2LZ",+44 1472 359181,–,–,humber.general@abports.co.uk
https://psma-gies.fao.org/designated-ports/view/4082dedc-c7db-4077-a1fe-89b52fc3bd34,–,"Korea, Republic of",410,KR,KOR,Incheon,Incheon Port,–,–,–,–,–,–,–,–,–
https://psma-gies.fao.org/designated-ports/view/96e79a69-4882-4883-9884-c8a4cbe265be,–,Ecuador,218,EC,ECU,SECTOR PUNTA BLANCA- CANTON JARAMIJOMANABI.,INDUSTRIA ATUNERA S.A INDUATUN,PUERTO ATUN,S0°55'34'',W80°39'54'',ING. RAUL PALADINES BASURTO,VIA JARAMIJO SECTOR PUNTA BLANCA,+593 3700-650,–,–,secretariado@puertoatun.com
https://psma-gies.fao.org/designated-ports/view/c3416c71-0717-4758-957b-354abfa19cdd,–,United Kingdom,826,GB,GBR,Invergordon,Invergordon,–,–,–,Cromarty Firth Port Authority,"Port Office, Shore Road Invergordon Ross-shire, Scotland IV18 0HD",+44 1349 852308,+44 1349 853181,–,cfpa@cfpa.co.uk
https://psma-gies.fao.org/designated-ports/view/127d7ff7-7243-4bda-9451-4197526b5080,–,Chile,152,CL,CHL,IQUIQUE,IQUIQUE,–,–,–,SERVICIO NACIONAL DE PESCA Y ACUICULTURA,"Pasaje Alessandri Nº 470, Depto. 110",+56 (57) 2368150,–,–,vms@sernapesca.cl
https://psma-gies.fao.org/designated-ports/view/0c9e1a65-7d63-4f2c-9654-5369bd96d58a,–,Japan,392,JP,JPN,Okinawa,Ishigaki,–,–,–,–,–,–,–,–,–
https://psma-gies.fao.org/designated-ports/view/4163bfac-56e7-4f03-b5bb-3d4c447fe9da,–,Japan,392,JP,JPN,Miyagi,Ishinomaki,–,–,–,–,–,–,–,–,–
https://psma-gies.fao.org/designated-ports/view/44ee88b8-be68-4f49-ab45-43ac1a00b885,–,Panama,591,PA,PAN,"BAHÍA DE PANAMÁ, ISLA TABOGUILLA",ISLA TABOGUILLA (DECAL),ISLA TABOGUILLA (DECAL),N8°48'0'',W79°30'0'',PANAMA MARITIME AUTHORITY   /    AQUATIC RESOURCES AUTHORITY OF PANAMA,"ISLA TABOGUILLA, BAHÍA DE PANAMÁ",+507 511-6000,–,–,merp@arap.gob.pa
https://psma-gies.fao.org/designated-ports/view/b4fe87f1-a763-4a30-ab7f-a122fc5d11dc,–,Japan,392,JP,JPN,Nagasaki,Izuhara,–,–,–,–,–,–,–,–,–
https://psma-gies.fao.org/designated-ports/view/a04d67fd-ce9b-4f25-8534-6a8ed7d1fd30,–,"Korea, Republic of",410,KR,KOR,Janghang,Janghang Port,–,–,–,–,–,–,–,–,–
https://psma-gies.fao.org/designated-ports/view/ecefcfda-1d34-4c22-8d12-6e8c85cb311b,–,"Korea, Republic of",410,KR,KOR,Jangseungpo,Jangseungpo Port,–,–,–,–,–,–,–,–,–
https://psma-gies.fao.org/designated-ports/view/1a00c9af-118b-430a-a885-598c01878e39,–,Canada,124,CA,CAN,4447N 06304W,Jeddore,Head of Jeddore,–,–,–,–,–,–,–,–
https://psma-gies.fao.org/designated-ports/view/614b28e3-65f7-402c-bf04-d9d5e1d776b7,–,"Korea, Republic of",410,KR,KOR,Jeju,Jeju Port,–,–,–,–,–,–,–,–,–
https://psma-gies.fao.org/designated-ports/view/cb4b2fe2-515c-4c62-96c9-db94d77e95da,–,"Korea, Republic of",410,KR,KOR,Jinhae,Jinhae Port,–,–,–,–,–,–,–,–,–
https://psma-gies.fao.org/designated-ports/view/007af115-9681-4254-9cf5-7ded470cae44,–,Japan,392,JP,JPN,Kagoshima,Kagoshima,–,–,–,–,–,–,–,–,–
https://psma-gies.fao.org/designated-ports/view/15af214a-98b4-4df0-b90f-248e91e0a494,–,Norway,578,NO,NOR,Kalvåg,Kalvåg,–,–,–,–,–,–,–,–,–
https://psma-gies.fao.org/designated-ports/view/ecb70cc4-de04-41ed-96b3-ea181f1b5e23,–,Japan,392,JP,JPN,Iwate,Kamaishi,–,–,–,–,–,–,–,–,–
https://psma-gies.fao.org/designated-ports/view/27f3261a-335d-45bf-b45c-cbabf4eabd4c,–,Thailand,764,TH,THA,"245 Moo 5, Had Lek, Khlong Yai, Trat 23110",Kanlapangha port,–,–,–,Trat Fishery Inspection Office,"Bann Had Lek Border Government Center Building, Floor 3, Village No.4,  Had lek Sub-district , Klongyai District, Trat Province, 23110",+66 39588136,+66 39588136,–,trad_fish@yahoo.co.th
https://psma-gies.fao.org/designated-ports/view/ed4bdba6-cda5-4ee2-81f5-277af41d72af,–,Sweden,752,SE,SWE,5610N 01536E,Karlskrona Handelshamnen,–,–,–,–,–,–,–,–,–
https://psma-gies.fao.org/designated-ports/view/e11f0a89-d9d5-4d36-98a1-c68c91241922,–,Japan,392,JP,JPN,Ibaraki,Kashima,–,–,–,–,–,–,–,–,–
https://psma-gies.fao.org/designated-ports/view/f7adb09e-f32c-4a82-8343-00fbd8906d07,–,Greece,300,GR,GRC,PIRAEUS (KERATSINI),KERATSINI (AUCTION HALL),–,–,–,–,–,–,–,–,–
https://psma-gies.fao.org/designated-ports/view/ecfda866-b91d-40d5-8fd6-fce0260880c5,–,Viet Nam,704,VN,VNM,Khanh Hoa,Khanh Hoa port/Bac Van Phong General Harbor,Cảng biển Khánh Hòa/Bến cảng tổng hợp Bắc Vân Phong,–,–,–,"Dam Mon village, Van Thanh, Van Ninh, Khanh Hoa",+84 258.3931888,+84 258.3931888,–,–
https://psma-gies.fao.org/designated-ports/view/2dfeba50-4b69-4f31-b88e-d87a00c24050,–,Viet Nam,704,VN,VNM,Khanh Hoa,Khanh Hoa sea port/Ba Ngoi Harbor/Cam Ranh Port,Cảng biển Khánh Hòa/Bến cảng Ba Ngòi,S0°0'0'',W0°0'0'',–,"29 Nguyen Trong Ky, Cam Linh, Cam Ranh, Khanh Hoa",+84 2583854307,+84 2583854536,–,–
https://psma-gies.fao.org/designated-ports/view/4d8e1ab1-965b-47a4-88ee-8062a5226d7b,–,Viet Nam,704,VN,VNM,Khanh Hoa,Khanh Hoa sea port/Cam Ranh International Harbor,Cảng biển Khánh Hòa/Bến cảng Quốc tế Cam Ranh,–,–,–,"Cam Nghia, Cam Ranh, Khanh Hoa",+84 258.3858221,+84 258.3858219,–,vanthu_TCPC@saigonnewport.com.vn
https://psma-gies.fao.org/designated-ports/view/f1b76eb8-e56b-4be8-b733-755d6d33090c,–,Viet Nam,704,VN,VNM,Khanh Hoa,Khanh Hoa sea port/Nam Van Phong General harbor,Cảng biển Khánh Hòa/Bến cảng Tổng hợp Nam Vân Phong,–,–,–,"Ninh Thuy Industrial Park, Ninh Hoa, Khanh Hoa",+84 917196338,–,–,–
https://psma-gies.fao.org/designated-ports/view/b5755e95-caf2-46f5-938e-8743f6268ea6,–,Libya,434,LY,LBY,AL-KHOMS-LIBYA,KHOMS PORT,KHUMS PORT,N32°41'0'',E14°14'12'',GENERAL AUTHORTY OF MARINE FISHERY,LIBYA,+218 923857133,–,–,did@gam.com.ly
https://psma-gies.fao.org/designated-ports/view/02b06ad3-0f5c-47a9-8686-0b133322a3f1,–,United Kingdom,826,GB,GBR,Kilkeel,Kilkeel,–,–,–,Northern Ireland Fishery Harbour Authority,"The Harbour Master Kilkeel, Co Down, NI BT34 4AX",+44 028 4176 2287,–,–,Kevin.quigly@nifha.co.uk
https://psma-gies.fao.org/designated-ports/view/1cd010cd-d5e4-48be-8f49-952cabb9bfc5,–,Ireland,372,IE,IRL,"Killybegs, Donegal, Republic of Ireland",Killybegs,As above,N54°38'5'',W8°26'30'',Sea Fisheries Protection Authority,"Fishery Harbour Centre, The Pier, Killybegs, Co. Donegal",+353 74 973 1264,+353 74 973 1819,–,killybegs@sfpa.ie
https://psma-gies.fao.org/designated-ports/view/ee09a91a-0ab8-42d7-add1-5b456cf5c2f8,–,United Kingdom,826,GB,GBR,Kinlochbervie ,Kinlochbervie ,–,–,–,Highland Council,Harbour Office Kinlochbervie Sutherland IV27 4RR,+44 1971 521235,+44 1971 521718,–,Lorne.robertson@highland.gov.uk
https://psma-gies.fao.org/designated-ports/view/fbb8fb6a-8ddb-4368-b62e-5a53eedbd984,–,Norway,578,NO,NOR,Kirkenes,Kirkenes,–,–,–,–,–,–,–,–,–
https://psma-gies.fao.org/designated-ports/view/43337740-19fb-4441-9cae-0fff1055f955,–,Japan,392,JP,JPN,Fukuoka,Kitakyusyu,–,–,–,–,–,–,–,–,–
https://psma-gies.fao.org/designated-ports/view/894db434-1462-4e99-a5bb-c2e2967a5821,–,Norway,578,NO,NOR,Kjøllefjord,Kjøllefjord,–,–,–,–,–,–,–,–,–
https://psma-gies.fao.org/designated-ports/view/8e4b826a-70dc-432f-a3ea-f685f170dd54,–,Lithuania,440,LT,LTU,Klaipėda,Klaipėda,Klaipėdos jūrų uostas,–,–,Klaipėda Seaport Authority,"J. Janonio str. 24, LT-92251, Klaipėda, Lithuania",+370 46499799,+370 46499777,–,info@port.lt
https://psma-gies.fao.org/designated-ports/view/0fdb874f-25fa-4ef3-9f06-53333983eaa5,–,Japan,392,JP,JPN,Hyogo,Kobe,–,–,–,–,–,–,–,–,–
https://psma-gies.fao.org/designated-ports/view/c4186f6d-5d73-4020-910b-53029bca22cb,–,Japan,392,JP,JPN,Kochi,Kochi,–,–,–,–,–,–,–,–,–
https://psma-gies.fao.org/designated-ports/view/1b880007-9cee-4c4e-ad9a-0dd2fb68b20d,–,Maldives,462,MV,MDV,"Kooddoo, Gaafu Alifu Atoll",Kooddoo Port,Kooddoo Port,–,–,–,–,–,–,–,–
https://psma-gies.fao.org/designated-ports/view/0748e86b-0280-4076-a4e6-0384bcc95485,–,Norway,578,NO,NOR,Kopervik,Kopervik,–,–,–,–,–,–,–,–,–
https://psma-gies.fao.org/designated-ports/view/7a56f90a-dbec-4614-88fa-ebf19235e0d2,–,Norway,578,NO,NOR,Kristiansund,Kristiansund,–,–,–,–,–,–,–,–,–
https://psma-gies.fao.org/designated-ports/view/36dc6500-1969-42e1-a273-9564879103f7,–,Sweden,752,SE,SWE,5822N 01115E,Kungshamn,–,–,–,–,–,–,–,–,–
https://psma-gies.fao.org/designated-ports/view/c001bd57-1ad9-46b0-b42f-4d6b90bacc9d,–,Japan,392,JP,JPN,Kagoshima,Kushikino,–,–,–,–,–,–,–,–,–
https://psma-gies.fao.org/designated-ports/view/fee85882-e22c-40dc-8e98-62ead64b4621,–,Japan,392,JP,JPN,Hokkaido,Kushiro,–,–,–,–,–,–,–,–,–
https://psma-gies.fao.org/designated-ports/view/988342f2-32ac-4549-a438-e6a913f1e927,–,Norway,578,NO,NOR,Kårvikhamn,Kårvikhamn,–,–,–,–,–,–,–,–,–
https://psma-gies.fao.org/designated-ports/view/b13d7d0a-24b3-492a-85f1-8341b8b319cf,–,Canada,124,CA,CAN,5131N 05650W,L'Anse-au-Loup,–,–,–,–,–,–,–,–,–
https://psma-gies.fao.org/designated-ports/view/178f8b2c-ba49-4f8d-a783-6c1dad061406,–,Cuba,192,CU,CUB,"Φ-23°08'4""N ʎ- 82°21'30""W",LA HABANA,–,–,–,A.M.T.OCC,AVE. DEL PUERTO CENTRO DE NEGOCIOS ALAMEDA DE PAULA,+53 78608599,–,–,Presidencia.aph@transnet.cu
https://psma-gies.fao.org/designated-ports/view/378979eb-f9b0-4c76-b784-f3c7571994a7,–,France,250,FR,FRA,France,La Rochelle,–,–,–,–,–,–,–,–,–
https://psma-gies.fao.org/designated-ports/view/ca9ef847-787e-471c-8a17-27da6b789a1e,–,Italy,380,IT,ITA,La Spezia,La Spezia,–,–,–,Capitaneria di porto di La Spezia,Largo Michele Fiorillo n. 2 - 19124 La Spezia (SP),+39 0187258100,–,–,cp-laspezia@pec.mit.gov.it
https://psma-gies.fao.org/designated-ports/view/57c04db5-a8d0-478c-824f-eaf67a1d8c60,–,Morocco,504,MA,MAR,MAROC,LAAYOUNE,–,N27°5'0'',W13°57'0'',Délégation des Pêches Maritimes de Laayoune,BP 68 ville Al Marssa Laayoune,2.12529E+11,2.12529E+11,–,abderrahman.elkhattat@mpm.gov.ma
https://psma-gies.fao.org/designated-ports/view/e3ac13f3-174c-4475-962d-88ee4837ca60,–,Papua New Guinea,598,PG,PNG,LAE,LAE,LAE,S6°7'41'',E146°9'8'',PNG PORTS CORPORATION LIMITED,"P. O. BOX 2639
LAE 411
MOROBE PROVINCE
PAPUA NEW GUINEA",+675 4725671,+675 4724215,www.fisheries.gov.pg,nfa@fisheries.gov.pg
https://psma-gies.fao.org/designated-ports/view/ea7860d2-23ad-451f-9832-0c4540601960,–,Nigeria,566,NG,NGA,Lagos,Lagos Port Complex Apapa,–,–,–,Nigerian Ports Authority,"26/28 Marina,  Lagos, Nigeria","+234 8158794394, +2349062784264",–,–,–
https://psma-gies.fao.org/designated-ports/view/3362813a-6526-436a-bcdd-3bd7bccdc04c,–,Kenya,404,KE,KEN,LAMU,LAMU PORT,LAMU PORT BERTH 1,S2°10'11'',E40°54'12'',KENYA FISHERIES SERVICE,P.O. BOX 48511-00100 NAIROBI,2.54706E+11,–,www.kefs.go.ke,info@kefs.go.ke
https://psma-gies.fao.org/designated-ports/view/83a141c5-7702-4a08-89fa-89daa328c27b,–,Morocco,504,MA,MAR,MAROC,LARACHE,–,N35°11'0'',W6°10'0'',Délégation des pêches Maritimes de Larache,"Avenue Casablanca, B.P 1013 Larache",+212 539 91 29 00,+212 539 91 11 55,–,abdellah.eljarjaf@mpm.gov.ma
https://psma-gies.fao.org/designated-ports/view/b6aceef8-3a3d-4daf-b2fe-703595e55484,–,Spain,724,ES,ESP,CANARIAS,LAS PALMAS DE GRAN CANARIA,–,N28°9'20'',W15°24'31'',"SUBDIRECCIÓN GENERAL DE CONTROL E INSPECCIÓN  (SECRETARIA GENERAL DE PESCA) MINISTERIO DE AGRICULTURA, PESCA Y ALIMENTACIÓN",Calle Velázquez nº147 28071 - Madrid España,+34 913471949,913471512,–,iuu_slo_esp@mapama.es
https://psma-gies.fao.org/designated-ports/view/69fdb1aa-e7f9-4b8c-aeaa-fad85e5f68fc,–,Fiji,242,FJ,FJI,WESTERN DIVISION,LAUTOKA WHARF,QUEENS WHARF,–,–,PORTS AUTHORITY OF FIJI,"Queens Wharf, Lautoka, Fiji.",+679 892 8848,–,–,–
https://psma-gies.fao.org/designated-ports/view/76f056f5-9a47-4982-a709-3a5a7ee70cb4,–,France,250,FR,FRA,France,Le Havre,–,–,–,–,–,–,–,–,–
https://psma-gies.fao.org/designated-ports/view/e5a09625-6c31-45c8-93d5-f5c8b6065b88,–,France,250,FR,FRA,France (La Réunion),Le Port,–,–,–,–,–,–,–,–,–
https://psma-gies.fao.org/designated-ports/view/f7dd42dc-2d2c-4e86-a6fa-754cab6e41c5,–,United Kingdom,826,GB,GBR,Leith,Leith,–,–,–,Forth Ports Group,Imperial House Albert Dock Edinburgh EH6 7DN,+44 131 555 8855,+44 131 555 8750,–,fiona.doherty@forthports.co.uk
https://psma-gies.fao.org/designated-ports/view/067b7d14-131f-4223-adc3-27b0da3c45ce,–,Portugal,620,PT,PRT,Leixões - Porto,Leixões - Porto,–,–,–,"Administração dos Portos do Douro e Leixões, SA",Avenida da Liberdade 4450-718 Leça da Palmeira,–,–,–,–
https://psma-gies.fao.org/designated-ports/view/51962040-457f-4aa6-8a15-c1a05867a8c1,–,Norway,578,NO,NOR,Leknes,Leknes,–,–,–,–,–,–,–,–,–
https://psma-gies.fao.org/designated-ports/view/5df0fb35-0599-45bc-8936-fd266db0795b,–,United Kingdom,826,GB,GBR,Lerwick ,Lerwick ,–,–,–,Lerwick Port Authority,Albert Building Lerwick Shetland ZE1 0LL,+44 1595 692991,+44 1595 693452,–,info@lerwick-harbour.co.uk
https://psma-gies.fao.org/designated-ports/view/0aa9dd4d-8d2f-4746-baff-78128e8d3b3f,–,Fiji,242,FJ,FJI,LEVUKA,LEVUKA WHARF,–,–,–,PORTS AUTHORITY OF FISH,MAIN STREET LEVUKA,–,–,–,–
https://psma-gies.fao.org/designated-ports/view/239f38ac-b79b-45ab-b9e5-ea62a3d97856,–,Cyprus,196,CY,CYP,LIMASSOL  DISTRICT,LIMASSOL NEW PORT CYLIM 034°.39΄.00”Ν – 033°.01΄.00”Ε,Limassol New Port,–,–,Deparmtent of Fisheries and Marine Research (fisheries authority) and Cyprus Ports Authority (ports authority),–,+357 99834357,+357 22 807 880,–,fmc@dfmr.moa.gov.cy
https://psma-gies.fao.org/designated-ports/view/accaf140-b9a2-480c-942e-ff16c5b8f783,–,United Kingdom,826,GB,GBR,Liverpool,Liverpool,–,–,–,Mersey Docks & Harbour Company Limited,Maritime Centre Port of Liverpool Liverpool L21 1LA,+44 0151 949 6000,+44 0151 949 6090,–,info@peelports.com
https://psma-gies.fao.org/designated-ports/view/efb1b035-a644-4215-a1b0-9b58814dd621,–,Italy,380,IT,ITA,Livorno,Livorno,–,–,–,Direzione Marittima di Livorno,Piazza della Sanità n. 1 - 57123 Livorno (LI),+39 0586826011,–,–,dm.livorno@pec.mit.gov.it
https://psma-gies.fao.org/designated-ports/view/d57b0448-8f8d-447e-89f8-6445b794cd1d,–,United Kingdom,826,GB,GBR,Lochinver,Lochinver,–,–,–,Highland Council,"Harbours HQ Lochinver Harbour, Lochinver, IV27 4LE",+44 1571 844265,+44 1571 844265,–,neil.gudgeon@highland.gov.uk
https://psma-gies.fao.org/designated-ports/view/9568498a-5c2f-4176-9adb-873a3d92a9f6,–,United Kingdom,826,GB,GBR,Londonderry,Londonderry,–,–,–,Londonderry Port & Harbour Commissioners,Foyle Port Port Road Lisahally Londonderry BT47 1FL,+44 02871 860 555,–,–,info@londonderryport.co.uk
https://psma-gies.fao.org/designated-ports/view/e009bef7-1170-4647-9e4d-ee3245ca3db2,–,Viet Nam,704,VN,VNM,Long An,Long An International Port,Cảng Quốc tế Long An,–,–,–,"Tan Hoa hamlet, Tan Cap, Can Giuoc, Long An",+84 2723741516,–,–,–
https://psma-gies.fao.org/designated-ports/view/002ff11e-880b-4ba9-8c82-e9c2052d32fe,–,Australia,36,AU,AUS,Lord Howe Island,Lord Howe Island,–,S31°32'26'',E159°4'41'',NSW Police Lord Howe Island,"TC Douglass Drive, Lord Howe Island NSW 2898",+61 2 65632199,+61 2 65632131,–,–
https://psma-gies.fao.org/designated-ports/view/3911ab7a-6025-4464-8730-984689e0f3e8,–,France,250,FR,FRA,France,Lorient,–,–,–,–,–,–,–,–,–
https://psma-gies.fao.org/designated-ports/view/40ac8a1a-c86e-4bf9-b06a-98f114c5cfc9,–,Canada,124,CA,CAN,4555N 05959W,"Louisbourg, NS",–,–,–,–,–,–,–,–,–
https://psma-gies.fao.org/designated-ports/view/29e75bfa-f52e-4d4b-8fbc-e7fbe7c0a42a,–,United Kingdom,826,GB,GBR,Lowestoft,Lowestoft,–,–,–,–,"North Quay Cargo Terminal, Commercial Road, Lowestoft, Suffolk NR32 2TE",+44 01502 572 286,–,–,lowestoftportcontrol@abports.co.uk
https://psma-gies.fao.org/designated-ports/view/f8f273fb-884a-40c4-805f-20ff952382d9,–,Sweden,752,SE,SWE,5817N 01127E,Lysekil,–,–,–,–,–,–,–,–,–
https://psma-gies.fao.org/designated-ports/view/abb50974-33d7-4d49-82fd-b514c9885dda,–,New Zealand,554,NZ,NZL,Christchurch,Lyttelton Port of Christchurch,Lyttelton Port Company,–,–,Lyttelton Port Company Ltd,"Lyttelton Port Company Ltd Waterfront House, 37-39 Gladstone Quay, Lyttelton 8082 New Zealand",+64 3 328 8198,+64 3 328 7828,–,allreceptionists@lpc.co.nz
https://psma-gies.fao.org/designated-ports/view/15b4db76-ca7a-44bb-9c88-da418176beac,–,Norway,578,NO,NOR,Lødingen,Lødingen,–,–,–,–,–,–,–,–,–
https://psma-gies.fao.org/designated-ports/view/aa721dea-4e69-4d4d-9f97-35c3101d0736,–,Papua New Guinea,598,PG,PNG,MADANG,MADANG,MADANG,S5°12'28'',E145°47'28'',PNG PORTS CORPORATION LIMITED,"P. O. BOX 514
MADANG 
MADANG PROVINCE
PAPUA NEW GUINEA",+675 4220390,+675 4220390,www.fisheries.gov.pg,nfa@fisheries.gov.pg
https://psma-gies.fao.org/designated-ports/view/e2a7b187-de5b-406a-b668-c738510ee5fc,–,Madagascar,450,MG,MDG,Mahajanga,Mahajanga,Majunga,S15°43'7'',E46°18'6'',Agence Portuaire Maritime et Fluviale (APMF),Boulevard Point Carré - Capitainerie du Port  B.P. 36,+261 321125780,261,https://www.apmf.mg,ronsarda@yahoo.fr
https://psma-gies.fao.org/designated-ports/view/5863d255-d2e8-47f8-89a7-581ae8975eec,–,Seychelles,690,SC,SYC,"Victoria, Mahe",Mahe Quay,–,S4°37'0'',E55°55'0'',Seychelles Port Authority,"New Port Victoria, Mahe",+248 4294700,+248 4224004,–,enquiries@seyport.sc
https://psma-gies.fao.org/designated-ports/view/71671375-1927-4e0a-94cd-855f3d8cbcb1,–,Marshall Islands,584,MH,MHL,Majuro,Majuro,–,N7°4'0'',E171°16'0'',Marshall Islands Marine Resources Authority,"P.O. Box 860, Delap Village, Majuro, MH, 96960",+692 6258262,–,–,psm@mimra.com
https://psma-gies.fao.org/designated-ports/view/0a91424f-a020-4354-94f5-088f61e9927d,–,Japan,392,JP,JPN,Kagoshima,Makurazaki,–,–,–,–,–,–,–,–,–
https://psma-gies.fao.org/designated-ports/view/458a6157-b1f2-42ea-b3c7-1080088e896f,–,Maldives,462,MV,MDV,"Male' , Kaafu Atoll",Male' Port,Male' Port,–,–,Maldives Ports Limited,"Maldives Ports Limited Boduthakurufaanu Magu, Male' Maldives",+960 3329339,+960 5293,–,info@port.com.mv
https://psma-gies.fao.org/designated-ports/view/9a59922e-9d4f-4457-90e2-fa3891985650,–,United Kingdom,826,GB,GBR,Mallaig,Mallaig,–,–,–,Mallaig Harbour Authority,"Mallaig Highland Region, Scotland PH41 4QB",+44 01687 462154,+44 01687 462172,–,info@mallaigharbourauthority.com
https://psma-gies.fao.org/designated-ports/view/bd105f8f-e2ff-48a3-9ff7-ec6d99cb57ae,–,Mexico,484,MX,MEX,"MANZANILLO, COLIMA",MANZANILLO,–,–,–,–,–,–,–,–,–
https://psma-gies.fao.org/designated-ports/view/3fe7b4fe-3dcd-4bc6-b5ae-00a77bebfb08,–,Mozambique,508,MZ,MOZ,Maputo,Maputo,–,–,–,–,–,–,–,–,–
https://psma-gies.fao.org/designated-ports/view/4be18506-6d16-413f-8980-20a31ebe9c6d,–,Maldives,462,MV,MDV,"Maradhoo, Seenu Atoll",Maradhoo Port,Maradhoo Port,–,–,–,–,–,–,–,–
https://psma-gies.fao.org/designated-ports/view/f395c39a-0067-4b4d-9f1a-cb33f54ae135,–,Cuba,192,CU,CUB,Φ-23°01'30” N ʎ-82° 45' 30” W,MARIEL,–,–,–,A.M.T.M,Ave 71S/N Puerto Viejo Mariel,+53 747398877,–,–,Diretor.amm@apmariel.transnet.cu
https://psma-gies.fao.org/designated-ports/view/1d3ca29c-61aa-4848-a455-471472a44380,–,Spain,724,ES,ESP,GALICIA,MARIN,–,N42°23'49'',W8°41'35'',"SUBDIRECCIÓN GENERAL DE VIGILANCIA PESQUERA Y LUCHA CONTRA LA PESCA ILEGAL  (SECRETARIA GENERAL DE PESCA) MINISTERIO DE AGRICULTURA, PESCA Y ALIMENTACIÓN",Calle Velázquez nº147 28071 - Madrid España,+34 913471949,913471512,–,iuu_slo_esp@mapama.es
https://psma-gies.fao.org/designated-ports/view/77056ddd-6922-4bd0-af83-53c4bbf46c66,–,Malta,470,MT,MLT,Malta,Marsaxlokk Port,Port ta' Marsaxlokk,–,–,Transport Malta,"Malta Transport Centre, Triq Pantar, Ħal Lija, LJA 2021 Malta",+356 21222203,–,–,info.tm@transport.gov.mt
https://psma-gies.fao.org/designated-ports/view/eef87c46-ac09-4155-8563-31403317da18,–,New Zealand,554,NZ,NZL,Northland,Marsden  Cove Marina,Northport,–,–,Nrorthport Ltd,21 Ralph Trimmer Drive Marsden Point 0171 NEW ZEALAND,+64 9 432 5024,–,–,portservices@northport.co.nz
https://psma-gies.fao.org/designated-ports/view/9bd3dff0-f821-489a-9574-e1a648ed22dd,–,France,250,FR,FRA,France,Marseille Port,–,–,–,–,–,–,–,–,–
https://psma-gies.fao.org/designated-ports/view/0efda4ed-a29e-439d-af3e-1121ce0dfad3,–,"Korea, Republic of",410,KR,KOR,Masan,Masan port,–,–,–,–,–,–,–,–,–
https://psma-gies.fao.org/designated-ports/view/2ad7da71-610c-4aa4-93f7-b7ba866ad909,–,Mexico,484,MX,MEX,MAZATLÁN SINALOA,MAZATLÁN,–,–,–,–,–,–,–,–,–
https://psma-gies.fao.org/designated-ports/view/db3bdfeb-276b-47e2-ac05-257a5199be05,–,Morocco,504,MA,MAR,MAROC,MEHDIA,–,N34°16'0'',W6°41'0'',Délégation des Pêches Maritimes de Kenitra,B.P 161 Kenitra,2.12537E+11,2.12537E+11,–,abdelkhalek.saadi@mpm.gov.ma
https://psma-gies.fao.org/designated-ports/view/781f26fa-389a-4bc1-8921-f912739e1e7f,–,Panama,591,PA,PAN,"BAHÍA DE PANAMÁ, ISLA MELONES",MELONES OIL TERMINAL,MELONES OIL TERMINAL,N8°48'0'',W79°36'0'',PANAMA MARITIME AUTHORITY   /    AQUATIC RESOURCES AUTHORITY OF PANAMA,"ISLA MELONES, BAHÍA DE PANAMÁ",+507 511-6000,–,–,merp@arap.gob.pa
https://psma-gies.fao.org/designated-ports/view/c17f9378-6b0f-4bb5-b4ac-dd1d64e1b6ef,–,Australia,36,AU,AUS,Melville Island,Melville Port - Marine Supply Port,Melville Bay,–,–,NT Port and Marine,Melville Island (Tiwi)  Northern Territory,+61 477050581,–,–,portmelville@ntportandmarine.com
https://psma-gies.fao.org/designated-ports/view/8643478d-0c85-4706-aa4c-edeb21e0eb8e,–,United Kingdom,826,GB,GBR,Methil,Methil,–,–,–,Forth Ports Group,Dock Office  Methil  Fife  KY8 3RE,+ 01333 426725,+ 01333 424873,–,matt.north@forthports.co.uk
https://psma-gies.fao.org/designated-ports/view/e982ce47-ad34-4790-9c9c-a3acb84d248b,–,United Kingdom,826,GB,GBR,Milford Haven,Milford Haven,–,–,–,Milford Haven Authority,"PO Box 14, Gorsewood Drive Hakin, Milford Haven Pembrokeshire SA73 3ER",+44 01646 696100,+44 01646 696125,–,enquiries@mhpa.co.uk
https://psma-gies.fao.org/designated-ports/view/12fc373c-57ef-4709-9dba-74a1d1571a7b,–,Libya,434,LY,LBY,MISRATA-LIBYA,MISRATA PORT,MISURATA PORT,N32°21'58'',E15°13'3'',GENERAL AUTHORTY OF MARINE FISHERY,LIBYA,+218 913726575,–,–,did@gam.com.ly
https://psma-gies.fao.org/designated-ports/view/e0fa43d5-9771-4127-8da8-0ed155492858,–,Japan,392,JP,JPN,Iwate,Miyako,–,–,–,–,–,–,–,–,–
https://psma-gies.fao.org/designated-ports/view/6dafd00e-a82b-4e91-877d-05a2bdc03f4e,–,Somalia,706,SO,SOM,–,Mogadishu,–,–,–,Somali Port Authority (SMA),–,+252 615509562,–,–,dg@mfmr.gov.so
https://psma-gies.fao.org/designated-ports/view/886be159-be93-4ccb-bafa-d9eda4aecea9,–,"Korea, Republic of",410,KR,KOR,Mokpo,Mokpo Port,–,–,–,–,–,–,–,–,–
https://psma-gies.fao.org/designated-ports/view/75d481cb-e248-4e96-94d4-06f05298528e,–,Kenya,404,KE,KEN,MOMBASA,MOMBASA,LIWATONI,–,–,–,"P.O. BOX 90423-80100 SILOS ROAD/OFF LIWATONI ROAD MOMBASA, KENYA",–,–,–,liwatonifisheriescomplex@gmail.com
https://psma-gies.fao.org/designated-ports/view/ba1f1556-d4a5-4415-91ef-a88ddb02b7a0,–,Bangladesh,50,BD,BGD,"Mongla, Bagerhat, Bangladesh",Mongla Port,–,–,–,Mongla Port Authority,"Mongla Port Authority, Mongla-9351, Bagerhat, Bangladesh",+880 2-477753773,+880 2-477753778,–,–
https://psma-gies.fao.org/designated-ports/view/820e800a-9ffa-4bab-8d2f-0e457090176f,–,Ecuador,218,EC,ECU,GUAYAQUIL,MONTEBRISACORP S.A.,MONTEBRISACORP,S2°14'48'',W79°52'42'',HENK DE BRUIN YCAZA,"PRE COOPERATIVA BRISAS DEL GUAYAS, PARROQUIA XIMENA, CANTÓN GUAYAQUIL, PROVINCIA DEL GUAYAS",+593 4 - 2158467 / 2158488,–,–,gerencia@grupojadran.com
https://psma-gies.fao.org/designated-ports/view/6900c043-def6-4fc0-bc28-ff09b1fbb1a8,–,Uruguay,858,UY,URY,Montevideo,Montevideo,Montevideo,S34°55'0'',W56°14'0'',Dirección Nacional de Recursos Acuáticos,Constituyente 1497. Montevideo,+598 24004689,–,–,direcciongeneraldinara@mgap.gub.uy
https://psma-gies.fao.org/designated-ports/view/bebb0b20-25ab-4ac3-8d45-6003cd5bb93a,–,Ecuador,218,EC,ECU,GUAYAQUIL,MUELLE MUNICIPAL CARAGUAY,CARAGUAY,S2°13'39'',W79°53'10'',EFRÉN VICENTE BAQUERIZO ADUM,GENERAL ROBLES OFC. BARRIO CUBA GUAYAQUIL - GUAYAS,+593 04 2594800,–,–,efrbaqva@guayaquil.gob.ec
https://psma-gies.fao.org/designated-ports/view/bb4bc53f-505f-45d2-9b8f-bcdabb0110bd,–,Japan,392,JP,JPN,Hokkaido,Muroran,–,–,–,–,–,–,–,–,–
https://psma-gies.fao.org/designated-ports/view/fed85ee3-ea2e-489e-96f2-2ac04c6b29b7,–,Spain,724,ES,ESP,ANDALUCIA,MÁLAGA,–,N36°42'40'',W4°25'22'',"SUBDIRECCIÓN GENERAL DE VIGILANCIA PESQUERA Y LUCHA CONTRA LA PESCA ILEGAL  (SECRETARIA GENERAL DE PESCA) MINISTERIO DE AGRICULTURA, PESCA Y ALIMENTACIÓN",Calle Velázquez nº147 28071 - Madrid España,+34 913471949,913471512,–,iuu_slo_esp@mapama.es
https://psma-gies.fao.org/designated-ports/view/bc729b41-8573-4ac9-bd2d-0f3635ae7b73,–,Norway,578,NO,NOR,Måløy,Måløy,–,–,–,–,–,–,–,–,–
https://psma-gies.fao.org/designated-ports/view/1a1d2f8e-67e9-4cd4-a3a6-8b6aa436bde8,–,Mozambique,508,MZ,MOZ,Nampula,Nacala,–,–,–,–,–,–,–,–,–
https://psma-gies.fao.org/designated-ports/view/ee0e1456-69d8-4184-b951-b205e5277f15,–,Morocco,504,MA,MAR,MAROC,NADOR,–,S0°0'0'',W0°0'0'',Délégation des Pêches Maritimes de NADOR,–,212,212,–,mustapha.aitalla@mpm.gov.ma
https://psma-gies.fao.org/designated-ports/view/582d1b73-adf8-451a-952b-3de6f78f4a74,–,Japan,392,JP,JPN,Nagasaki,Nagasaki,–,–,–,–,–,–,–,–,–
https://psma-gies.fao.org/designated-ports/view/62724d13-2f43-42f1-95d1-40807b316fee,–,Japan,392,JP,JPN,Aichi,Nagoya,–,–,–,–,–,–,–,–,–
https://psma-gies.fao.org/designated-ports/view/24f12edc-702e-4c31-a890-925e69c6340a,–,Japan,392,JP,JPN,Okinawa,Naha,–,–,–,–,–,–,–,–,–
https://psma-gies.fao.org/designated-ports/view/f38a49cb-0b2b-4d7a-bfbb-4ed98da1e33d,–,France,250,FR,FRA,France,Nantes - Saint-Nazaire,–,–,–,–,–,–,–,–,–
https://psma-gies.fao.org/designated-ports/view/a42708f8-bf5a-4656-ba5e-7b76ef41844c,–,New Zealand,554,NZ,NZL,Napier,Napier Port Ltd,Napier Port,–,–,Napier Port Ltd,"PO Box 947 Napier, New Zealand",+64 6 833 4400,+64 6 833 4408,–,info@napierport.co.nz
https://psma-gies.fao.org/designated-ports/view/744cd797-e625-4ab5-982c-47fdce40cbd5,–,Italy,380,IT,ITA,Napoli,Napoli,–,–,–,Direzione Marittima di Napoli,Piazzale Pisacane n. 1 - 80133 Napoli (NA),+39 0812445111,+39 0812445347,–,dm.napoli@pec.mit.gov.it
https://psma-gies.fao.org/designated-ports/view/3a6d614f-e3f6-432c-bd5b-e0731fdf3cca,–,Thailand,764,TH,THA,"300 Bang Nark, Mueang Narathiwat, Narathiwat 96000",Narathiwat Fishing port,–,–,–,Narathiwat Fishery Inspection Office,"Narathiwat Fish Inspection Office, Chehe, Takbai, Narathiwat",+66 73582157,+66 73582157,–,narainspectiion@gmail.com
https://psma-gies.fao.org/designated-ports/view/9ddb8e15-93b0-447d-a948-28ef9c61977e,–,Philippines,608,PH,PHL,"NORTH BAY BLVD., NAVOTAS, METRO MANILA",NAVOTAS FISH PORT COMPLEX (NFPC),–,–,–,PHILIPPINE FISHERIES DEVELOPMENT AUTHORITY,"PCA Annex Building, Elliptical Road, Diliman, Quezon City",+63 82811395,+63 82812137,–,opm_nfpc@pfda.gov.ph
https://psma-gies.fao.org/designated-ports/view/ac3d8e5b-ac13-4c9f-baeb-421ceb03d568,–,Greece,300,GR,GRC,THESSALONIKI (NEA MICHANIONA),NEA MICHANIONA,–,–,–,–,–,–,–,–,–
https://psma-gies.fao.org/designated-ports/view/49866a3a-2156-4a90-b625-24457769d8a1,–,Ecuador,218,EC,ECU,GUAYAQUIL,NEGOCIOS INDUSTRIALES REAL N.I.R.S.A. S.A,NIRSA,S2°43'17'',W80°14'37'',ING. LEONARDO AGUIRRE PINCAY / GERENTE DE FLOTA,PLANTA NIRSA POSORJA - MALECÓN CARLOS BAIDAL Y AV. CARLOS J. CARVAJAL,+593 4 2066255,–,–,laquirre@nirsa.com
https://psma-gies.fao.org/designated-ports/view/aa0f29cc-e307-4696-a4af-7f02e38e0f89,–,Japan,392,JP,JPN,Hokkaido,Nemuro,–,–,–,–,–,–,–,–,–
https://psma-gies.fao.org/designated-ports/view/a874bf01-e164-4777-8fd7-07b431152ac0,–,Germany,276,DE,DEU,Sassnitz/Neu Mukran,Neu Mukran,–,N54°30'7'',E13°38'6'',"Landesamt für Landwirtschaft, Lebensmittelsicherheit und Fischerei MV, Abt. Fischerei",Thierfelder Straße 18 18059 Rostock Germany,+49 38140350,+49 3814001510,–,poststelle@lallf.mvnet.de
https://psma-gies.fao.org/designated-ports/view/7aa62009-cd3e-451a-a0d4-3726d911aeaf,–,Australia,36,AU,AUS,"Newcastle, NSW",Newcastle Harbour,Port of Newcastle,–,–,Port Authority of New South Wales,"Level 4, 251 Wharf Road  NEWCASTLE  NSW 2300",+61 2 4908 8200,–,–,info@portofnewcastle.com.au
https://psma-gies.fao.org/designated-ports/view/103f373e-26e4-4092-a8f1-426de31a8ee0,–,United Kingdom,826,GB,GBR,Newlyn,Newlyn,–,–,–,Newlyn Pier & Harbour Commissioners,Harbour Office TR18 5HW,+44 01736 362523,–,–,info@newlynharbour.com
https://psma-gies.fao.org/designated-ports/view/d6ecad82-1428-4436-9ad0-d9dee6081c5a,–,Viet Nam,704,VN,VNM,Nghe An,Nghe An sea port/Cua Lo Harbor,Cảng biển Nghệ An/Bến cảng Cửa Lò,–,–,–,"Block 1, Nghi Tan, Cua Lo, Nghe An",+84 238.3951776,+84 238.3951768,–,cualoport.opscenter@gmail.com
https://psma-gies.fao.org/designated-ports/view/2c6029f5-e40a-49d9-ae4a-d0923d990dbb,–,Myanmar,104,MM,MMR,Yangon,Ngwe Pinlae Port,Ngwe Pinlae Jetty,N16°55'34'',E96°4'19'',Department of Fisheries,"No 76, Kannar Street, Ngwe Pinlae Industrial Zone, Hlaing Tharyar Township, Yangon",+95 9448008075,–,–,fmdnpt@gmail.com
https://psma-gies.fao.org/designated-ports/view/33e2222d-383e-446f-bcde-14d86c853fed,–,Japan,392,JP,JPN,Nigata,Nigata,–,–,–,–,–,–,–,–,–
https://psma-gies.fao.org/designated-ports/view/4ec97315-8197-4d75-b075-8b1eb6f111bc,–,Indonesia,360,ID,IDN,Jakarta,Nizam Zachman Fishing Port,Pelabuhan Perikanan Samudera Nizam Zachman Jakarta,S6°5'57'',E106°47'58'',Directorate General of Capture Fisheries,"Jalan Tuna Raya No. 1 Muara Baru Ujung, Kelurahan Penjaringan,Kota Jakarta Utara, Prov. DKI Jakarta 14440",+62 216617868,+62 216617868,–,indonesia.psm@kkp.go.id
https://psma-gies.fao.org/designated-ports/view/ac2fd7af-d753-4ba5-853e-8a7d156f6dc6,–,Thailand,764,TH,THA,"71, 71/1-9 Moo 1, Suk Sawat Road, Bang Chak, Phra Pradaeng, Samut Prakan 10130",No. 11B port,–,–,–,Fishery Inspection Regional Center 3 (Bangkok),"Pat-Sa-Du building, Floor 2 , Thai Port, Kwang Khlong Toei, Khet Khlong Toei, Bangkok",+66 26718794,+66 26727901,–,psmfishtrade@gmail.com
https://psma-gies.fao.org/designated-ports/view/cf17ad97-8920-4af2-a5f3-288d3ab4c867,–,Thailand,764,TH,THA,"50 Moo 4, Bangchak, Phra Pradaeng, Samut Prakan 10130",No. 7 port,–,–,–,Fishery Inspection Regional Center 3 (Bangkok),"Pat-Sa-Du building, Floor 2 , Thai Port, Kwang Khlong Toei, Khet Khlong Toei, Bangkok",+66 26718794,+66 26727901,–,psmfishtrade@gmail.com
https://psma-gies.fao.org/designated-ports/view/7719e6c3-d1ac-48a2-bd90-a95432caa49d,–,Sweden,752,SE,SWE,5600N 01444E,Nogersund,–,–,–,–,–,–,–,–,–
https://psma-gies.fao.org/designated-ports/view/83b8ee83-f217-4607-9525-563d67ff224d,–,United Kingdom,826,GB,GBR,North Shields,North Shields,Port of Tyne,–,–,Port of Tyne,"Maritime House Tyne Dock, South Shields Tyne and Wear NE34 9PT",+44 0191 455 2671,+44 0191 454 4678,–,melissadh@portoftyne.co.uk
https://psma-gies.fao.org/designated-ports/view/37c2eba6-b459-4e08-af48-2c575b927300,–,Madagascar,450,MG,MDG,Nosy-Be Hell ville,Nosy-Be,Nosy Be,N13°24'47'',E48°21'37'',APMF,"Camp-vert, Avenue de la Libération, Nosy-Be Hell Ville",+261 321125899,261,https://www.apmf.mg,lcrabialahy@yahoo.fr
https://psma-gies.fao.org/designated-ports/view/371fa916-45e5-40e7-8fa6-ee2a4f123179,–,France,250,FR,FRA,Nouvelle-Calédonie,Nouméa,–,–,–,–,–,–,–,–,–
https://psma-gies.fao.org/designated-ports/view/9b8ae07e-ed2e-4ea7-9f9f-d2d9f0589476,–,Cuba,192,CU,CUB,"Φ-21°36' 3""N ʎ- 77°06'12""W",NUEVITAS,–,–,–,A.M.T NUEVITAS,Calle Laura Numero 5 Esquina Reparto Tarafa Nuevitas,–,–,–,amcnuevitas@transnet.cu
https://psma-gies.fao.org/designated-ports/view/a141da83-4c4c-44fc-af9c-e1e01edb6f62,–,Tonga,776,TO,TON,Nukualofa,Nukualofa Port,Nukualofa Port,S0°0'0'',W0°0'0'',Ministry of Marine and Port,"Department of Marine and Port 
Ministry of Infrastructure of Tonga 
Queen Salote Wharf 
Nukuálofa
Tonga",+676 7401500,+676 25440,http://moi.gov.to,support@moi.gov.to
https://psma-gies.fao.org/designated-ports/view/86c98687-ea3e-4aff-828e-e6f7d24ff85c,–,United Kingdom,826,GB,GBR,Oban,Oban,–,–,–,Argyll & Bute Council Caledonian Maritime Assets Ltd,"Caledonian Maritime Assets Ltd Ferry Terminal Oban, Argyll PA34 4LW",+44 01631 566688,–,–,info@obanharbour.scot
https://psma-gies.fao.org/designated-ports/view/6234b331-cbce-4515-9956-920276bc1c03,–,Japan,392,JP,JPN,Iwate,Ofunato,–,–,–,–,–,–,–,–,–
https://psma-gies.fao.org/designated-ports/view/87e92c8b-f957-4914-9b2a-0fa9c1c88d3f,–,Japan,392,JP,JPN,Shizuoka,Oigawa,–,–,–,–,–,–,–,–,–
https://psma-gies.fao.org/designated-ports/view/85075a83-3307-47fc-998a-9bfb5fb27bfe,–,"Korea, Republic of",410,KR,KOR,Okgye,Okgye Port,–,–,–,–,–,–,–,–,–
https://psma-gies.fao.org/designated-ports/view/91ae38c3-14e9-4173-b92b-4205af7a08a6,–,"Korea, Republic of",410,KR,KOR,Okpo,Okpo Port,–,–,–,–,–,–,–,–,–
https://psma-gies.fao.org/designated-ports/view/420f44af-f2dc-45b7-a704-901cc0ba19b9,–,Italy,380,IT,ITA,Olbia,Olbia,–,–,–,Direzione Marittima di Olbia,Viale Isola Bianca n. 8 - 07026 Olbia (SS),+39 078956360,–,–,cpolbia@mit.gov.it
https://psma-gies.fao.org/designated-ports/view/08334d47-d5b9-4793-9310-9062ca5a545a,–,Japan,392,JP,JPN,Fukushima,Onahama,–,–,–,–,–,–,–,–,–
https://psma-gies.fao.org/designated-ports/view/a60c473f-7433-4ef2-906e-33addeaaba14,–,Japan,392,JP,JPN,Hiroshima,Onomichiitozaki,–,–,–,–,–,–,–,–,–
https://psma-gies.fao.org/designated-ports/view/1bf6e65d-f434-41a7-941e-70a5b6cb896a,–,Belgium,56,BE,BEL,OOSTENDE,OOSTENDE,–,–,–,Autonoom gemeentebedrijf haven van OOSTENDE,"AG Port of Oostende Slijkensesteenweg 2 8400 Oostende, Belgium  Auction: Vlaamse visveiling NV Noordzeestraat 201 8380 ZEEBRUGGE, Belgium",+32 59 34 07 11,–,–,info@portofoostende.be
https://psma-gies.fao.org/designated-ports/view/7ea84529-0bce-4baf-9f57-a4c61908dc07,–,Japan,392,JP,JPN,Osaka,Osaka,–,–,–,–,–,–,–,–,–
https://psma-gies.fao.org/designated-ports/view/8e104dc0-c2fb-4e81-b058-5d397da97eac,–,Gabon,266,GA,GAB,Libreville,Owendo,Port d'Owendo,N0°17'30'',E9°30'19'',Office des Ports et Rades du GABON,BP: 1051 Libreville/Gabon,+241 11702730,–,–,–
https://psma-gies.fao.org/designated-ports/view/f0ae170c-e15a-47aa-b705-ba86ed435b60,–,Italy,380,IT,ITA,Palermo,Palermo,–,–,–,Direzione Marittima di Palermo,Francesco Crispi n. 153 - 90133 Palermo (PA),+39 0916043111,–,–,palermo@guardiacostiera.it
https://psma-gies.fao.org/designated-ports/view/d0b0d78e-3ace-4bfe-941c-742298000cb1,–,Spain,724,ES,ESP,BALEARES,PALMA DE MALLORCA (NO PIF),–,N39°34'3'',E38°42'25'',"SUBDIRECCIÓN GENERAL DE CONTROL E INSPECCIÓN  (SECRETARIA GENERAL DE PESCA) MINISTERIO DE AGRICULTURA, PESCA Y ALIMENTACIÓN",Calle Velázquez nº147 28071 - Madrid España,+34 913471949,913471512,–,iuu_slo_esp@mapama.es
https://psma-gies.fao.org/designated-ports/view/ecac2e41-4e85-4d37-8184-5dc1611ff86e,–,France,250,FR,FRA,Polynésie française,Papeete,–,–,–,–,BP 9164  98716 Pirae TAHITI - Polynésie française,–,–,–,–
https://psma-gies.fao.org/designated-ports/view/98963a17-29ca-4d6b-8d63-c523801d7ac2,–,Spain,724,ES,ESP,PAIS VASCO,PASAIA (PASAJES) NO PIF,–,–,–,"SUBDIRECCION GENERAL DE VIGILANCIA PESQUERA Y LUCHA CONTRA LA PESCA ILEGAL - SECRETARIA GENERAL DE PESCA - MINISTERIO DE AGRICULTURA, PESCA Y ALIMENTACION",C/ Velázquez 147 28071 MADRID ESPAÑA,+34 913471049,–,–,iuu_slo_esp@mapa.es
https://psma-gies.fao.org/designated-ports/view/7ea4fdf7-b5a6-4b62-9979-a0328df3d7b5,–,Panama,591,PA,PAN,"PANAMA OESTE, RODMAN",PATSA RODMAN,PATSA RODMAN,N8°57'0'',W79°34'0'',PANAMA MARITIME AUTHORITY   /    AQUATIC RESOURCES AUTHORITY OF PANAMA,"PANAMA OESTE, RODMAN",+507 511-6000,–,–,merp@arap.gob.pa
https://psma-gies.fao.org/designated-ports/view/7c234d63-ccd3-4096-a685-126ee6e1abe6,–,Thailand,764,TH,THA,"Moo 8, Ba na, Mueang Pattani, Pattani 94000",Pattani Fishing port,–,–,–,Pattani Fishery Inspection Office,"Narathiwat Fish Inspection Office, Chehe, Takbai, Narathiwat",+66 73582157,+66 73582157,–,narainspectiion@gmail.com
https://psma-gies.fao.org/designated-ports/view/db8633d4-d814-4c9a-b212-17580179e704,–,Bangladesh,50,BD,BGD,"Kalapara, Patuakhali, Bangladesh",Payra Port,–,–,–,Payra Port Authority,"Payra Port Authority, Kalapara, Patuakhali-8650, Bangladesh",+880 96-10202222,+880 96-10202266,–,payraport@ppa.gov.bd
https://psma-gies.fao.org/designated-ports/view/98b052b6-21c8-4adc-9190-deb6ffca4cdf,–,Portugal,620,PT,PRT,Peniche,Peniche,–,–,–,"Instituto Portuário e dos Transportes Marítimos, IP Delegação do Centro",Porto de Pesca de Peniche 2520 Peniche,–,–,–,–
https://psma-gies.fao.org/designated-ports/view/df77124a-91ba-4ba1-8386-fdc647e14d9c,–,Ecuador,218,EC,ECU,GUAYAQUIL,PESQUERA EL NAVEGANTE S.A. PESNASA,PESNASA,S2°14'57'',W79°52'36'',GONCALVES SAVINOVICH FABRIZIO FRANCISCO,CALLE 51 ESTE Y 6TO PASAJE 147 SE,+593 04 2053018,–,–,cayovaro@hotmail.com
https://psma-gies.fao.org/designated-ports/view/d98a3dc1-c262-4c25-a600-88f8d6114f0b,–,Thailand,764,TH,THA,Phuket Province,Phuket Deep Sea port,–,–,–,Phuket Fishery Inspection Office,"Cargo Phuket International Airport, Tambon Mai Khao,  Thalang District, Phuket, 83110",+66 922234274,+66 76327612,–,pktfishtradeins_2011@hotmail.com
https://psma-gies.fao.org/designated-ports/view/dd0e3e63-8f74-4b72-a17b-33641106d524,–,Thailand,764,TH,THA,Phuket Province,Phuket Fishing port (Phuket Province),–,–,–,Phuket Fishery Inspection Office,"Cargo Phuket International Airport, Tambon Mai Khao,  Thalang District, Phuket, 83110",–,–,–,–
https://psma-gies.fao.org/designated-ports/view/264a14d4-40af-4ffe-b849-26d24f91bf9f,–,Thailand,764,TH,THA,Phuket Province,"Phuket Srithai Co., Ltd port",Phuket Srithai,–,–,Phuket Fishery Inspection Office,"Cargo Phuket International Airport, Tambon Mai Khao,  Thalang District, Phuket, 83110",+66 922234274,+66 76327612,–,pktfishtradeins_2011@hotmail.com
https://psma-gies.fao.org/designated-ports/view/e055384c-ff20-4cdf-9bf0-67ad7ca8e631,–,Thailand,764,TH,THA,"Moo2 Chebilang, Mueang Satun, Satun, Thailand 91000",Pitak Sinchai Shipyard,–,–,–,Fishery Inspection Regional Center 9 (Satun),"Satun Fish Inspection Office, Tammalang, Mueang Satun, Satun 91000",+66 74710620,+66 74710621,–,satun.aaio@gmail.com
https://psma-gies.fao.org/designated-ports/view/ab2359a0-ccd0-4cd5-b817-dada64e813ab,–,Croatia,191,HR,HRV,"43,050; 17,433.",Ploče,Ploče,–,–,–,–,+385 20418989,–,–,Dubrovnik.pomorskipromet@pomorstvo.hr
https://psma-gies.fao.org/designated-ports/view/92e7c91c-dd1c-4115-a0b1-16048aaec092,–,United Kingdom,826,GB,GBR,Plymouth,Plymouth Victoria Wharf,–,–,–,–,"Victoria Wharf,  Plymouth, Devon, PL4 0RF",+44 1752 663175,+44 1752 313147,–,stevemarshall@victoriawharf.co.uk
https://psma-gies.fao.org/designated-ports/view/489951cc-27c2-4d35-9ffe-990be9caa94a,–,"Korea, Republic of",410,KR,KOR,Pohang,Pohang Port,–,–,–,–,–,–,–,–,–
https://psma-gies.fao.org/designated-ports/view/07b1cc16-1558-4588-8f72-9f9e0a0780b4,–,Portugal,620,PT,PRT,Ponta Delgada,Ponta Delgada,–,–,–,Direção-Geral dos Portos de São Miguel e Santa Maria,"Rua Teófilo Braga, 1 9500-247 Ponta Delgada",–,–,–,–
https://psma-gies.fao.org/designated-ports/view/51eeefac-b1cf-4c44-9845-dc4fa2a5384a,–,Australia,36,AU,AUS,Port Adelaide,Port Adelaide,–,S34°51'0'',E138°30'0'',Flinders Ports,"296 St Vincent Street, Port Adelaide South Australia, 5015",+61 8 8447 0611,+61 8 8447 0606,–,–
https://psma-gies.fao.org/designated-ports/view/c08789b9-2812-4a80-b464-614ca78e40b8,–,Côte d'Ivoire,384,CI,CIV,ABIDJAN,PORT AUTONOME D'ABIDJAN,–,–,–,DIRECTION GÉNÉRALE DU PORT AUTONOME D'ABIDJAN,PORT AUTONOME D'ABIDJAN Côte d’Ivoire BP V85 Abidjan Côte d'Ivoire,+225 27 21 23 81 28,+225 (225) 27 21 23 86 97,–,–
https://psma-gies.fao.org/designated-ports/view/bee23426-94af-4ad4-b62a-41065dd70bac,–,Guinea,324,GN,GIN,Coankry,Port Autonome de Conakry PAC,–,N9°31'4'',W13°42'50'',–,"Corniche Nord, Almamya Commune de Kaloum, CKY BP: 805, Conakry, République de Guinée",+224 655 80 00 80,–,–,info@portconakry.com
https://psma-gies.fao.org/designated-ports/view/da6137a2-22bd-4991-a8ce-2336a8668efa,–,Benin,204,BJ,BEN,Cotonou,Port Autonome de Cotonou,–,N6°21'1'',E2°25'10'',Joris THYS; Directeur Général du Port Autonome de Cotonou,Port Autonome de Cotonou Boulevard de la Marina 01 BP 927 Cotonou Bénin,+229 21315280,–,–,contact@pac.bj
https://psma-gies.fao.org/designated-ports/view/64d6546b-4af9-41b8-bc18-e8eda0cea29d,–,Togo,768,TG,TGO,06°08 N et 01°17 E,Port Autonome de Lomé (PAL),–,–,–,Ministère des infrastructures et des transports (MIT),"Port Autonome de Lomé, BP 1225, LOME, TOGO",+228 22 23 77 00/22 23 77 77/22 23 78 00/22 27 47 42/80001818/80000018,+228 22 22 27 26/22 27 02 48,–,togoport@togoport.tg
https://psma-gies.fao.org/designated-ports/view/ed54f104-ecf5-4805-92e1-731f50bc4327,–,Côte d'Ivoire,384,CI,CIV,SAN PEDRO,PORT AUTONOME DE SAN PEDRO,–,–,–,DIRECTION GENERAL DU PORT AUTONOME DE SAN PEDRO,BP 339 & 340 San Pedro pasp@pasp.ci,+225 27 34 71 72 00,+225 27 34 71 72 15,–,pasp@pasp.ci
https://psma-gies.fao.org/designated-ports/view/5b34212e-6ce3-4232-9679-afee998ee1da,–,Australia,36,AU,AUS,"Botany Bay, NSW",Port Botany,–,–,–,Port authority of NSW,Port Botany,+61 02 9296 4999,–,–,enquiries@nswports.com.au
https://psma-gies.fao.org/designated-ports/view/3fb6f668-421b-4507-aaaa-6b94d620f89b,–,France,250,FR,FRA,France (Guadeloupe),Port de Jarry,–,–,–,–,–,–,–,–,–
https://psma-gies.fao.org/designated-ports/view/f38aec57-14ea-4d3c-90da-c35f47102df7,–,France,250,FR,FRA,"France (Guadeloupe, commune de Gourbeyre)",Port de Marina de Rivière-Sens,–,–,–,–,–,–,–,–,–
https://psma-gies.fao.org/designated-ports/view/cea9fec2-4a47-497d-be0c-2ecc3a1b82d3,–,Gabon,266,GA,GAB,Port-Gentil,Port de Port-Gentil,Port de Port-Gentil,S0°42'43'',E8°47'11'',Office des Ports et Rades du Gabon,BP:043 Port-Gentil/Gabon,+241 11555303,–,–,–
https://psma-gies.fao.org/designated-ports/view/4f4b729e-da0b-4815-9872-ac1aeb30198a,–,Senegal,686,SN,SEN,Dakar,"Port de pêche, Mole 10",–,–,–,–,–,+221 338602465,–,–,surpeche@hotmail.com
https://psma-gies.fao.org/designated-ports/view/aa15230d-65bc-4536-acd2-3f7d27860d18,–,France,250,FR,FRA,France (Guyane),Port du Larivot (Guyane),–,–,–,–,–,–,–,–,–
https://psma-gies.fao.org/designated-ports/view/a76717b4-e927-4c02-bc87-a8b7dbe248e3,–,Australia,36,AU,AUS,Port Giles,Port Giles,–,S35°1'59'',E137°46'0'',Flinders Ports,–,+61 8 8447 0611,+61 8 8447 0606,–,–
https://psma-gies.fao.org/designated-ports/view/9d79d6c1-4a9c-4e1b-8c28-ee6b42172e22,–,Canada,124,CA,CAN,"50.7124° N, 127.4604° W","Port Hardy, BC",–,–,–,–,–,–,–,–,–
https://psma-gies.fao.org/designated-ports/view/3a2dd204-8539-4dd8-9481-c092fb0e18e4,–,Australia,36,AU,AUS,Woolongong,Port Kembla,–,S34°5'0'',E150°9'0'',Port Authority of New South Wales,https://www.nswports.com.au/ports-and-facilities/port-kembla/,+61 02 9296 4999,–,–,enquiries@portauthoritynsw.com.au
https://psma-gies.fao.org/designated-ports/view/a6bf0e00-6f4d-4f85-8640-e0274537f646,–,Australia,36,AU,AUS,Port Latta,Port Latta,–,–,–,Wilhelmsen Ships Service Pty Ltd,P.O Box 311  George Town  Tasmania 7253 Australia,+61 3 6382 4088,+61 3 6382 4099,–,wss.bellbay@wilhelmsen.com
https://psma-gies.fao.org/designated-ports/view/71eaa809-7edc-4149-bd86-b35944416c11,–,Mauritius,480,MU,MUS,Port Louis,Port Louis  - Mauritius,–,N20°11'35'',E57°49'23'',Mauritius Port Authority,Mer Rouge  Port Louis  Republic of Mauritius,+230 206 5400,+230 240 0856,–,info@mauport.com
https://psma-gies.fao.org/designated-ports/view/8670d533-4031-44c2-afb6-bf15fff1d381,–,Papua New Guinea,598,PG,PNG,PORT MORESBY,PORT MORESBY,PORT MORESBY,S9°26'6'',E147°8'3'',PNG PORTS CORPORATION LIMITED,"P. O. BOX 2016
PORT MORESBY
NATIONAL CAPITAL DISTRICT
PAPUA NEW GUINEA",+675 3090444,+675 3090461,www.fisheries.gov.pg,nfa@fisheries.gov.pg
https://psma-gies.fao.org/designated-ports/view/e597c14d-e9d7-4d3b-b978-61f0975a9dcc,–,New Zealand,554,NZ,NZL,Nelson,Port Nelson,Port Nelson,–,–,General Contact Port Nelson Limited,Port Nelson Limited 8 Vickerman Street Port Nelson PO Box 844 Nelson 7040 New Zealand,+64 3 548 2099,+64 3 546 9015,–,nfo@portnelson.co.nz
https://psma-gies.fao.org/designated-ports/view/77876a85-2232-4862-8b74-41abc9292f83,–,Iceland,352,IS,ISL,Akranes,Port of Akranes,–,N64°18'51'',W22°4'53'',Associated Icelandic Ports (Faxaflóahafnir),"Tryggvagata 17, 101 Reykjavík",+354 5258900,+354 5258990,–,hofnin@faxaports.is
https://psma-gies.fao.org/designated-ports/view/de2cf79e-7981-4a8c-ae60-db55f78e718f,–,Iceland,352,IS,ISL,Akureyri,Port of Akureyri,–,N65°41'27'',W18°5'20'',Hafnasamlag Norðurlands,"Fiskitangi, 600 Akureyri",+354 4604200,+354 4604209,–,port@port.is
https://psma-gies.fao.org/designated-ports/view/e731e9ff-5b7e-40ff-93ce-eaf5d3deb927,–,Australia,36,AU,AUS,Ardrossan,Port of Ardrossan,–,S34°26'13'',E137°55'0'',ABB Grain / Flinders Ports,–,+61 8 8447 0611,+61 8 8447 0606,–,–
https://psma-gies.fao.org/designated-ports/view/2c1c2564-c504-4eb7-804b-5c4e519313b2,–,United States of America,840,US,USA,"Astoria, Oregon",Port of Astoria,–,N46°11'18'',W123°48'36'',–,–,–,–,https://www.portofastoria.com/,–
https://psma-gies.fao.org/designated-ports/view/8a0406b7-aa6e-47f6-aa69-cfb18e258404,–,United States of America,840,US,USA,"Bellingham, Washington",Port of Bellingham,–,N48°44'0'',W122°30'0'',–,–,–,–,https://www.portofbellingham.com/889/Maritime,–
https://psma-gies.fao.org/designated-ports/view/57b51a7f-2550-47d3-8c77-07a640d79112,–,Indonesia,360,ID,IDN,Benoa - Bali,Port of Benoa,Pelabuhan Kelas II Benoa,S8°44'40'',E115°12'38'',Directorate General of Sea Transportation,Jl. Raya Pelabuhan Benoa Denpasar - Bali,+62 361 720225,+62 361 721122,–,indonesia.psm@kkp.go.id
https://psma-gies.fao.org/designated-ports/view/7610309a-e6c7-45a1-846a-bbafaa270846,–,Iceland,352,IS,ISL,Bolungarvík,Port of Bolungarvík,–,N66°9'20'',W23°14'24'',Port Authority of Bolungarvík,"Aðalstræti 10-12, 415 Bolungarvík",+354 4507000,–,–,bolungarvik@bolungarvik.is
https://psma-gies.fao.org/designated-ports/view/5245bc26-9ee4-4c2a-a04f-1c1750b3572b,–,Australia,36,AU,AUS,Bowen,Port of Bowen,–,–,–,Svitzer,"Office 4, Lot 2, 67 West Street,  Bowen QLD 4805",+61 7 4786 2522,–,–,clinton.mason@svitzer.com
https://psma-gies.fao.org/designated-ports/view/3f56c031-0afc-4ad4-960e-8eec0bd7cb3b,–,Australia,36,AU,AUS,Brisbane,Port of Brisbane,–,–,–,Port of Brisbane Pty Ltd,18 Howard Smith Drive  PORT OF BRISBANE QLD 4178,+61 7 3258 4609,+61 7 3258 4623,–,info@portbris.com.au
https://psma-gies.fao.org/designated-ports/view/54a28267-a50c-4311-9095-b2899c29d74c,–,Australia,36,AU,AUS,Broome,Port of Broome,–,S17°58'0'',E122°13'59'',Kimberley Ports Authority,"Lot 549 Port Drive, BROOME WA 6725",+61 08 9194 3100,+61 8 9194 3188,–,operations@kimberleyports.wa.gov.au
https://psma-gies.fao.org/designated-ports/view/9618f2af-3427-467c-b2f6-da08d18b2ed4,–,Australia,36,AU,AUS,Bundaberg,Port of Bundaberg,–,–,–,Gladstone Ports Corporation (GPC),45 Wharf Drive Burnett Heads QLD 4670,+61 74130 2200 / 741302222,+61 741594655,–,pascoej@gpcl.com.au
https://psma-gies.fao.org/designated-ports/view/9d369c0a-66c7-4462-90eb-6c288ff6b299,–,Bulgaria,100,BG,BGR,"BURGAS, 42°29'16.00 N   27°28'53.00 E",PORT OF BURGAS,–,N42°29'16'',E27°28'53'',PORT OF BURGAS HEAD OFFICE,"1, Aleksandar Batenberg str.  8000, Burgas  Bulgaria",+359 56  822 222,–,–,headoffice@port-burgas.com
https://psma-gies.fao.org/designated-ports/view/847a7852-bd5e-430d-b897-416a691d1889,–,Australia,36,AU,AUS,Burnie,Port of Burnie,–,S41°3'0'',E145°55'0'',Tasmanian Ports Corporation Pty Ltd (TasPorts),"Port Road, Burnie  PO Box 216  Burnie Tasmania 7320",+61 1300 366 742,–,–,reception@tasports.com.au
https://psma-gies.fao.org/designated-ports/view/774975e1-682b-458c-8b45-af18994a7a32,–,South Africa,710,ZA,ZAF,South Africa,Port of Cape Town,–,–,–,Transnet National Ports Authority,Cape Town Harbour Cape Town,–,–,–,–
https://psma-gies.fao.org/designated-ports/view/b490fc33-e090-4071-bf59-4cde73976122,–,Australia,36,AU,AUS,Christmas Island,Port of Christmas Island,–,S10°24'0'',–,Shire of Christmas Island,"George Fam Centre  2 Murray Road, Christmas Island 6798",+61 (08) 9164 8300,+61 (08) 9164 8304,–,admin@shire.gov.cx
https://psma-gies.fao.org/designated-ports/view/fc320d69-85e3-4704-b877-ea811e656cdb,–,Australia,36,AU,AUS,Cocos (Keeling) Islands,Port of Cocos (Keeling) Islands,–,–,–,Shire of Cocos Keeling Islands,–,+61 (618) 9162 6649 /  (618) 9162 6740,+61 (618) 9162 6668 / (618) 9162 6589,–,–
https://psma-gies.fao.org/designated-ports/view/a99c0caf-7653-4e19-aa51-adc68205be12,–,United States of America,840,US,USA,"Coos Bay, Oregon",Port of Coos Bay,–,N43°25'45'',W124°13'45'',–,–,–,–,https://www.portofcoosbay.com/,–
https://psma-gies.fao.org/designated-ports/view/1ffc8913-2ca6-4ad6-9dc9-59a622f83ace,–,Iceland,352,IS,ISL,Dalvík,Port of Dalvík,–,N65°58'24'',W18°31'36'',Port Authority of Dalvík,"Ráðhús, 620 Dalvík",+354 4604900,+354 4604901,–,dalvikurbyggd@dalvikurbyggd.is
https://psma-gies.fao.org/designated-ports/view/0ae22051-c759-427f-bb2b-5a4714de6935,–,Australia,36,AU,AUS,Dampier,Port of Dampier,–,S20°40'0'',E116°42'0'',Pilbara Ports Authority,Mof Road  Burrup Peninsula  DAMPIER WA 6713,+61 8 9159 6555,+61 8 9159 6557,–,feedback@pilbaraports.com.au
https://psma-gies.fao.org/designated-ports/view/bb1df4a0-a046-4a56-a723-54be7ded2773,–,Australia,36,AU,AUS,Devonport,Port of Devonport,–,S41°9'0'',E146°22'0'',Tasmanian Ports Corporation Pty Ltd (TasPorts),"48 Formby Road, Devonport  PO Box 478  Devonport, Tasmania 7310",+61 1300 366 742,–,–,reception@tasports.com.au
https://psma-gies.fao.org/designated-ports/view/c6d2244c-2e29-4016-8dde-c4268a73e171,–,Oman,512,OM,OMN,SOUTHEAST OF OMAN,PORT OF DUQM,–,–,–,PORT OF DUQM COMPANY SAOC,"P.O.BOX 88,  P.C 700 DUQM SULTANATE OF OMAN",+968 25468666,–,–,info@portofduqm.om
https://psma-gies.fao.org/designated-ports/view/f7d2ff03-e2c1-4aea-bc6a-6f94c8bc6cde,–,South Africa,710,ZA,ZAF,South Africa,Port of Durban,–,–,–,Transnet National Ports Authority,–,–,–,–,–
https://psma-gies.fao.org/designated-ports/view/d6743870-73d7-484b-8e46-faa19b78fd73,–,Australia,36,AU,AUS,Eden,Port of Eden,–,S37°6'6'',E149°55'42'',Port Authority of New South Wales,–,+61 02 9296 4999,–,–,enquiries@portauthoritynsw.com.au
https://psma-gies.fao.org/designated-ports/view/3614c6c0-5b85-45fd-a125-b1599fdaad53,–,Iceland,352,IS,ISL,Eskifjörður,Port of Eskifjörður,–,N65°4'17'',W14°1'20'',Port Authority of Fjarðabyggðarhafnir,"Hafnargata 2, 730 Fjarðabyggð",+354 4709000,+354 4761173,–,fjardabyggd@fjardabyggd.is
https://psma-gies.fao.org/designated-ports/view/5a7f1b63-0d6b-4dad-90f9-b6359cc93f8d,–,Australia,36,AU,AUS,Esperance,Port of Esperance,–,S33°52'0'',E121°52'59'',Southern Ports Authority,The Esplanade  Esperance WA 6450,+61 8 9072 3333,–,–,enquiries.esperance@southernports.com.au
https://psma-gies.fao.org/designated-ports/view/450661ac-219b-4032-a51c-12967f4b8395,–,Iceland,352,IS,ISL,Fáskrúðsfjörður,Port of Fáskrúðsfjörður,–,N64°55'47'',W14°0'50'',Port Authority of Fjarðabyggðarhafnir,"Hafnargata 2, 730 Fjarðabyggð",+354 4709000,–,–,fjardabyggd@fjardabyggd.is
https://psma-gies.fao.org/designated-ports/view/ac9fc1a0-704f-469d-8d05-e914429ddc48,–,Australia,36,AU,AUS,Gladstone,Port of Gladstone,–,–,–,Gladstone Ports Corporation,"40 Goondoon Street, Gladstone QLD 4680",+61 7-4976 1333,+61 7-4972 3045,–,RHMGladstone@msq.qld.gov.au
https://psma-gies.fao.org/designated-ports/view/142dbff0-5a82-4745-a4f6-1bf1c336c006,–,Iceland,352,IS,ISL,Grindavík,Port of Grindavík,–,N63°50'4'',W22°25'2'',Port Authority of Grindavík,Víkurbraut 62 - 240 Grindavík,+354 4201100,+354 4201111,–,grindavik@grindavik.is
https://psma-gies.fao.org/designated-ports/view/7e512040-5bd1-476a-a984-a9daebacc155,–,Iceland,352,IS,ISL,Grundarfjörður,Port of Grundarfjörður,–,N64°55'6'',W23°15'1'',Port Authority of Grundarfjörður,Borgarbraut 16 - 350 Grundarfirði,+354 4308500,–,–,grundarfjordur@grundarfjordur.is
https://psma-gies.fao.org/designated-ports/view/ba440f83-2d32-4dea-ba4d-d6862726db1b,–,Iceland,352,IS,ISL,Hafnarfjörður,Port of Hafnarfjörður,–,N64°4'8'',W21°58'28'',Port Authority of Hafnarfjörður,Óseyrarbraut 4 - 220 Hafnarfjörður,+354 4142300,+354 4142301,–,hofnin@hafnarfjordur.is
https://psma-gies.fao.org/designated-ports/view/dcb0eb95-2571-4249-b96b-68208f362672,–,Australia,36,AU,AUS,"Hastings, Westernport",Port of Hastings,–,S38°27'45'',E145°20'27'',Port of Hastings Development Authority,Stony Point Depot  1d Stony Point Road  Crib Point Victoria 3919 AUSTRALIA,+61 3 5979 5500,+61 3 5979 5555,–,enquiries@portofhastings.com
https://psma-gies.fao.org/designated-ports/view/f507dc32-97da-4632-a684-8e33de5a4af8,–,Australia,36,AU,AUS,Hay Point - Mackay,Port of Hay Point,–,–,–,North Queensland Bulk Ports Corporation,44 Nelson Street Mackay Qld 4740,+61 7 4944 3700,+61 7 4944 3790,–,mackaymarine@msq.qld.gov.au
https://psma-gies.fao.org/designated-ports/view/c11e6e08-b51f-4f59-afac-4031983f0e41,–,Iceland,352,IS,ISL,Helguvík,Port of Helguvík,–,N64°1'23'',W22°33'25'',Port Authority of Reykjaneshafnir,"Víkurbraut 11, 230 Reykjanesbær",+354 4203220,+354 4203229,–,reykjaneshofn@reykjaneshofn.is
https://psma-gies.fao.org/designated-ports/view/d4396fed-2863-450d-aaf5-136f6cd7b53b,–,Finland,246,FI,FIN,Helsinki,Port of Helsinki,Helsingin Satama,–,–,–,"1) Port of Helsinki Ltd, Olympiaranta 3, FI-00140 HELSINKI, FINLAND  2) Centre for Economic Development, Transport and the Environment of Southwest Finland, P O Box 236, 20101 TURKU",+358 9 310 1621,–,–,lis.uusimaa@ely-keskus.fi
https://psma-gies.fao.org/designated-ports/view/cec8616a-b36f-4077-8af3-ecb1e621fdf8,–,Australia,36,AU,AUS,Hobart,Port of Hobart,–,S42°52'0'',E147°18'0'',Tasmanian Ports Corporation Pty Ltd (TasPorts),–,+61 1300 366 742,–,–,reception@tasports.com.au
https://psma-gies.fao.org/designated-ports/view/cdd17ac8-3607-4a87-80fe-6075f4b6e8db,–,Iceland,352,IS,ISL,Höfn í Hornafirði,Port of Hornafjörður,–,N64°15'13'',W15°12'13'',Port Authority of Hornafjörður,"Hafnarbraut 27, 780 Höfn",+354 4708000,+354 4708001,–,afgreidsla@hornafjordur.is
https://psma-gies.fao.org/designated-ports/view/7525c41c-6f91-452b-b587-8130bf35a40f,–,Iceland,352,IS,ISL,Húsavík,Port of Húsavík,–,N66°2'42'',W17°21'5'',Hafnir Norðurþings,"Ketilsbraut 7-9, 640 Húsavík",+354 4646100,+354 4646101,–,port@nordurthing.is
https://psma-gies.fao.org/designated-ports/view/13a8d083-b0b2-4bba-b9eb-4fb9b82cf9a5,–,Iceland,352,IS,ISL,Keflavík,Port of Keflavík,–,N64°0'10'',W22°33'4'',Port Authority of Reykjaneshafnir,"Víkurbraut 11, 230 Reykjanesbær",+354 4203220,+354 4203229,–,reykjaneshofn@reykjaneshofn.is
https://psma-gies.fao.org/designated-ports/view/f161565c-f352-48b8-9b5a-7362cb20b5a4,–,Australia,36,AU,AUS,Bell Bay,Port of Launceston (Bell Bay),–,–,–,Tasmanian Ports Corporation Pty Ltd (TasPorts),"90-110 Willis Street, Launceston  PO Box 1060, Launceston, Tasmania 7250",+61 03 6380 3013,–,–,reception@tasports.com.au
https://psma-gies.fao.org/designated-ports/view/fd66f292-95d3-42c5-b997-b4be91f5de94,–,Australia,36,AU,AUS,Lucinda,Port of Lucinda,–,–,–,Port of Townsville Limited,"Port of Townsville Limited  PO Box 1031, Townsville  QLD  4810",+61 7 4781 1683,–,–,duty@townsville-port.com.au
https://psma-gies.fao.org/designated-ports/view/251cd4c1-5e85-443c-b014-db936911730d,–,Namibia,516,NA,NAM,Namibia,Port of Lüderitz,–,–,–,National Port Authority (Namport),Hafen Street Lüderitz PO Box 836,+264 63 2002017/2002028,–,–,customercare.luderitz@namport.com
https://psma-gies.fao.org/designated-ports/view/cc5ebe93-9e15-44de-8e6a-8cf65d2c2320,–,Australia,36,AU,AUS,Mackay,Port of Mackay,–,–,–,North Queensland Bulk Ports,–,+61 7 4955 8171,–,–,portoperations@nqbp.com.au
https://psma-gies.fao.org/designated-ports/view/0621405f-3dc8-4ead-aef7-e82ae934daaa,–,Australia,36,AU,AUS,Melbourne,Port of Melbourne,–,S37°50'48'',E144°58'0'',Port of Melbourne (PoM) Group,–,+61 1300 857 662,–,–,Community.Relations@portofmelbourne.com
https://psma-gies.fao.org/designated-ports/view/f1a664fb-c803-4b19-b531-33e1e18df33d,–,Australia,36,AU,AUS,Milner Bay - Alyangula (Groote Eylandt),Port of Milner Bay,–,–,–,Groote Eylandt Mining Co,"Rowell Highway Alyangula, NT 0885 Australia",+61 08 8987 4444  / 1800 870 766,–,–,info@gemco.com.au
https://psma-gies.fao.org/designated-ports/view/303c4ecf-d817-45f4-a656-d1028fa3b77d,–,Australia,36,AU,AUS,Mourilyan,Port of Mourilyan,–,–,–,Ports North,PO Box 594 CAIRNS QLD 4870,+61 74052 3888,–,–,enquiries@portsnorth.com.au
https://psma-gies.fao.org/designated-ports/view/670e44b8-91b5-4625-88f8-fab56622611f,–,Iceland,352,IS,ISL,Neskaupstaður,Port of Neskaupstaður,–,N65°8'26'',W13°42'24'',Port Authority of Fjarðabyggðarhafnir,"Hafnargata 2, 730 Fjarðabyggð",+354 4709000,+354 4761173,–,Fjardabyggd@fjardabyggd.is
https://psma-gies.fao.org/designated-ports/view/bce8e492-4189-43d6-9595-984ffb7aa1cf,–,Iceland,352,IS,ISL,Njarðvík,Port of Njarðvík,–,N63°59'10'',W22°32'13'',Port Authority of Reykjaneshafnir,"Víkurbraut 11, 230 Reykjanesbær",+354 4203220,+354 4203229,–,reykjaneshofn@reykjaneshofn.is
https://psma-gies.fao.org/designated-ports/view/85d3c6c8-2191-11ef-86b6-00505695b047,–,United States of America,840,US,USA,"Pago Pago, American Samoa",Port of Pago Pago,–,N14°16'0'',W170°42'0'',–,–,–,–,https://portadministration.as.gov/seaports/port-of-pago-pago,–
https://psma-gies.fao.org/designated-ports/view/205a1b35-bdd3-4eb3-84d2-615b4c267f64,–,Iceland,352,IS,ISL,Patreksfjörður,Port of Patreksfjörður,–,N65°35'52'',W24°0'21'',Port Authority of Vesturbyggð,"Aðalstræti 63, 450 Patreksfjörður",+354 4502300,–,–,vesturbyggd@vesturbyggd.is
https://psma-gies.fao.org/designated-ports/view/904cf842-4058-47cb-b64c-b13a60b0a60f,–,United Kingdom,826,GB,GBR,Peterhead,Port Of Peterhead,–,–,–,Peterhead Port Authority,Harbour Office West Pier Peterhead AB42 1DW,+44 1779 483600,+44 1779 475715,–,info@peterheadport.co.uk
https://psma-gies.fao.org/designated-ports/view/e5d54f7d-c122-4a4c-826d-93e9151715b2,–,Australia,36,AU,AUS,Port Bonython,Port of Port Bonython,–,S32°59'40'',E137°46'4'',Santos ltd.,Port Bonython,+61 8 8116 5000,+61 8 8116 5050,–,–
https://psma-gies.fao.org/designated-ports/view/bbc83034-5b0a-4426-8173-b13956768ff8,–,South Africa,710,ZA,ZAF,South Africa,Port of Port Elizabeth,–,–,–,Transnet National Ports Authority,–,–,–,–,–
https://psma-gies.fao.org/designated-ports/view/066f570b-4047-49a1-9abe-15502ea42931,–,Australia,36,AU,AUS,Port Hedland,Port of Port Hedland,–,S20°19'0'',E118°34'0'',Pilbara Ports Authority,The Esplanade  PORT HEDLAND WA 6721,+61 8 9173 9000,+61 8 9173 9060,–,feedback@pilbaraports.com.au
https://psma-gies.fao.org/designated-ports/view/5016f15f-21f0-45f5-9684-b51469571b3c,–,Australia,36,AU,AUS,Port Lincoln,Port of Port Lincoln,–,S34°43'59'',E135°52'0'',Flinders Ports,–,+61 8 8447 0611,+61 8 8447 0606,–,–
https://psma-gies.fao.org/designated-ports/view/72d456e7-9444-4765-8555-716229351ec7,–,Australia,36,AU,AUS,Portland,Port of portland,–,S38°19'59'',E141°37'0'',Port of Portland Pty,23-25 Kunara Crescent PORTLAND VIC 3305,+61 3 5525 0900,+61 3 5521 7488,–,shipping@portofportland.com.au
https://psma-gies.fao.org/designated-ports/view/5ea80081-27c3-404c-8fd6-430ad71e1586,–,Iceland,352,IS,ISL,Reykjavík,Port of Reykjavík,–,N64°8'54'',W21°50'26'',Associated Icelandic Ports (Faxaflóahafnir),Tryggvagata 17 - 101 Reykjavík,+354 5258900,+354 5258990,–,hofnin@faxafloahafnir.is
https://psma-gies.fao.org/designated-ports/view/144c7cfe-034b-4dd9-a735-c49e2fe76d1b,–,Iceland,352,IS,ISL,Reyðarfjörður,Port of Reyðarfjörður,–,N65°1'30'',W14°13'4'',Port Authority of Fjarðarbyggðarhafnir,Hafnargata 2 - 730 Fjarðarbyggð,+354 4709000,–,–,fjardabyggd@fjardabyggd.is
https://psma-gies.fao.org/designated-ports/view/3f69dc8b-8936-4924-a1db-b6ef111d3f6b,–,Iceland,352,IS,ISL,Rif,Port of Rif,–,N64°55'7'',W23°48'9'',Port Authority of Snæfellsbær,Klettsbúð 4 - 360 Snæfellsbær,+354 4336900,+354 4336901,–,snb@snb.is
https://psma-gies.fao.org/designated-ports/view/76a74284-2416-4fdd-b96d-6103bfd44378,–,Australia,36,AU,AUS,Casuarina Island,Port of Rockhampton (Formerly Port Alma),–,–,–,Gladstone Ports Corporation,"Port Alma Road, Port Alma",+61 74934 6931,+61 74934 6928,–,–
https://psma-gies.fao.org/designated-ports/view/f41f6dd2-2d5f-4502-9378-0bfd229ea1ac,–,Oman,512,OM,OMN,SOUTH OF OMAN,PORT OF SALALAH,–,–,–,Salalah Port Services Company (S.A.O.G.),P.O. Box 369 Postal Code 211 Salalah Sultanate of Oman,+968 23220000,+968 23219542,–,info@salalahport.com
https://psma-gies.fao.org/designated-ports/view/96c4fbc8-ede6-49e8-99b3-88155f76749e,–,Iceland,352,IS,ISL,Sandgerði,Port of Sandgerði,–,N64°2'17'',W22°42'57'',Port Authority of Sandgerðisbær,"Varðan, Miðnestorg 3 - 245 Sandgerði",+354 4207500,+354 4237809,–,sandgerdi@sandgerdi.is
https://psma-gies.fao.org/designated-ports/view/d291ef59-ea07-41f9-93eb-aed5d252472c,–,Iceland,352,IS,ISL,Sauðárkrókur,Port of Sauðárkrókur,–,N65°45'26'',W19°38'52'',Port Authority of Skagafjarðarhafnir,"Skagfirðingabraut 21, 550 Sauðárkrókur",+354 4556000,+354 4556001,–,skagafjordur@skagafjordur.is
https://psma-gies.fao.org/designated-ports/view/2942c49c-4d9d-498e-b863-139ccb720652,–,Iceland,352,IS,ISL,Seyðisfjörður,Port of Seyðisfjörður,–,–,–,Port Authority of Seyðisfjörður,"Hafnargata 44, 710 Seyðisfjörður",+354 4702300,+354 4721588,–,sfk@sfk.is
https://psma-gies.fao.org/designated-ports/view/35f6e737-61ed-4191-82ac-d414bae87a22,–,Iceland,352,IS,ISL,Siglufjörður,Port of Siglufjörður,–,N66°8'48'',W18°53'52'',Port Authority of Fjallabyggð,"Gránugata 24, 580 Siglufjörður",+354 4649100,+354 4649101,–,fjallabyggd@fjallabyggd.is
https://psma-gies.fao.org/designated-ports/view/f2304183-e556-460f-8fb1-73697f8e0117,–,Trinidad and Tobago,780,TT,TTO,Port of Spain,Port of Spain,–,N10°39'11'',W61°31'30'',–,–,+1 868 223 4351,+1 868 627 9886,–,ralfred@mowt.gov.tt
https://psma-gies.fao.org/designated-ports/view/ea32f28b-a07e-4576-aeba-37a5886197a2,–,Iceland,352,IS,ISL,Stykkishólmur,Port of Stykkishólmur,–,N65°4'43'',W22°43'29'',Port Authority of Stykkishólmsbæjar,"Hafnargata 3, 340 Stykkishólmur",+354 4338100,+354 4381705,–,stykkisholmur@stykkisholmur.is
https://psma-gies.fao.org/designated-ports/view/d322063e-8017-47ea-9266-385a2060ba5e,–,New Zealand,554,NZ,NZL,Tauranga,Port of Tauranga Ltd,Tauranga,–,–,Port of Tauranga Ltd,Private Bag 12504 Tauranga Mail Centre Tauranga 3143 New Zealand,+64 7 572 8899,+64 7 572 8800,–,reception@port-tauranga.co.nz
https://psma-gies.fao.org/designated-ports/view/14ad9bee-daef-449a-8acb-27de53474273,–,Ghana,288,GH,GHA,TEMA,PORT OF TEMA,SAME AS ABOVE,N5°37'48'',–,GHANA PORTS AND HARBOURS AUTHORITY,P.O.BOX CO 488 TEMA-GHANA,+233 0303-204385-8,+233 0303-204136,–,tema@ghanaports.net
https://psma-gies.fao.org/designated-ports/view/50f2e0c6-05bc-46da-8c62-6ad12d2bfd0c,–,Australia,36,AU,AUS,Thevenard (Ceduna),Port of Thevenard,–,–,–,Flinders Ports,–,+61 8 8625 2077.,–,–,flindersports@flindersports.com.au
https://psma-gies.fao.org/designated-ports/view/124bb179-5173-4d22-adb6-1c5bc74c3a8d,–,Australia,36,AU,AUS,Thursday Island,Port of Thursday Island (Port Kennedy),–,–,–,Ports North,1 Spence Street (PO Box 594) Cairns QLD 4870,+61 7 4052 3888,+61 7 4052 3853,–,enquiries@portsnorth.com.au
https://psma-gies.fao.org/designated-ports/view/0353ae54-a213-4709-aa19-adee70c37a73,–,Australia,36,AU,AUS,Townsville,Port of Townsville,–,–,–,Port of Townsville Limited,"Port of Townsville Limited  PO Box 1031, Townsville  QLD  4810",+61 7 4781 1683,–,–,duty@townsvilleport.com.au
https://psma-gies.fao.org/designated-ports/view/437abf70-f3d5-4323-94ee-2c4d255a3925,–,Bulgaria,100,BG,BGR,"VARNA, 43°11'50.00 N   27°54'55.00 E",PORT OF VARNA,–,N43°11'50'',E27°54'55'',PORT OF VARNA HEAD OFFICE,"1 sq. SLAVEIKOV, VARNA 9000, BULGARIA",+359 52 69 22 32,+359 52 63 29 53,–,headoffice@port-varna.bg
https://psma-gies.fao.org/designated-ports/view/08c7fe34-633b-4af7-b617-2ceaf7629526,–,Iceland,352,IS,ISL,Vestmannaeyjar,Port of Vestmannaeyjar,–,N63°26'43'',W20°16'28'',Port Authority of Vestmannaeyjar,"Bárustíg 15, 900 Vestmannaeyjar",+354 4882000,+354 4882001,–,postur@vestmannaeyjar.is
https://psma-gies.fao.org/designated-ports/view/f752be76-faa4-422d-9386-9c19e7bea87c,–,Iceland,352,IS,ISL,Vopnafjörður,Port of Vopnafjörður,–,N65°45'22'',W14°49'14'',Port Authority of Vopnafjörður,"Hamrahlíð 15, 690 Vopnafjörður",+354 4731300,+354 4731196,–,skrifstofa@vopnafjardarhreppur.is
https://psma-gies.fao.org/designated-ports/view/dc3e8c94-4cc5-4040-9420-dc7e2f2491ac,–,Australia,36,AU,AUS,Wallaroo,Port of Wallaroo,–,S33°55'59'',E137°37'0'',Flinders Ports,Wallaroo Harbour,+61 8 8447 0611,+61 8 8447 0606,–,–
https://psma-gies.fao.org/designated-ports/view/6d24c0f3-210a-48b4-ab4e-34a8e864c5ba,–,Namibia,516,NA,NAM,Namibia,Port of Walvis Bay,–,–,–,National Port Authority (Namport),"Nr.17, Rikumbi Kandanga Rd PO Box 361 Walvis Bay",+264 64 2082111,+264 64 2082323,–,customercare@namport.com.na
https://psma-gies.fao.org/designated-ports/view/cc59a435-19c9-4b7a-b32e-1e3001a16757,–,Australia,36,AU,AUS,Weipa,Port of Weipa,–,–,–,North Queensland Bulk Ports Corporation,–,+61 7 4955 8171,–,–,portoperations@nqbp.com.au
https://psma-gies.fao.org/designated-ports/view/8b0c16a4-8ee9-4897-8ca6-3967daf5d4a3,–,Australia,36,AU,AUS,Whyalla,Port of Whyalla,–,S33°2'0'',E137°36'0'',Flinders Ports,Whyalla Harbour,+61 8 8447 0611,+61 8 8447 0606,–,–
https://psma-gies.fao.org/designated-ports/view/e61549ac-3260-488b-b249-75c644835b1f,–,Iceland,352,IS,ISL,Ísafjörður,Port of Ísafjörður,–,N66°4'12'',W23°7'26'',Port Authority of Ísafjörður,"Hafnarhúsinu, Ásgeirsbakka, 400 Ísafjörður",+354 4508080,+354 4564523,–,is-isahofn@isafjordur.is
https://psma-gies.fao.org/designated-ports/view/0b9dfd1c-648a-49cc-ad7d-98a67580aba7,–,Iceland,352,IS,ISL,Ólafsfjörður,Port of Ólafsfjörður,–,N66°4'29'',W18°38'54'',Port Authority of Fjallabyggð,"Ólafsvegur 4, 625 Ólafsfirði",+354 4649100,+354 4649101,–,fjallabyggd@fjallabyggd.is
https://psma-gies.fao.org/designated-ports/view/92d81d11-82d6-4a08-a2aa-1e31a798ea4e,–,Iceland,352,IS,ISL,Ólafsvík,Port of Ólafsvík,–,N64°53'48'',W23°42'11'',Port Authority of Snæfellsbær,"Klettsbúð 4, 360 Snæfellsbær",+354 4336900,+354 4336901,–,snb@snb.is
https://psma-gies.fao.org/designated-ports/view/7fad56c2-c998-4271-8017-16b2a81ef698,–,Iceland,352,IS,ISL,Þorlákshöfn,Port of Þorlákshöfn,–,N63°51'37'',W21°22'5'',Port Authority of Þorlákshöfn,"Hafnarbakki 8, 815 Þorlákshöfn",+354 4803602,+354 4833528,–,hofn@olfus.is
https://psma-gies.fao.org/designated-ports/view/49f24fa6-552c-4e19-a035-f184b1301321,–,Iceland,352,IS,ISL,Þórshöfn,Port of Þórshöfn,–,N66°11'46'',W15°20'9'',Port Authority of Langaneshafnir,"Fjarðarvegur 3, 680 Þórshöfn",+354 4681220,+354 4681323,–,sveitarstjori@langanesbyggd.is
https://psma-gies.fao.org/designated-ports/view/b614b645-8695-4f5b-9400-0ebfd51d47d9,–,New Zealand,554,NZ,NZL,Dunedin,Port Otago,Port Otago Ltd,–,–,Port Otago Ltd,"Port Otago Limited PO Box 8, Port Chalmers 9023, New Zealand",+64 3 472 7890,+64 3 472 7891,–,pol@portotago.co.nz
https://psma-gies.fao.org/designated-ports/view/a5632e81-9bc5-493a-846b-8183c7e874cf,–,Australia,36,AU,AUS,Port Pirie,Port Pirie,–,S33°10'0'',E138°1'59'',Flinders Port,Port Pirie Harbour,+61 8 8447 0611,+61 8447 0603,–,portops-adl@flindersports.com.au
https://psma-gies.fao.org/designated-ports/view/15c6a732-062d-4f4b-a84e-ae922744a8bb,–,New Zealand,554,NZ,NZL,New Plymouth,Port Taranaki,Port Taranaki,–,–,Port Taranaki Ltd,Port Taranaki Limited     2-8 Bayly Road     PO Box 348     New Plymouth 4340     New Zealand,+64 6 7510200,+64 6 7510886,–,info@porttaranaki.co.nz
https://psma-gies.fao.org/designated-ports/view/d0e99022-f7d8-470d-8fef-b6da8030ba02,–,Vanuatu,548,VU,VUT,"Port Vila, Efate",Port Vila,Lapetasi,–,–,Ports and habour department,PMB 9046 Port Vila Vanuatu,+678 22339,+678 22475,–,–
https://psma-gies.fao.org/designated-ports/view/8c8ebd01-75e2-4325-b015-e58cee44ba1c,–,Australia,36,AU,AUS,Point Samson,Port Walcott,–,S20°37'0'',E117°10'59'',Pilbara Ports Authority,–,+61 (08) 6217 7112,–,–,–
https://psma-gies.fao.org/designated-ports/view/fa24a770-6408-47e4-88e3-00e9cd7166a4,–,Australia,36,AU,AUS,Yamba,Port Yamba,–,S29°25'0'',E153°22'0'',Port Authority of New South Wales,–,+61 02 9296 4999,–,–,enquiries@portauthoritynsw.com.au
https://psma-gies.fao.org/designated-ports/view/a6cd3740-58cb-4ec2-b1e8-7757bf39503d,–,France,250,FR,FRA,France,Port-la-Nouvelle,–,–,–,–,–,–,–,–,–
https://psma-gies.fao.org/designated-ports/view/0256c910-4b74-43f6-a349-3e28cb1da710,–,United Kingdom,826,GB,GBR,Portavogie,Portavogie,–,–,–,Northern Ireland Fishery Harbour Authority,"NIFHA Offices The Harbour, Portavogie BT22 1EA",+44 028 427 71470,–,–,–
https://psma-gies.fao.org/designated-ports/view/f84f35a4-28f2-49fa-b980-a5111626d9ec,–,Cabo Verde,132,CV,CPV,Sal Island,Porto da Palmeira,–,N16°45'8'',W22°59'0'',EDMAR SANTOS - ADMINISTRADOR - Edmar.Santos@enapor.cv,PALMEIRA - iLHA DO SAL - CABO VERDE,+238 41 52 10,+238 41 13 48,–,porto.palmeira@enapor.cv
https://psma-gies.fao.org/designated-ports/view/672b1fee-4793-49e0-ae56-cc61267b9682,–,Cabo Verde,132,CV,CPV,SANTIAGO ISLAND,PORTO DA PRAIA,–,N14°54'51'',W23°30'6'',NELSON FREIRE - Nelson.Freire@enapor.cv,C.P. 87 - Praia Ilha de Santiago - República de Cabo Verde,+238 260 90 60,+238 263 38 99,–,portopraia@enapor.cv
https://psma-gies.fao.org/designated-ports/view/5dff084d-d0cc-441b-a72d-e66b22fa608e,–,Angola,24,AO,AGO,Luanda,Porto de Luanda,–,–,–,Director Geral,"Largo 4 de Fevereiro, CX Postal 1224-C1-Angola",+244 949591616,+244 949 591 515,–,fiscalizacao@portoluanda.co.ao
https://psma-gies.fao.org/designated-ports/view/e8546acb-fc58-4877-b936-33067aa46fbc,–,Angola,24,AO,AGO,Benguela,Porto do Lobito,–,–,–,Director Geral,"Baía do Lobito, Província de Benguela, Angola",+244 924 058 387,+244 27222 2717,–,marketing@eplobito.net
https://psma-gies.fao.org/designated-ports/view/762d55bd-4d08-44c7-8a7e-649100ec2677,–,Cabo Verde,132,CV,CPV,–,PORTO GRANDE,–,N16°35'16'',W25°0'3'',Administrador Delegado - EDMAR SANTOS,"Av. Marginal, C.P. 82 Mindelo São Vicente - Cabo Verde",+238 +(238) 230 75 00,+238 + (238) 232 14  33,–,portogrande@enapor.cv
https://psma-gies.fao.org/designated-ports/view/7c1caa60-6242-4fab-95a0-2649fe1d8472,–,New Zealand,554,NZ,NZL,Auckland,Ports of Auckland Ltd,Princes and Queens Wharf,–,–,Ports of Auckland,"PO Box 1281, Shortland Street  Auckland 1140  New Zealand",+64 9 348 5000,–,–,customerservice@poal.co.nz
https://psma-gies.fao.org/designated-ports/view/dc917684-707b-4cf9-9ee6-60a61acceefd,–,United Kingdom,826,GB,GBR,Portsmouth,Portsmouth,–,–,–,"Portsmouth International Port Operators: MMD, Brittany Ferries, Condor Ferries, LD Lines, Wightlink, Portsmouth Handling (Stevedores) Royal Navy","Port Manager’s Dept Harbour Offices, Whale Island Way George Byng Way, Portsmouth PO2 8EB",+44 023 9229 7391,–,–,info@portsmouth-port.co.uk
https://psma-gies.fao.org/designated-ports/view/43ed64c4-440c-4589-818d-eaf5456bb665,–,Ecuador,218,EC,ECU,"PROVINCIA DEL GUAYAS, CANTÓN GUAYAQUIL",PRIMATIERRE S.A.,PRIMATIERRE,S2°13'19'',W79°53'13'',ING. FERNANDEZ HINGTON MANUEL IGNACIO,"BARRIO CUBA, GENERAL ROBLES 415 Y FRANCISCO SEGURA",+593 04 2440380,–,–,kalvarado@ferhing.com
https://psma-gies.fao.org/designated-ports/view/bedad0d4-eaae-4fc0-9524-82f2436cf2db,–,New Zealand,554,NZ,NZL,Timaru,PrimePort,–,–,–,PrimePort Ltd,"PrimePort Ltd PO Box: 544,  Timaru,  New Zealand",+64 3 687 2700,+64 3 687 2709,–,info@primeport.co.nz
https://psma-gies.fao.org/designated-ports/view/07c7451a-41f4-4aca-822f-31c97ba41069,–,Canada,124,CA,CAN,"54.3150° N, 130.3208° W","Prince Rupert, BC",–,–,–,–,–,–,–,–,–
https://psma-gies.fao.org/designated-ports/view/a4eb4743-5501-4cce-902f-48455a580473,–,Ecuador,218,EC,ECU,GUAYAQUIL – PARROQUIA POSORJA,PROCESADORA POSORJA PROPOSORJA S.A.,PROPOSORJA,S2°43'27'',W80°14'37'',ING. LEONARDO AGUIRRE PINCAY / GERENTE DE FLOTA,GUAYAS / GUAYAQUIL / POSORJA / BARRIO 8 DE JULIO MZ 70 SOLAR 2 JUNTO A LA PLANTA DE NIRSA,+593 4 2067069,–,–,laquirre@nirsa.com
https://psma-gies.fao.org/designated-ports/view/4d06add8-e57a-447f-b8e6-899d4b729e26,–,Panama,591,PA,PAN,"PANAMA OESTE, RODMAN",PSA RODMAN,PSA RODMAN,N8°57'0'',W79°34'0'',PANAMA MARITIME AUTHORITY   /    AQUATIC RESOURCES AUTHORITY OF PANAMA,"PANAMA OESTE, RODMAN",+507 511-6000,–,–,merp@arap.gob.pa
https://psma-gies.fao.org/designated-ports/view/756ac1e5-799b-4d9a-bd45-97e074405b1d,–,Thailand,764,TH,THA,"11 Rat Burana District. Rat Burana Area, Bangkok 10140",Public Warehouse Organization port (2 storehouse port No. 27 A),–,–,–,Fishery Inspection Regional Center 3 (Bangkok),"Pat-Sa-Du building, Floor 2 , Thai Port, Kwang Khlong Toei, Khet Khlong Toei, Bangkok",+66 26718794,+66 26727901,–,psmfishtrade@gmail.com
https://psma-gies.fao.org/designated-ports/view/1e9e9882-2bbd-4ac6-b05e-a7d4fb0f4511,–,Panama,591,PA,PAN,"CHIRIQUI, PUERTO ARMUELLES",PUERTO ARMUELLES,PUERTO ARMUELLES,N8°16'0'',W82°51'0'',PANAMA MARITIME AUTHORITY   /    AQUATIC RESOURCES AUTHORITY OF PANAMA,"PUERTO ARMUELLES, CHIRIQUI",+507 511-6000,–,–,merp@arap.gob.pa
https://psma-gies.fao.org/designated-ports/view/2b0ce051-710f-48fa-a5b4-ee97c8472052,–,Panama,591,PA,PAN,"PANAMA CENTRO, BALBOA",PUERTO BALBOA,PUERTO BALBOA,N8°57'0'',W79°33'0'',PANAMA MARITIME AUTHORITY   /    AQUATIC RESOURCES AUTHORITY OF PANAMA,"PANAMA CENTRO, BALBOA",+507 511-6000,–,–,merp@arap.gob.pa
https://psma-gies.fao.org/designated-ports/view/00662b30-1672-4ca2-a096-291d937a7d75,–,Costa Rica,188,CR,CRI,Caldera,Puerto Caldera,Puerto Caldera,S0°0'0'',W0°0'0'',–,–,–,–,–,–
https://psma-gies.fao.org/designated-ports/view/b8690d3b-b61d-4d19-8802-1fa5931733ff,–,Mexico,484,MX,MEX,"PUERTO CHIAPAS, CHIAPAS",PUERTO CHIAPAS,–,–,–,–,–,–,–,–,–
https://psma-gies.fao.org/designated-ports/view/8c15ea0d-65e8-407c-bb75-af1943308c74,–,Panama,591,PA,PAN,"COLON, CRISTOBAL",PUERTO CRISTOBAL,PUERTO CRISTOBAL,N9°21'0'',W79°54'0'',PANAMA MARITIME AUTHORITY   /    AQUATIC RESOURCES AUTHORITY OF PANAMA,"CRISTOBAL, COLON",+507 511-6000,–,–,merp@arap.gob
https://psma-gies.fao.org/designated-ports/view/8266edfd-5347-4a06-b10c-c52cc3373bd0,–,Peru,604,PE,PER,DEPARTAMENTO DE ANCASH,PUERTO DE CHIMBOTE,–,S9°6'52'',E78°36'26'',AUTORIDAD PORTUARIA REGIONAL DE ANCASH,–,+51 43 467 009,–,–,–
https://psma-gies.fao.org/designated-ports/view/6634b4f2-c7cb-43da-b2e1-ea6b6533057b,–,Peru,604,PE,PER,DEPARTAMENTO DE MOQUEGUA,PUERTO DE ILO,–,S17°38'18'',E71°27'0'',AUTORIDAD PORTUARIA NACIONAL – APN,–,+51 16309600,–,–,–
https://psma-gies.fao.org/designated-ports/view/c9ad9a95-df9d-437e-a46e-b5eff407fa56,–,Peru,604,PE,PER,DEPARTAMENTO DE PIURA,PUERTO DE PAITA,–,S5°2'18'',E81°13'6'',AUTORIDAD PORTUARIA NACIONAL – APN,–,+51 16309600,–,–,–
https://psma-gies.fao.org/designated-ports/view/93b7551e-fb27-45ed-aba5-bddadc9c3530,–,Peru,604,PE,PER,DEPARTAMENTO DE ICA,PUERTO DE PISCO,–,S13°42'18'',E76°17'27'',AUTORIDAD PORTUARIA NACIONAL – APN,–,+51 16309600,–,–,–
https://psma-gies.fao.org/designated-ports/view/a5cb862b-9ee3-4d64-b920-c284d76dcda3,–,Spain,724,ES,ESP,CANARIAS,PUERTO DEL ROSARIO (NO PIF),–,–,–,"SUBDIRECCION GENERAL DE VIGILANCIA PESQUERA Y LUCHA CONTRA LA PESCA ILEGAL - SECRETARIA GENERAL DE PESCA - MINISTERIO DE AGRICULTURA, PESCA Y ALIMENTACION","C/ Velázquez, 147 28071 MADRID ESPAÑA",+34 913471949,–,–,iuu_slo_esp@mapa.es
https://psma-gies.fao.org/designated-ports/view/35ef213b-4caa-4bc1-ba2a-cc1b57f4616c,–,Costa Rica,188,CR,CRI,GOLFITO,PUERTO GOLFITO,–,–,–,INSTITUTO COSTARRICENSE DE PUERTOS DEL PACÍFICO,–,+506 2634-91 0,+506 2775-3252,–,tgolfito@incop.go.cr
https://psma-gies.fao.org/designated-ports/view/f99aacca-de72-45ea-b0f0-cfeb5e35842d,–,Panama,591,PA,PAN,"PANAMA OESTE, VACAMONTE",PUERTO VACAMONTE,PUERTO VACAMONTE,N8°52'0'',W79°40'0'',PANAMA MARITIME AUTHORITY   /    AQUATIC RESOURCES AUTHORITY OF PANAMA,"PANAMA OESTE, VACAMONTE",+507 511-6000,–,–,merp@arap.gob.pa
https://psma-gies.fao.org/designated-ports/view/c6b8a635-7558-4c72-8104-166e05b9b77f,–,Chile,152,CL,CHL,PUERTO WILLIAMS,PUERTO WILLIAMS,–,–,–,SERVICIO NACIONAL DE PESCA Y ACUICULTURA,Teniente Muñoz N°104,+56 (61) 2621106,–,–,vms@sernapesca.cl
https://psma-gies.fao.org/designated-ports/view/3071655e-fea3-4bf1-83ce-9576e6583899,–,Chile,152,CL,CHL,PUNTA ARENAS,PUNTA ARENAS,–,–,–,SERVICIO NACIONAL DE PESCA Y ACUICULTURA,21 de Mayo N° 1490,+56 (61) 2241668,–,–,vms@sernapesca.cl
https://psma-gies.fao.org/designated-ports/view/3eaff25e-ff2b-4f92-abbd-89c84ddb4f6c,–,"Korea, Republic of",410,KR,KOR,"Pyeongtaek,Dangjin","Pyeongtaek,Dangjin Port",–,–,–,–,–,–,–,–,–
https://psma-gies.fao.org/designated-ports/view/cd2d0abf-fd5f-40d6-b961-12db2ce7f7f4,–,Papua New Guinea,598,PG,PNG,RABAUL,RABAUL,RABAUL,S4°11'29'',E152°10'37'',PNG PORTS CORPORATION LIMITED,"P. O. BOX 492
RABAUL
EAST NEW BRITAIN PROVINCE
PAPUA NEW GUINEA",+675 9821823,+675 9821823,www.fisheries.gov.pg,nfa@fisheries.gov.pg
https://psma-gies.fao.org/designated-ports/view/7cf9a5f9-cf40-4207-8899-4f63e1566b44,–,Italy,380,IT,ITA,Ravenna,Ravenna,–,–,–,Direzione Marittima di Ravenna,"via Antico Squero n.5, 48121 (sede Darsena Ravenna)",+39 0544443011,–,–,cpravenna@mit.gov.it
https://psma-gies.fao.org/designated-ports/view/feb2226a-91e9-4916-8fcf-34693b6a970c,–,Italy,380,IT,ITA,Reggio Calabria,Reggio Calabria,–,–,–,Direzione Marittima di Reggio Calabria,Piazzale porto n. 2 - 89100 Reggio Calabria (RC),+39 0965656111,–,–,cpreggio@mit.gov.it
https://psma-gies.fao.org/designated-ports/view/fd7dec62-b97d-4525-ba0b-bbab4006c349,–,Spain,724,ES,ESP,GALICIA,RIBEIRA,–,N42°33'38'',W8°59'8'',"SUBDIRECCIÓN GENERAL DE VIGILANCIA PESQUERA Y LUCHA CONTRA LA PESCA ILEGAL  (SECRETARIA GENERAL DE PESCA) MINISTERIO DE AGRICULTURA, PESCA Y ALIMENTACIÓN",Calle Velázquez nº147 28071 - Madrid España,+34 913471949,913471512,–,iuu_slo_esp@mapama.es
https://psma-gies.fao.org/designated-ports/view/1ba5942e-a014-4aa7-bab4-d572c438b763,–,Croatia,191,HR,HRV,North Adriatic,Rijeka,Rijeka,–,–,–,–,+385 51214031,–,–,Rijeka.pomorskipromet@pomorstvo.hr
https://psma-gies.fao.org/designated-ports/view/c6b358b8-9f85-45c8-9fe8-854a42b6ae48,–,Nigeria,566,NG,NGA,Port Harcourt,Rivers Port Complex,–,–,–,–,–,–,–,–,–
https://psma-gies.fao.org/designated-ports/view/fb8c48b7-c2fb-4ec1-a1da-cf59c81fe246,–,France,250,FR,FRA,France,Rochefort sur Mer,–,–,–,–,–,–,–,–,–
https://psma-gies.fao.org/designated-ports/view/9aa0baf1-b2b2-46de-936e-8f116db78def,–,France,250,FR,FRA,France,Roscoff,–,–,–,–,–,–,–,–,–
https://psma-gies.fao.org/designated-ports/view/a927281b-ceb6-42d5-bdd1-3b1c0f3b44f5,–,Germany,276,DE,DEU,Rostock,Rostock,–,N54°5'6'',E12°7'4'',"Landesamt für Landwirtschaft, Lebensmittelsicherheit und Fischerei MV, Abt. Fischerei",Thierfelder Straße 18 18059 Rostock Germany,+49 38140350,+49 3814001510,–,poststelle@lallf.mvnet.de
https://psma-gies.fao.org/designated-ports/view/84775e42-259a-4b38-b0c4-6e2798221439,–,Norway,578,NO,NOR,Rypefjord,Rypefjord,–,–,–,–,–,–,–,–,–
https://psma-gies.fao.org/designated-ports/view/205e79db-a53e-42d4-86ec-29a86f87af9d,–,Sweden,752,SE,SWE,5756N 01134E,Rönnäng,–,–,–,–,–,–,–,–,–
https://psma-gies.fao.org/designated-ports/view/1b157181-5f72-495a-b3bd-91aaeb16b9da,–,Thailand,764,TH,THA,"50 Moo 4, Bangchak, Phra Pradaeng, Samut Prakan 10130",Sabasathaporn Company Limited port (21B),–,–,–,Fishery Inspection Regional Center 3 (Bangkok),"Pat-Sa-Du building, Floor 2 , Thai Port, Kwang Khlong Toei, Khet Khlong Toei, Bangkok",+66 26718794,+66 26727901,–,psmfishtrade@gmail.com
https://psma-gies.fao.org/designated-ports/view/1ce5b543-3436-4354-bb1d-e5bdd908f54a,–,Morocco,504,MA,MAR,MAROC,SAFI VILLE,–,S0°0'0'',W0°0'0'',Délégation des Pêches Maritimes de SAFI,–,212,212,–,mustapha.marjane@mpm.gov.ma
https://psma-gies.fao.org/designated-ports/view/bbc9309d-2ba3-4805-863f-6c7270b1f9c8,–,France,250,FR,FRA,France,Saint-Malo,–,–,–,–,–,–,–,–,–
https://psma-gies.fao.org/designated-ports/view/fc4d84bc-99fb-4627-9ece-f823b1a2bdc9,–,France,250,FR,FRA,Saint Pierre et Miquelon,Saint-Pierre,–,S0°0'0'',W0°0'0'',–,"Saint-Pierre 97500
St. Pierre et Miquelon",–,–,–,–
https://psma-gies.fao.org/designated-ports/view/4682b2d5-4b85-40ce-82ab-e74d94eef55f,–,Ecuador,218,EC,ECU,GUAYAQUIL – PARROQUIA POSORJA,SALICA DEL ECUADOR,SALICA,S2°41'50'',W80°14'44'',JOSE REMIGIO CISNEROS PAZMIÑO,NERI CHAYEN SOLAR 1-2 Y FICUS,+593 04 600 6990,–,–,agente@ecuanautica.com.ec
https://psma-gies.fao.org/designated-ports/view/18a51be8-dc78-439d-937e-0e7e55a35ebb,–,Canada,124,CA,CAN,4428N 06336W,"Sambro, NS",–,–,–,–,–,–,–,–,–
https://psma-gies.fao.org/designated-ports/view/4b422371-2868-45fb-9279-f906f4d966ee,–,"Korea, Republic of",410,KR,KOR,Samcheok,Samcheok Port,–,–,–,–,–,–,–,–,–
https://psma-gies.fao.org/designated-ports/view/c331ef76-d0bf-4b3a-b236-f6590221e508,–,"Korea, Republic of",410,KR,KOR,Samcheonpo,Samcheonpo Port,–,–,–,–,–,–,–,–,–
https://psma-gies.fao.org/designated-ports/view/8565e7b8-486f-4e71-9894-02ce747f65cd,–,Trinidad and Tobago,780,TT,TTO,San Fernando,San Fernando,King's Whart is the area within the port of San Fernando that services foreign fishing vessels,N10°16'59'',W61°28'16'',–,–,+1 868 223 4351,+1 868 627 9886,–,ralfred@mowt.gov.tt
https://psma-gies.fao.org/designated-ports/view/454d1ca1-20e2-48a2-a3bb-f3f693cd3fc0,–,Chile,152,CL,CHL,SAN VICENTE,SAN VICENTE,–,–,–,SERVICIO NACIONAL DE PESCA Y ACUICULTURA,"Alto Horno Nº 515, sector Higueras, Talcahuano",+56 (41) 3169000,–,–,vms@sernapesca.cl
https://psma-gies.fao.org/designated-ports/view/7cfbde36-c98a-430f-b983-5fe29f691627,–,Spain,724,ES,ESP,SANTA CRUZ DE TENERIFE,SANTA CRUZ DE TENERIFE,–,N28°29'36'',W16°12'26'',"SUBDIRECCIÓN GENERAL DE CONTROL E INSPECCIÓN  (SECRETARIA GENERAL DE PESCA) MINISTERIO DE AGRICULTURA, PESCA Y ALIMENTACIÓN",Calle Velázquez nº147 28071 - Madrid España,+34 913471949,913471512,–,iuu_slo_esp@mapama.es
https://psma-gies.fao.org/designated-ports/view/7895828e-d582-40eb-af56-073a7749d1ce,–,Spain,724,ES,ESP,CANTABRIA,SANTANDER,–,N43°27'3'',W3°49'14'',"SUBDIRECCIÓN GENERAL DE VIGILANCIA PESQUERA Y LUCHA CONTRA LA PESCA ILEGAL  (SECRETARIA GENERAL DE PESCA) MINISTERIO DE AGRICULTURA, PESCA Y ALIMENTACIÓN",Calle Velázquez nº147 28071 - Madrid España,+34 913471949,913471512,–,iuu_slo_esp@mapama.es
https://psma-gies.fao.org/designated-ports/view/0a1b1d02-3056-4a0e-a83f-384593b8ba18,–,Cuba,192,CU,CUB,"Φ-19°58'0""N. ʎ-75°52'30"" W",SANTIAGO DE CUBA,–,–,–,A.M.T.O,Jesus Menendez Esquina Enramada Centro de Negocios Santiago de Cuba,–,–,–,pd@apsc.transnet.cu
https://psma-gies.fao.org/designated-ports/view/68bb1ca1-af9f-4bac-9126-3b307228b811,–,Japan,392,JP,JPN,Nagasaki,Sasebo,–,–,–,–,–,–,–,–,–
https://psma-gies.fao.org/designated-ports/view/fac7dda6-fb2c-4445-850c-5eac4cb25c3e,–,Thailand,764,TH,THA,"116 Moo 3, Tammalang, Mueang Satun, Satun 91000",Satun Fishing port,–,–,–,Fishery Inspection Regional Center 9 (Satun),"Satun Fish Inspection Office, Tammalang, Mueang Satun, Satun 91000",+66 74710620,+66 74710621,–,satun.aaio@gmail.com
https://psma-gies.fao.org/designated-ports/view/ccca7ef0-fc90-4353-a7e3-63b05ec1dc96,–,United Kingdom,826,GB,GBR,Scalloway,Scalloway,Scalloway Harbour,–,–,Shetland Islands Council,Scalloway Harbour Office Saga Buildings Blacksness Pier Scalloway ZE1 0TQ,+44 01595744221,+44 01595880566,–,scalloway.harbour@shetland.gov.uk
https://psma-gies.fao.org/designated-ports/view/a84d1848-698f-40aa-a05d-ae68f339ed1b,–,United Kingdom,826,GB,GBR,Scarborough,Scarborough,Scarborough Harbour,–,–,Scarborough Borough Council,"Harbour Office, 18 West Pier, Scarborough, YO11 1PD",+44 01723 373530,+44 08701911327,–,port.services@scarborough.gov.uk
https://psma-gies.fao.org/designated-ports/view/b6675f4a-ed34-442b-bc04-206ba98aa915,–,Netherlands,528,NL,NLD,Scheveningen,Scheveningen,–,–,–,–,–,–,–,–,–
https://psma-gies.fao.org/designated-ports/view/0ff0f818-96a4-425b-88cc-f5f25b9ebf0a,–,United Kingdom,826,GB,GBR,Scrabster,Scrabster,–,–,–,Scrabster Harbour,"Harbour Office, Scrabster Nr Thurso, Caithness KW14 7UJ",+44 1847 892779,+44 1847 892353,–,harbour@scrabster.co.uk
https://psma-gies.fao.org/designated-ports/view/4038fa1b-7da3-4ff5-9c03-a63e0c1ac254,–,Norway,578,NO,NOR,Selje,Selje,–,–,–,–,–,–,–,–,–
https://psma-gies.fao.org/designated-ports/view/982b1310-17f0-4c25-97b1-8eb05c4c4b5a,–,Japan,392,JP,JPN,Miyagi,Sendaishiogama,–,–,–,–,–,–,–,–,–
https://psma-gies.fao.org/designated-ports/view/0a6ab751-0e19-4463-b9b0-16047a615dae,–,Norway,578,NO,NOR,Senjahopen,Senjahopen,–,–,–,–,–,–,–,–,–
https://psma-gies.fao.org/designated-ports/view/d87ab594-fd89-4266-a0b7-b23d3214d3d7,–,"Korea, Republic of",410,KR,KOR,Seogwipo,Seogwipo Port,–,–,–,–,–,–,–,–,–
https://psma-gies.fao.org/designated-ports/view/bfce714e-3885-4c64-a05d-c63ba8383f68,–,"Korea, Republic of",410,KR,KOR,Seoul,Seoul Port,–,–,–,–,–,–,–,–,–
https://psma-gies.fao.org/designated-ports/view/9b81f3f2-f153-4594-9bc4-4d3de39c21d9,–,Japan,392,JP,JPN,Hiroshima,Setoda,–,–,–,–,–,–,–,–,–
https://psma-gies.fao.org/designated-ports/view/79ecf6ff-a859-4087-a3fe-d7c9e926bd1c,–,Portugal,620,PT,PRT,Setúbal,Setúbal,–,–,–,"Administração do Porto de Setúbal e Sesimbra, SA",Praça da República 2904-508 Setúbal,–,–,–,–
https://psma-gies.fao.org/designated-ports/view/fb8c9396-5236-4780-ae06-b20d3c5cd575,–,Canada,124,CA,CAN,"43.7644° N, 65.3240° W","Shelbourne, NS",–,–,–,–,–,–,–,–,–
https://psma-gies.fao.org/designated-ports/view/2f0d2e11-a4f0-4c55-b391-2edf257666d2,–,Japan,392,JP,JPN,Horoshima,Shigei,–,–,–,–,–,–,–,–,–
https://psma-gies.fao.org/designated-ports/view/3248d7dc-5e63-4e03-b617-636b08b201f6,–,Japan,392,JP,JPN,Shizuoka,Shimizu,–,–,–,–,–,–,–,–,–
https://psma-gies.fao.org/designated-ports/view/951d598c-1a02-4547-8863-d07092e7e1d9,–,Kenya,404,KE,KEN,SHIMONI,SHIMONI,SHIMOMI,S4°38'52'',E30°22'47'',KENYA FISHERIES SERVICE,P. O. BOX 48511 - 00100 NAIROBI,–,–,www.kefs.go.ke,info@kefs.go.ke
https://psma-gies.fao.org/designated-ports/view/46cb4976-85ee-4bf1-bbad-950d6aebab0e,–,Japan,392,JP,JPN,Yamaguchi,Shimonoseki,–,–,–,–,–,–,–,–,–
https://psma-gies.fao.org/designated-ports/view/c6325f71-dc87-4f45-a6bf-1c69784775c0,–,United Kingdom,826,GB,GBR,Shoreham,Shoreham,–,–,–,Shoreham Port Authority,"Nautilus House 90-100 Albion Street, Southwick Brighton, Sussex BN42 4ED",+44 01273 598100,+44 01273 592492,–,info@shoreham-port.co.uk
https://psma-gies.fao.org/designated-ports/view/68419b68-3b79-4908-b75b-b94bd861635e,–,Myanmar,104,MM,MMR,Yangon,Shwe Zin Yaw Hein Port,Shwe Zin Yaw Hein Jetty,N16°50'14'',E96°6'43'',Department of Fisheries,"Haling River Street, Kannar (West), No-3, Ward, Hlaing Township, Yangon",+95 9450249470,–,–,fmdnpt@gmail.com
https://psma-gies.fao.org/designated-ports/view/5d3f05f2-e8fd-4e17-aa88-dacb1139cde2,–,Sweden,752,SE,SWE,5533N 01421E,Simrishamn,–,–,–,–,–,–,–,–,–
https://psma-gies.fao.org/designated-ports/view/a8db16d0-a7a4-4a57-9fc4-4d08bcd39d69,–,Portugal,620,PT,PRT,Sines,Sines,–,–,–,"Administração do Porto de Sines, SA",Apartado 16 EC Sines 7521-953 Sines,–,–,–,–
https://psma-gies.fao.org/designated-ports/view/770b5d2c-6829-46e6-836a-c668ead4e093,–,Norway,578,NO,NOR,Sirevåg,Sirevåg,–,–,–,–,–,–,–,–,–
https://psma-gies.fao.org/designated-ports/view/e81a5175-4517-4eb8-a3f9-03df72ee75d2,–,Denmark,208,DK,DNK,Kattegat,Skagen,–,N57°43'10'',E10°35'3'',Port of Skagen,"Havnevagtvej 30, DK- 9990 Skagen",+45 98441346,–,–,–
https://psma-gies.fao.org/designated-ports/view/07d09576-539b-472c-bcfe-78c79593c242,–,Norway,578,NO,NOR,Skudeneshavn,Skudeneshavn,–,–,–,–,–,–,–,–,–
https://psma-gies.fao.org/designated-ports/view/f6000687-3520-4532-a565-ec5939f50456,–,Sweden,752,SE,SWE,5742N 01848E,Slite,–,–,–,–,–,–,–,–,–
https://psma-gies.fao.org/designated-ports/view/20e822e4-5286-4e55-8ba8-16d58bb6343e,–,Sweden,752,SE,SWE,5821N 01114E,Smögen,–,–,–,–,–,–,–,–,–
https://psma-gies.fao.org/designated-ports/view/1c23288e-58ef-401d-9793-803b8796bb1f,–,Norway,578,NO,NOR,Smøla,Smøla,–,–,–,–,–,–,–,–,–
https://psma-gies.fao.org/designated-ports/view/c7bc6e29-6e69-4a71-9a04-287280b78ba9,–,"Korea, Republic of",410,KR,KOR,Sokcho,Sokcho Port,–,–,–,–,–,–,–,–,–
https://psma-gies.fao.org/designated-ports/view/e889d0d5-4be2-4b0e-9c72-b0c7c4975cfb,–,Japan,392,JP,JPN,Fukushima,Soma,–,–,–,–,–,–,–,–,–
https://psma-gies.fao.org/designated-ports/view/92178543-45b6-40f3-a7a8-f48d6df9e47f,–,Thailand,764,TH,THA,"Moo 7, Hua Khao, Singhanakhon District, Songkhla 90280",Songkhla Deep sea port,–,–,–,Fishery Inspection Regional Center 8 (Songkhla),"Songkhla Port Fish Inspection Office, Boyang, Maung District Songkhla",+66 74321945,+66 74321945,–,sk_fishtrade@hotmail.com
https://psma-gies.fao.org/designated-ports/view/40785f65-e719-4f21-ae86-afa92d643424,–,Thailand,764,TH,THA,"1 Thateabrue Road, Boryang, Mueang Songkhla, Songkhla 90000",Songkhla Fishing port 2 (Tha Sa-an),–,–,–,Fishery Inspection Regional Center 8 (Songkhla),"Songkhla Port Fish Inspection Office, Boyang, Maung District Songkhla",+66 74321945,+66 74321945,–,sk_fishtrade@hotmail.com
https://psma-gies.fao.org/designated-ports/view/59fc79ee-1c31-49d8-9238-9e0f70e6b0fa,–,Norway,578,NO,NOR,Sortland,Sortland,–,–,–,–,–,–,–,–,–
https://psma-gies.fao.org/designated-ports/view/5957127d-c1fd-425d-9237-32a5b25882d2,–,New Zealand,554,NZ,NZL,Bluff,South Port NZ  Ltd,South Port,–,–,South Port NZ Ltd,"South Port NZ Ltd Island Harbour,  251 Foreshore Road,  Bluff 9814,  New Zealand",+64 3 212 8159,+64 3 212 8685,–,–
https://psma-gies.fao.org/designated-ports/view/dbc3000b-a658-4a36-9307-657c08578177,–,Thailand,764,TH,THA,"159/3 Wichianchom Road, Boryang, Mueang Songkhla, Songkhla 90000","Southern Logistics (2009) Co., Ltd port",–,–,–,Fishery Inspection Regional Center 8 (Songkhla),"Songkhla Port Fish Inspection Office, Boyang, Maung District Songkhla",+66 74321945,+66 74321945,–,sk_fishtrade@hotmail.com
https://psma-gies.fao.org/designated-ports/view/bdec6fce-4dbd-4014-92b4-a6585ef8060a,–,Croatia,191,HR,HRV,"33,500; 16,450. Middle Adriatic",Split - Sjeverna luka,Split - Sjeverna luka,–,–,–,–,+385 21362436,–,–,Split.pomorskipromet@pomorstvo.hr
https://psma-gies.fao.org/designated-ports/view/3a90b7f5-21c4-4887-b6cd-8dd68f72af5d,–,Canada,124,CA,CAN,"47 37N , 052 44W","St. John's, Newfoundland",–,–,–,At. John's Port Authority,"1 Water Street St. John's, NL A1C 1A1",+1 709-7388742,–,–,info@sjpa.com
https://psma-gies.fao.org/designated-ports/view/3af84ef6-cdc3-4552-8918-eac259eb3f4d,–,Norway,578,NO,NOR,Stavern,Stavern,–,–,–,–,–,–,–,–,–
https://psma-gies.fao.org/designated-ports/view/9f14ec66-1914-48f8-894e-5b62c3afe2b3,–,Canada,124,CA,CAN,"49.120 N, 123.175 W","Steveston Harbour, British Columbia",–,–,–,–,British Columbia - Canada,–,–,–,–
https://psma-gies.fao.org/designated-ports/view/ea01683d-5e70-4fdd-ac29-7811c6c07b6a,–,Norway,578,NO,NOR,Storebø,Storebø,–,–,–,–,–,–,–,–,–
https://psma-gies.fao.org/designated-ports/view/ffa7b996-9b38-4874-896d-b5690ba0bdcb,–,Ecuador,218,EC,ECU,GUAYAQUIL,STOREOCEAN,STOREOCEAN S.A.,S2°13'59'',W79°52'54'',CMTE. FAUSTO LOPEZ VILLEGAS – GERENTE OPERACIONES TERMINAL PORTUARIO.,"CIUDADELA PRADERA 3 MANZANA 25 SOLAR 28, AVENIDA 10-B Y PASAJE 47 SE",+593 5006005 ext. 415,–,–,fausto.lopez@storeocean.com.ec
https://psma-gies.fao.org/designated-ports/view/3f0567f8-b9c7-44f3-aee9-6236789595ba,–,United Kingdom,826,GB,GBR,Stornoway,Stornoway,–,–,–,Stornoway Port Authority,"Amity House,  Esplanade Quay  Stornoway,  Isle of Lewis HS1 2XS",+44 1851 702688,+44 1851 705714,–,sypa@stornowayport.com
https://psma-gies.fao.org/designated-ports/view/887454b9-2a53-4515-ba02-0c75a10cfd97,–,Denmark,208,DK,DNK,Kattegat,Strandby,–,N57°29'7'',E10°30'4'',Port of Strandby,"Rødspættevej 5, DK-9970 Strandby",+45 98484042,–,–,mail@strandbyhavn.dk
https://psma-gies.fao.org/designated-ports/view/14b72ef8-1cad-4691-9ea3-768b9b0c3dd9,–,Sweden,752,SE,SWE,5856N 01110E,Strömstad,–,–,–,–,–,–,–,–,–
https://psma-gies.fao.org/designated-ports/view/4a67a68e-1695-46a5-ba4a-818bd522a2b5,–,Philippines,608,PH,PHL,"Subic Bay Freeport Zone, Olongapo City",SUBIC BAY PORT,–,–,–,SUBIC BAY METROPOLITAN AUTHORITY,"Bldg. 229, Waterfront Road, Subic Bay Freeport Zone, Olongapo City",+63 4782524000,+63 4782524185,–,administratorsoffice@sbm.com
https://psma-gies.fao.org/designated-ports/view/591b3db1-15d7-41be-855c-8562a6e826dd,–,Fiji,242,FJ,FJI,"SUVA, FIJI",SUVA PORT,KINGS and PRINCESS WHARF,–,–,PORTS AUTHORITY OF FIJI,"Kings Wharf, Usher St, Suva, Fiji.",+679 892 8303,–,–,–
https://psma-gies.fao.org/designated-ports/view/c3c79f48-8596-4fb2-b1fc-bb7dd062ac12,–,United Kingdom,826,GB,GBR,Swansea,Swansea,–,–,–,–,Harbour Office Lockhead King’s Dock Swansea SA1 1QR,+44 0870 609 6699,–,–,–
https://psma-gies.fao.org/designated-ports/view/941af537-13ac-451f-8053-e36347a814de,–,Poland,616,PL,POL,SWINOUJSCIE,SWINOUJSCIE,–,N53°54'0'',E14°15'20'',KAPITAN PORTU SWINOUJSCIE,"Urząd Morski w Szczecinie, pl. Batorego 4, 70-207 Szczecin, Poland",+48 914403391,–,–,osdyzurny_kpe@ums.gov.pl
https://psma-gies.fao.org/designated-ports/view/da412dfa-c9ac-4525-8f57-34142d98190b,–,Australia,36,AU,AUS,Norfolk Island,Sydney Bay (Kingston),–,–,–,Norfolk Island Regional Council,–,+61 +6723 22244,–,–,customercare@nirc.gov.nf
https://psma-gies.fao.org/designated-ports/view/92a0df34-8490-435a-8bf6-0efffc7728d5,–,Australia,36,AU,AUS,Sydney,Sydney Harbour,–,S33°49'59'',E151°16'59'',Port Authority of New South Wales,–,+61 02 9296 4999,–,–,enquiries@portauthoritynsw.com.au
https://psma-gies.fao.org/designated-ports/view/63b04e1b-c4c5-4548-b092-458b3fc9a294,–,Canada,124,CA,CAN,"46 09N , 060 12W","Sydney, Nova Scotia",Sydney Harbour,–,–,–,–,–,–,–,–
https://psma-gies.fao.org/designated-ports/view/87ba7d58-b0e3-4190-977f-ae19f429fcb6,–,Poland,616,PL,POL,SZCZECIN,SZCZECIN,–,N53°25'57'',E14°34'20'',KAPITAN PORTU SZCZECIN,"Urząd Morski w Szczecinie, pl. Batorego 4, 70-207 Szczecin, Poland",+48 914403510,–,–,oficerdyzurny_kpn@ums.gov.pl
https://psma-gies.fao.org/designated-ports/view/6be74243-31eb-4acb-8619-62b97abb9436,–,France,250,FR,FRA,France,Sète,–,–,–,–,–,–,–,–,–
https://psma-gies.fao.org/designated-ports/view/c202e7df-c4a8-47a9-89d6-82e359de6e8d,–,"Korea, Republic of",410,KR,KOR,Taean,Taean Port,–,–,–,–,–,–,–,–,–
https://psma-gies.fao.org/designated-ports/view/28f39a69-e63f-44c6-b67a-206574c49a89,–,Ghana,288,GH,GHA,Takoradi,Takoradi,–,–,–,Ghana Ports and Harbours Authority,"P.O. Box 708, Takoradi, Ghana",+233 312024073,+233 312022814,–,takoradi@ghanaports.net
https://psma-gies.fao.org/designated-ports/view/14da4809-ac4e-4f1d-b3a1-d0f82b7cc946,–,Chile,152,CL,CHL,TALCAHUANO,TALCAHUANO,–,–,–,SERVICIO NACIONAL DE PESCA Y ACUICULTURA,"Alto Horno Nº 515, sector Higueras, Talcahuano",+56 (41) 3169000,–,–,vms@sernapesca.cl
https://psma-gies.fao.org/designated-ports/view/bddcfe3b-8f78-45e5-ae15-22b58c80ba47,–,Morocco,504,MA,MAR,MAROC,TAN-TAN,–,S0°0'0'',W0°0'0'',Délégation des Pêches Maritimes de TAN-TAN,–,212,212,–,m.nafia@mpm.gov.ma
https://psma-gies.fao.org/designated-ports/view/c1622cbe-6e4b-4c5b-afee-d6832ec13583,–,Thailand,764,TH,THA,"89/27 Moo 1 Paknam, Mueang Ranong, Ranong 85000",Tanasarn port,–,–,–,Ranong Fishery Inspection Office,"174 Village No. 1, Paknam sub-district,  Muang District, Ranong Province",+66 77816330,+66 77816331,–,Danranong_fishtrade@hotmail.com
https://psma-gies.fao.org/designated-ports/view/7ff85690-6ab4-4501-966c-2d09250fc57d,–,Morocco,504,MA,MAR,MAROC,TANGER VILLE,–,N35°47'0'',W5°47'0'',Délégation des Pêches Maritimes de Tanger,"BP 263, Tanger",+212 539 37 47 02,+212 539 33 20 91,–,ELHOUARI@mpm.gov.ma
https://psma-gies.fao.org/designated-ports/view/e32bab9f-60f9-4ac3-bca8-407534f67380,–,Morocco,504,MA,MAR,MAROC,TANGER-MED,–,N35°47'2'',W5°48'14'',Délégation des Pêches Maritimes de Tanger,"BP 263, Tanger",+212 539 37 47 02,+212 539 33 20 91,–,ELHOUARI@mpm.gov.ma
https://psma-gies.fao.org/designated-ports/view/585797d7-4c06-496a-b898-0f73326dd4ac,–,Italy,380,IT,ITA,Taranto,Taranto,–,–,–,Capitaneria di porto di Taranto,Largo Arcivescovado n. 17 - 74123 Taranto (TA),+39 0994713611-01,+39 0994718288,–,cp-taranto@pec.mit.gov.it
https://psma-gies.fao.org/designated-ports/view/d59e6055-0821-4c4a-9b21-bea39ffb2dc0,–,Morocco,504,MA,MAR,MAROC,TARFAYA,–,S0°0'0'',W0°0'0'',Délégation des Pêches Maritimes de LAAYOUNE,–,212,212,–,abderrahman.elkhattat@mpm.gov.ma
https://psma-gies.fao.org/designated-ports/view/c97a433a-f34e-4b06-ad91-a99faedae0dd,–,Spain,724,ES,ESP,CATALUÑA,TARRAGONA,–,N41°6'30'',E1°14'23'',"SUBDIRECCIÓN GENERAL DE VIGILANCIA PESQUERA Y LUCHA CONTRA LA PESCA ILEGAL  (SECRETARIA GENERAL DE PESCA) MINISTERIO DE AGRICULTURA, PESCA Y ALIMENTACIÓN",Calle Velázquez nº147 28071 - Madrid España,+34 913471949,913471512,–,iuu_slo_esp@mapama.es
https://psma-gies.fao.org/designated-ports/view/f3ebb4e0-ff35-4759-9197-4e5b8bb56461,–,Costa Rica,188,CR,CRI,Puntarenas,Terminal Pesquera INCOPESCA,Terminal Pesquera INCOPESCA,S0°0'0'',W0°0'0'',–,–,–,–,–,–
https://psma-gies.fao.org/designated-ports/view/d3822dbf-5728-4cdd-947e-9c25e611c50e,–,Ecuador,218,EC,ECU,"MANTA, MANABÍ",TERMINAL PORTUARIO DE MANTA TPM,TPM,S0°56'27'',W80°43'43'',ING. SAMUEL FRANCO – GERENTE GENERAL / ING. HUGO ROSERO – GERENTE DE OPERACIONES,AV. MALECÓN Y CALLE S/N,+593 053702490,–,–,info@tpm.ec
https://psma-gies.fao.org/designated-ports/view/644ca200-b12c-4550-a7cb-e9e31d11326a,–,Thailand,764,TH,THA,"84/18 Moo 7, Thajeen, Mueang Samut Sakhon, Samut Sakhon 74000","Thajeen Union Port Co., Ltd port",–,–,–,Fishery Inspection Regional Center 5 (Samut Sakhon),"1024 Wichianchodok Road Sub. Mahachai  A. Muang Samut sakorn, Samutsakhon 74000",+66 34422643,+66 34422644,–,sk_inspected@windowslive.com
https://psma-gies.fao.org/designated-ports/view/6f47962d-b8f1-402f-b6c8-f1f3ec6cf914,–,Thailand,764,TH,THA,"45 Moo 2, Bangyor Distric, Phra Pradaeng, Samut Prakan 10130","Thanapornchai Co., Ltd port",Thanapornchai,–,–,Fishery Inspection Regional Center 3 (Bangkok),"Pat-Sa-Du building, Floor 2 , Thai Port, Kwang Khlong Toei, Khet Khlong Toei, Bangkok",+66 26718794,+66 26727901,–,psmfishtrade@gmail.com
https://psma-gies.fao.org/designated-ports/view/6ee048d9-b86a-4c17-98fc-77e4ae18e616,–,Denmark,208,DK,DNK,North Sea,Thyborøn,–,N56°41'9'',E8°13'4'',Port of Thyborøn,"Tankskibsvej 4, DK-7680 Thyborøn",+45 96900310,–,–,port@thyboronport.dk
https://psma-gies.fao.org/designated-ports/view/0c2562f7-1fa1-4551-9072-3116130c8042,–,Thailand,764,TH,THA,"23 Moo 7, Bangyor, Phra Pradaeng, Samut Prakan 10130",TJ Land Company Limited port,–,–,–,Fishery Inspection Regional Center 3 (Bangkok),"Pat-Sa-Du building, Floor 2 , Thai Port, Kwang Khlong Toei, Khet Khlong Toei, Bangkok",+66 26718794,+66 26727901,–,psmfishtrade@gmail.com
https://psma-gies.fao.org/designated-ports/view/7b0fc6cb-00af-4942-aabb-07cebc8f5f25,–,Madagascar,450,MG,MDG,Toamasina,Toamasina,Tamatave,S19°6'3'',E49°23'32'',"AGENCE PORTUAIRE, MARITIME ET FLUVIALE (APMF)","Ambodimanga B.P. 372, Toamasina",+261 321125790,261,https://www.apmf.mg,germpatrick@yahoo.fr
https://psma-gies.fao.org/designated-ports/view/5beb911d-b843-472d-a85b-71e5a2bcc895,–,Japan,392,JP,JPN,Hokkaido,Tokachi,–,–,–,–,–,–,–,–,–
https://psma-gies.fao.org/designated-ports/view/291ed873-fe1f-4d98-819b-a98575c502f0,–,Japan,392,JP,JPN,Yamaguchi,Tokuyamakudamatsu,–,–,–,–,–,–,–,–,–
https://psma-gies.fao.org/designated-ports/view/f1b842b4-2193-4ab0-9aa7-20f58d2a30de,–,Japan,392,JP,JPN,Tokyo,Tokyo,–,–,–,–,–,–,–,–,–
https://psma-gies.fao.org/designated-ports/view/fd275a67-e259-40a9-a282-2c4553d52e07,–,Madagascar,450,MG,MDG,TOLIARA,Toliara,Tuléar,S23°22'26'',E43°40'16'',"AGENCE PORTUAIRE, MARITIME ET FLUVIALE (APMF)",Avenue de France Mahavatse II B.P. 238,+261 321125763,261,https://www.apmf.mg,gerardazenort@gmail.com
https://psma-gies.fao.org/designated-ports/view/fcec4c84-1053-4ab2-a399-b8722b14900e,–,Japan,392,JP,JPN,Hokkaido,Tomakomai,–,–,–,–,–,–,–,–,–
https://psma-gies.fao.org/designated-ports/view/4e068aec-97ae-4ba5-b4c6-4ea5efedeb58,–,"Korea, Republic of",410,KR,KOR,Tongyeong,Tongyeong Port,–,–,–,–,–,–,–,–,–
https://psma-gies.fao.org/designated-ports/view/bc5f6b4b-4804-4b9c-8696-673a9458c311,–,Italy,380,IT,ITA,Trapani,Trapani,–,–,–,Capitaneria di porto di Trapani,Viale Ammiraglio Francese n. 1 - 91100 Trapani (TP),+39 0923543911,+39 092326703,–,cp-trapani@pec.mit.gov.it
https://psma-gies.fao.org/designated-ports/view/eea3c1b6-315e-4610-b43b-5059680f1a29,–,Sweden,752,SE,SWE,5522N 01309E,Trelleborg,–,–,–,–,–,–,–,–,–
https://psma-gies.fao.org/designated-ports/view/95cc37bc-d166-4474-b641-c212d54fc7c2,–,Canada,124,CA,CAN,4644N 05322W,"Trepassey, NL",–,–,–,–,–,–,–,–,–
https://psma-gies.fao.org/designated-ports/view/3037b5dd-cec9-4b26-9a93-df633a782f8a,–,Italy,380,IT,ITA,Trieste,Trieste,–,–,–,Direzione Marittima di Trieste,Piazza Duca degli Abruzzi n. 4 - 34132 Trieste (TS),+39 040676611,–,–,cptrieste@mit.gov.it
https://psma-gies.fao.org/designated-ports/view/8aef64f8-243f-4a32-9715-83fa644668a2,–,Norway,578,NO,NOR,Tromsø,Tromsø,–,–,–,–,–,–,–,–,–
https://psma-gies.fao.org/designated-ports/view/9dd97c77-59e9-406f-bac5-f0c70e4d5e68,–,Norway,578,NO,NOR,Trondheim,Trondheim,–,–,–,–,–,–,–,–,–
https://psma-gies.fao.org/designated-ports/view/ec4fc4cb-48c7-4eb4-82c7-f7e513767959,–,United Kingdom,826,GB,GBR,Troon,Troon,–,–,–,–,"Address (Administered from Ayr) Port Office, North Harbour Street, Ayr, KA8 8AH.",+44 01292 281 687,–,–,CommercialEA@abports.co.uk
https://psma-gies.fao.org/designated-ports/view/fc7b4d54-3db7-4944-9887-06301189f62b,–,Sweden,752,SE,SWE,5703N 01217E,Träslövsläge,–,–,–,–,–,–,–,–,–
https://psma-gies.fao.org/designated-ports/view/c534c2c3-3b37-4c55-83eb-a8096e314fb9,–,Norway,578,NO,NOR,Træna,Træna,–,–,–,–,–,–,–,–,–
https://psma-gies.fao.org/designated-ports/view/2dbd2c8a-4a65-46a9-ab1c-b1d4e7b18bf0,–,Canada,124,CA,CAN,4856N 12531W,Ucluelet,–,–,–,–,–,–,–,–,–
https://psma-gies.fao.org/designated-ports/view/708a022a-9f80-4b7c-bf70-d1adf0bdacd3,–,United Kingdom,826,GB,GBR,Ullapool,Ullapool,–,–,–,Ullapool Harbour Trustees,"Harbour Office, Ullapool, Ross-shire IV26 2UH",+44 1854 612724,+44 1854 612678,–,kevin@ullapool-harbour.co.uk
https://psma-gies.fao.org/designated-ports/view/ebb9f24f-71ed-4581-8eaa-2ae40f85ccbe,–,"Korea, Republic of",410,KR,KOR,Ulsan,Ulsan Port,–,–,–,–,–,–,–,–,–
https://psma-gies.fao.org/designated-ports/view/0582d674-9cd6-4264-b8be-dfa98dcace1a,–,Norway,578,NO,NOR,Uthaug,Uthaug,–,–,–,–,–,–,–,–,–
https://psma-gies.fao.org/designated-ports/view/34c30ce7-169c-47a9-a375-473d24cb4fcd,–,Japan,392,JP,JPN,Ehime,Uwajima,–,–,–,–,–,–,–,–,–
https://psma-gies.fao.org/designated-ports/view/a40c1754-86ed-4191-93ab-cd5e9710dfb7,–,Spain,724,ES,ESP,COMUNIDAD VALENCIANA,VALENCIA,–,N39°27'25'',W0°19'36'',"SUBDIRECCIÓN GENERAL DE CONTROL E INSPECCIÓN  (SECRETARIA GENERAL DE PESCA) MINISTERIO DE AGRICULTURA, PESCA Y ALIMENTACIÓN",Calle Velázquez nº147 28071 - Madrid España,+34 913471949,913471512,–,iuu_slo_esp@mapama.es
https://psma-gies.fao.org/designated-ports/view/49b430fb-64cd-4835-88b1-4c49d55ca27d,–,Chile,152,CL,CHL,VALPARAISO,VALPARAISO,–,–,–,SERVICIO NACIONAL DE PESCA Y ACUICULTURA,"Blanco 1215, 2° Piso, oficina 204. Edificio Nautilus.",+56 (32) 2592033,–,–,vms@sernapesca.cl
https://psma-gies.fao.org/designated-ports/view/945bde28-cf0a-43a6-8071-2b81224b8302,–,Canada,124,CA,CAN,"49.2965° N, 123.0884° W",Vancouver,Vancouver Harbour,N49°17'0'',W123°6'0'',https://www.portvancouver.com/,"100 The Pointe,  999 Canada Place  Vancouver, BC V6C 3T4",+1 (604).665.9000,+1 (866).284.4271,–,–
https://psma-gies.fao.org/designated-ports/view/0a115077-983f-405e-a80f-20316941f97b,–,Ecuador,218,EC,ECU,Guayaquil,VARADERO MARIDUEÑA S.A.,VARADERO MARIDUEÑA,S2°14'46'',W79°52'45'',ERNESTO FERNANDO MARIDUEÑA MOREIRA,GUASMO NORTE MZ 3 SOLAR 1-2 JUNTO A VOPAK,+593 04 2053292,–,–,gerencia@astilleromariduena.com.ec
https://psma-gies.fao.org/designated-ports/view/3929bfe4-2a5e-4edf-90c2-a1c5f39bc93b,–,Norway,578,NO,NOR,Vardø,Vardø,–,–,–,–,–,–,–,–,–
https://psma-gies.fao.org/designated-ports/view/9115b91d-7085-4b02-8017-56cb6625fa7a,–,Norway,578,NO,NOR,Vartdal,Vartdal,–,–,–,–,–,–,–,–,–
https://psma-gies.fao.org/designated-ports/view/51035211-789f-4147-9004-dd412aafab83,–,Norway,578,NO,NOR,Vedde,Vedde,–,–,–,–,–,–,–,–,–
https://psma-gies.fao.org/designated-ports/view/03c88d08-dacc-4ee6-9050-3572ff14a035,–,Netherlands,528,NL,NLD,Velsen,Velsen,–,–,–,–,–,–,–,–,–
https://psma-gies.fao.org/designated-ports/view/1ac11247-a04f-47cb-91a2-7000ab3bc3cb,–,Italy,380,IT,ITA,Venezia,Venezia,–,–,–,Direzione Marittima di Venezia,Dorsoduro n. 1408 - 30123 Venezia (VE),+39 0412405711,–,–,venezia@guardiacostiera.it
https://psma-gies.fao.org/designated-ports/view/c85bfb55-db46-4327-a772-8ec10b729ef2,–,Portugal,620,PT,PRT,Viana do Castelo,Viana do Castelo,–,–,–,"Instituto Portuário e dos Transportes Marítimos, IP Delegação dos Portos do Norte",Porto de Viana do Castelo 4900-056 Darque,–,–,–,–
https://psma-gies.fao.org/designated-ports/view/600bc545-1dc8-45eb-b1ff-4090ff32b202,–,Canada,124,CA,CAN,4826N 12321W,Victoria,–,–,–,–,–,–,–,–,–
https://psma-gies.fao.org/designated-ports/view/6bbcadc7-6063-4223-b07e-b5535597e86f,–,Spain,724,ES,ESP,GALICIA,VIGO,–,N42°14'14'',W8°43'55'',"SUBDIRECCIÓN GENERAL DE VIGILANCIA PESQUERA Y LUCHA CONTRA LA PESCA ILEGAL  (SECRETARIA GENERAL DE PESCA) MINISTERIO DE AGRICULTURA, PESCA Y ALIMENTACIÓN",Calle Velázquez nº147 28071 - Madrid España,+34 913471949,913471512,–,iuu_slo_esp@mapama.es
https://psma-gies.fao.org/designated-ports/view/d0f115bb-bba7-4081-b15e-c8908c5cea3d,–,Spain,724,ES,ESP,GALICIA,VILAGARCIA DE AROUSA,–,N42°35'40'',W8°46'31'',"SUBDIRECCIÓN GENERAL DE VIGILANCIA PESQUERA Y LUCHA CONTRA LA PESCA ILEGAL  (SECRETARIA GENERAL DE PESCA) MINISTERIO DE AGRICULTURA, PESCA Y ALIMENTACIÓN",Calle Velázquez nº147 28071 - Madrid España,+34 913471949,913471512,–,iuu_slo_esp@mapama.es
https://psma-gies.fao.org/designated-ports/view/7420dbb3-2185-4618-9800-39f9ca7c4554,–,Netherlands,528,NL,NLD,Vlissingen,Vlissingen,–,–,–,–,–,–,–,–,–
https://psma-gies.fao.org/designated-ports/view/502733fd-4804-412c-97ed-0a321f0c6601,–,Viet Nam,704,VN,VNM,Vung Tau,Vung Tau sea port/Tan Cang – Cai Mep Thi Vai Terminal (TCTT),Cảng biển Vũng Tàu/Tân cảng Cái Mép Thị Vải - TCTT,–,–,–,"Tan Loc hamlet, Phuoc Hoa, Tan Thanh, Ba Ria – Vung Tau",+84 2543938778,+84 2543938777,–,–
https://psma-gies.fao.org/designated-ports/view/3bcde1be-d86a-44f3-9fd4-a647d811c65d,–,Sweden,752,SE,SWE,5745N 01639E,Västervik,–,–,–,–,–,–,–,–,–
https://psma-gies.fao.org/designated-ports/view/d28226dc-c7a5-4d57-ad11-90fa22f3a47c,–,Norway,578,NO,NOR,Værøy,Værøy,–,–,–,–,–,–,–,–,–
https://psma-gies.fao.org/designated-ports/view/78a9246d-e408-4f41-975d-25287d0ce34d,–,"Korea, Republic of",410,KR,KOR,Wando,Wando Port,–,–,–,–,–,–,–,–,–
https://psma-gies.fao.org/designated-ports/view/c5358b42-9f04-44a3-aba5-4f03f995a9ec,–,United Kingdom,826,GB,GBR,Warrenpoint,Warrenpoint,–,–,–,–,"Harbour Office, The Docks Warrenpoint, Co Down BT34 3JR",+44 028 417 73381,+44 028 417 52875,–,d.holmes@warrenpointharbour.co.uk
https://psma-gies.fao.org/designated-ports/view/2bdced2b-740b-47e5-b269-17aa0df522a4,–,Papua New Guinea,598,PG,PNG,WEWAK,WEWAK,WEWAK,S3°33'41'',E143°36'55'',PNG PORTS CORPORATION LIMITED,"P. O. BOX 880
WEWAK
EAST SEPIK PROVINCE
PAPUA NEW GUINEA",+675 4562825,+675 4562595,www.fisehries.gov.pg,nfa@fisheries.gov.pg
https://psma-gies.fao.org/designated-ports/view/b6344edd-7dcf-476b-9de8-7894c948b593,–,United Kingdom,826,GB,GBR,Whitehaven,Whitehaven,–,–,–,Whitehaven Harbour Commissioners,"27 Lowther Street, Whitehaven, CA28 7DN",+44 01946 590515,–,–,info@whitehavenhc.org.uk
https://psma-gies.fao.org/designated-ports/view/59ab6bf5-7f72-4007-bf79-9e04d8ae8dca,–,Canada,124,CA,CAN,4717N 05250W,"Witless Bay, NL",–,–,–,–,–,–,–,–,–
https://psma-gies.fao.org/designated-ports/view/219de887-d884-4592-baed-b3f27ac82bd9,–,Australia,36,AU,AUS,Wyndham,Wyndham Port,–,S15°28'0'',E128°5'59'',Kimberley Ports Authority (Cambridge Gulf Limited),Harbour Road  Wyndham WA 6740,+61 8 9161 1203,–,–,steve@cgltd.com.au
https://psma-gies.fao.org/designated-ports/view/f5d0194a-be69-4c37-9584-3adacf180722,–,Japan,392,JP,JPN,Shizuoka,Yaizu,–,–,–,–,–,–,–,–,–
https://psma-gies.fao.org/designated-ports/view/985353fa-024b-417a-9f7f-daa348db8385,–,Türkiye,792,TR,TUR,GÜZELBAHÇE-İZMİR,YALI FISHING PORT,YALI BALIKÇI BARINAĞI,–,–,–,"Yalı, Mithatpaşa Cd. No:242, 35310 Güzelbahçe/İzmir",+90 232 234 24 30,–,–,–
https://psma-gies.fao.org/designated-ports/view/b2d4101c-38cf-46f9-aee2-825741ea6270,–,Japan,392,JP,JPN,Kagoshima,Yamakawa,–,–,–,–,–,–,–,–,–
https://psma-gies.fao.org/designated-ports/view/9ddcbd98-0225-4927-a962-7a15e05d2d54,–,Canada,124,CA,CAN,"43.8302° N, 66.1298° W","Yarmouth, NS",–,–,–,–,–,–,–,–,–
https://psma-gies.fao.org/designated-ports/view/4d620e50-ce31-4661-ac48-40298cad0ef3,–,Japan,392,JP,JPN,Ehime,Yawatahama,–,–,–,–,–,–,–,–,–
https://psma-gies.fao.org/designated-ports/view/5fa7c8d3-bc0b-46c5-af3a-70d05e718c64,–,"Korea, Republic of",410,KR,KOR,Yeosu,Yeosu Port,–,–,–,–,–,–,–,–,–
https://psma-gies.fao.org/designated-ports/view/633b2cec-5e28-4379-a77e-48672c1148f6,–,Japan,392,JP,JPN,Kanagawa,Yokosuka,–,–,–,–,–,–,–,–,–
https://psma-gies.fao.org/designated-ports/view/8a2ae11a-53d4-4a2f-8e83-8ee31b423371,–,Croatia,191,HR,HRV,"44,100; 15,267. Middle Adriatic",Zadar - Gaženica,Zadar - Gaženica,–,–,–,–,+385 23254880,–,–,Zadar.pomorskipromet@pomorstvo.hr
https://psma-gies.fao.org/designated-ports/view/62b8e727-4c76-47df-971f-ba89cb5d6654,–,Belgium,56,BE,BEL,ZEEBRUGGE,ZEEBRUGGE,–,–,–,MBZ  - Maatschappij van de Brugse Zeehaven NV,"P.Vandammesluis, Isabellelaan 1, 8380 Zeebrugge Belgium  Auction: Vlaamse visveiling NV Noordzeestraat 201 8380 Zeebrugge, Belgium",+32 50 54 32 11,–,–,info@portofzeebrugge.be
https://psma-gies.fao.org/designated-ports/view/3c641bd6-fba3-4f20-ac8d-2431945ef5a8,–,Türkiye,792,TR,TUR,Ereğli-ZONGULDAK,ZONGULDAK BLACKSEA EREĞLİ FISHING PORT,ZONGULDAK KARADENİZ EREĞLİ BALIKÇI BARINAĞI,–,–,–,"Balıkçı Barınağı Sok., No:55, Orhanlar Mah., Ereğli, Zonguldak",+90 372 316 16 68,–,–,–
https://psma-gies.fao.org/designated-ports/view/6720e9f2-da2a-401d-8c1c-8661c0a50967,–,Libya,434,LY,LBY,ZWARAH LIBYA,ZWARAH PORT,ZWARAH PORT,N33°44'50'',E11°44'27'',GENERAL AUTHORTY OF MARINE FISHERY,LIBYA,+218 912754727,+218 925860445,–,did@gam.com.ly
https://psma-gies.fao.org/designated-ports/view/b5e235be-45c2-424d-a7e0-b00102fadd6e,–,Norway,578,NO,NOR,Ålesund,Ålesund,–,–,–,–,–,–,–,–,–